{
  "version": 0.6,
  "generator": "Overpass API 0.7.60.6 e2dc3e5b",
  "osm3s": {
    "timestamp_osm_base": "2023-08-06T13:07:42Z",
    "copyright": "The data included in this document is from www.openstreetmap.org. The data is made available under ODbL."
  },
  "elements": [

{
  "type": "node",
  "id": 5714806986,
  "lat": 48.3377492,
  "lon": 14.3186878,
  "tags": {
    "amenity": "bicycle_repair_station",
    "service:bicycle:pump": "yes"
  }
},
{
  "type": "node",
  "id": 5715898162,
  "lat": 48.3039445,
  "lon": 14.2912086,
  "tags": {
    "access": "yes",
    "amenity": "bicycle_repair_station",
    "opening_hours": "24/7"
  }
},
{
  "type": "node",
  "id": 5718518214,
  "lat": 48.3005377,
  "lon": 14.2950152,
  "tags": {
    "access": "yes",
    "amenity": "bicycle_repair_station",
    "opening_hours": "24/7",
    "service:bicycle:pump": "yes",
    "service:bicycle:pump:operational_status": "broken",
    "service:bicycle:tools": "yes"
  }
},
{
  "type": "node",
  "id": 6287961885,
  "lat": 48.3128605,
  "lon": 14.2979108,
  "tags": {
    "amenity": "bicycle_repair_station",
    "service:bicycle:pump": "yes"
  }
},
{
  "type": "node",
  "id": 6927641623,
  "lat": 48.2915640,
  "lon": 14.2916237,
  "tags": {
    "amenity": "bicycle_repair_station",
    "indoor": "yes",
    "level": "-1",
    "location": "underground",
    "service:bicycle:pump": "yes"
  }
},
{
  "type": "node",
  "id": 6927641628,
  "lat": 48.3122245,
  "lon": 14.2873751,
  "tags": {
    "amenity": "bicycle_repair_station",
    "service:bicycle:pump": "yes"
  }
},
{
  "type": "node",
  "id": 6927641629,
  "lat": 48.3060939,
  "lon": 14.2869620,
  "tags": {
    "amenity": "bicycle_repair_station",
    "opening_hours": "Mo-Fr 09:00-17:00",
    "service:bicycle:pump": "yes"
  }
},
{
  "type": "node",
  "id": 7902870716,
  "lat": 48.3306072,
  "lon": 14.1771186,
  "tags": {
    "amenity": "bicycle_repair_station",
    "service:bicycle:pump": "yes"
  }
},
{
  "type": "node",
  "id": 7982261131,
  "lat": 48.3614786,
  "lon": 14.0293154,
  "tags": {
    "amenity": "bicycle_repair_station",
    "fee": "no",
    "opening_hours": "24/7",
    "service:bicycle:pump": "yes",
    "service:bicycle:stand": "yes",
    "service:bicycle:tools": "yes"
  }
},
{
  "type": "node",
  "id": 8123579423,
  "lat": 48.2840936,
  "lon": 14.3698124,
  "tags": {
    "amenity": "bicycle_repair_station",
    "fee": "no",
    "opening_hours": "24/7",
    "operator": "ÖAMTC",
    "service:bicycle:pump": "yes",
    "service:bicycle:stand": "yes",
    "service:bicycle:tools": "yes"
  }
},
{
  "type": "node",
  "id": 9013380383,
  "lat": 48.1540878,
  "lon": 14.0268096,
  "tags": {
    "amenity": "bicycle_repair_station",
    "covered": "no",
    "fee": "no",
    "indoor": "no",
    "opening_hours": "24/7",
    "operator": "ÖAMTC",
    "service:bicycle:chain_tool": "no",
    "service:bicycle:parts": "no",
    "service:bicycle:pump": "yes",
    "service:bicycle:rental": "no",
    "service:bicycle:second_hand": "no",
    "service:bicycle:stand": "yes",
    "service:bicycle:tools": "yes"
  }
},
{
  "type": "node",
  "id": 9886695703,
  "lat": 48.3311927,
  "lon": 14.1699580,
  "tags": {
    "amenity": "bicycle_repair_station",
    "fee": "no",
    "opening_hours": "24/7"
  }
},
{
  "type": "node",
  "id": 10933476085,
  "lat": 48.3379058,
  "lon": 14.3231290,
  "tags": {
    "amenity": "bicycle_repair_station",
    "service:bicycle:pump": "yes"
  }
},
{
  "type": "node",
  "id": 10980348398,
  "lat": 48.3023769,
  "lon": 14.3058823,
  "tags": {
    "amenity": "bicycle_repair_station",
    "pump": "yes",
    "source": "survey"
  }
}

  ]
}
