{
  "version": 0.6,
  "generator": "Overpass API 0.7.59 e21c39fe",
  "osm3s": {
    "timestamp_osm_base": "2023-08-06T12:56:14Z",
    "copyright": "The data included in this document is from www.openstreetmap.org. The data is made available under ODbL."
  },
  "elements": [

{
  "type": "node",
  "id": 317839933,
  "lat": 48.2289599,
  "lon": 16.3502576,
  "tags": {
    "addr:city": "Wien",
    "addr:country": "AT",
    "addr:housenumber": "145-150",
    "addr:postcode": "1090",
    "addr:street": "Stadtbahnbogen",
    "email": "wien9@mountainbiker.at",
    "name": "Mountainbiker.at",
    "opening_hours": "Mo-Fr 10:00-18:30; Sa 09:00-16:30",
    "service:bicycle:repair": "yes",
    "shop": "bicycle",
    "website": "https://www.mountainbiker.at/"
  }
},
{
  "type": "node",
  "id": 333697323,
  "lat": 48.2376810,
  "lon": 16.3839507,
  "tags": {
    "addr:city": "Wien",
    "addr:country": "AT",
    "addr:housenumber": "75",
    "addr:postcode": "1200",
    "addr:street": "Leystraße",
    "email": "office@fahrradtrappl.at",
    "name": "Fahrrad Trappl",
    "opening_hours": "Mar-Jun: Mo 14:00-18:00; Mar-Jun: Tu-Fr 08:00-12:00,14:00-18:00; Mar-Jun: Sa 08:00-12:00; Jul-Sep: Mo 14:00-18:00; Jul-Sep: Tu-Fr 08:00-12:00,14:00-18:00; Oct 01-Dec 15: Tu-Fr 08:00-12:00,14:00-18:00; Feb: Tu-Fr 08:00-12:00,14:00-18:00; PH off",
    "operator": "Christian Trappl",
    "phone": "+43 1 3300696",
    "service:bicycle:pump": "no",
    "service:bicycle:repair": "yes",
    "service:bicycle:second_hand": "yes",
    "shop": "bicycle",
    "website": "http://www.fahrradtrappl.at",
    "wheelchair": "yes"
  }
},
{
  "type": "node",
  "id": 378289481,
  "lat": 48.2070312,
  "lon": 16.1796798,
  "tags": {
    "addr:city": "Purkersdorf",
    "addr:country": "AT",
    "addr:housenumber": "14",
    "addr:postcode": "3002",
    "addr:street": "Wiener Straße",
    "contact:email": "walter@morethanbike.at",
    "name": "morethanbike",
    "opening_hours": "Mo-We,Fr 09:00-13:00, 15:00-18:00; Th 13:00-20:00; Sa 09:00-13:00",
    "operator": "Walter Berchtold",
    "phone": "+43 2231 61284",
    "shop": "bicycle",
    "website": "http://www.morethanbike.at",
    "wheelchair": "yes"
  }
},
{
  "type": "node",
  "id": 378302209,
  "lat": 48.1989972,
  "lon": 16.3566324,
  "tags": {
    "addr:city": "Wien",
    "addr:country": "AT",
    "addr:housenumber": "20",
    "addr:postcode": "1060",
    "addr:street": "Stiegengasse",
    "name": "Ciclopia",
    "opening_hours": "Mo-Th 14:00-18:30; Fr 10:00-13:00,14:00-18:30; Sa 10:00-16:00; Feb 29-Nov 08: Mo,We 10:00-13:00,14:00-18:30; Su, PH off",
    "payment:cash": "yes",
    "payment:credit_cards": "yes",
    "payment:debit_cards": "yes",
    "phone": "+43 1 5867633",
    "service:bicycle:pump": "yes",
    "service:bicycle:repair": "yes",
    "shop": "bicycle",
    "website": "http://ciclopia.at/",
    "wheelchair": "limited"
  }
},
{
  "type": "node",
  "id": 430385505,
  "lat": 48.1780940,
  "lon": 16.2732499,
  "tags": {
    "addr:city": "Wien",
    "addr:country": "AT",
    "addr:housenumber": "6",
    "addr:postcode": "1130",
    "addr:street": "Rotenberggasse",
    "email": "hitec-sports@aon.at",
    "name": "Hitec Sports",
    "opening_hours": "Mo-Fr 16:00-19:30; Sa 10:00-13:00",
    "shop": "bicycle",
    "website": "www.hitec-sports.at"
  }
},
{
  "type": "node",
  "id": 452461938,
  "lat": 48.2059194,
  "lon": 16.3530613,
  "tags": {
    "addr:city": "Wien",
    "addr:country": "AT",
    "addr:housenumber": "13",
    "addr:postcode": "1070",
    "addr:street": "Lerchenfelder Straße",
    "check_date:currency:XBT": "2023-01-31",
    "currency:XBT": "yes",
    "description": "Stadt-, Sport- & Tourenräder, Fahrradtaschen, Helme, Rucksäcke, Schlösser, Werkstatt",
    "email": "wien7@citybiker.at",
    "name": "Citybiker",
    "opening_hours": "Tu-Fr 11:00-19:00; Sa 11:00-17:00",
    "operator": "Citybiker OG",
    "payment:lightning": "no",
    "payment:lightning_contactless": "no",
    "payment:onchain": "yes",
    "phone": "+43 (1) 5221902",
    "service:bicycle:Bicycle_Sales_and_Service": "yes",
    "service:bicycle:bicycle": "yes",
    "service:bicycle:bike": "yes",
    "service:bicycle:chain_tool": "yes",
    "service:bicycle:cleaning": "yes",
    "service:bicycle:clothing": "yes",
    "service:bicycle:dealer": "yes",
    "service:bicycle:diy": "yes",
    "service:bicycle:ebike": "yes",
    "service:bicycle:parts": "yes",
    "service:bicycle:pump": "yes",
    "service:bicycle:repair": "yes",
    "service:bicycle:retail": "yes",
    "service:bicycle:sales": "yes",
    "service:bicycle:service": "yes",
    "service:bicycle:tools": "yes",
    "shop": "bicycle",
    "website": "https://citybiker.at/"
  }
},
{
  "type": "node",
  "id": 465228471,
  "lat": 48.2146305,
  "lon": 16.3837188,
  "tags": {
    "addr:city": "Wien",
    "addr:country": "AT",
    "addr:housenumber": "29",
    "addr:postcode": "1020",
    "addr:street": "Praterstraße",
    "email": "wien2@roadbiker.at",
    "name": "Roadbiker",
    "opening_hours": "Mo-Fr 10:00-18:30; Sa 09:00-16:30",
    "phone": "+43 1 2645381",
    "service:bicycle:repair": "yes",
    "service:bicycle:retail": "yes",
    "shop": "bicycle",
    "website": "http://www.roadbiker.at/",
    "wheelchair": "no"
  }
},
{
  "type": "node",
  "id": 473467104,
  "lat": 48.3001645,
  "lon": 16.3711974,
  "tags": {
    "addr:city": "Langenzersdorf",
    "addr:housenumber": "4",
    "addr:postcode": "2103",
    "addr:street": "Meisengasse",
    "email": "wien@bikestore.cc",
    "name": "BikeStore Wien Nord",
    "opening_hours": "Mo-Fr 10:00-19:00; Sa 09:00-16:00",
    "phone": "+43 2244 33726",
    "service:bicycle:repair": "yes",
    "shop": "bicycle",
    "website": "https://bikestore.cc/"
  }
},
{
  "type": "node",
  "id": 485562251,
  "lat": 48.2279847,
  "lon": 16.1562405,
  "tags": {
    "addr:city": "Gablitz",
    "addr:country": "AT",
    "addr:housenumber": "64",
    "addr:postcode": "3003",
    "addr:street": "Linzer Straße",
    "name": "Bike Franz",
    "opening_hours": "Th 16:00-19:00; Fr 10:00-18:00; Sa 09:00-13:00",
    "service:bicycle:pump": "no",
    "service:bicycle:repair": "yes",
    "shop": "bicycle",
    "website": "http://www.bikefranz.at"
  }
},
{
  "type": "node",
  "id": 560305171,
  "lat": 48.2349080,
  "lon": 16.3610030,
  "tags": {
    "addr:city": "Wien",
    "addr:country": "AT",
    "addr:housenumber": "12",
    "addr:postcode": "1090",
    "addr:street": "Spittelauer Lände",
    "check_date:service:bicycle:retail": "2022-06-03",
    "name": "Bikers",
    "opening_hours": "Mo-Fr 10:00-19:00; Sa 10:00-14:00; PH off",
    "phone": "+43 1 276 49 60",
    "service:bicycle:repair": "yes",
    "service:bicycle:retail": "yes",
    "service:bicycle:second_hand": "no",
    "shop": "bicycle",
    "website": "https://www.bikers.wien/",
    "wheelchair": "yes"
  }
},
{
  "type": "node",
  "id": 600938819,
  "lat": 48.2147925,
  "lon": 16.4736585,
  "tags": {
    "addr:city": "Wien",
    "addr:country": "AT",
    "addr:housenumber": "6",
    "addr:postcode": "1220",
    "addr:street": "Bergengasse",
    "email": "admin@oktosport.at",
    "name": "Oktosport",
    "opening_hours": "Mar-Oct Mo-Fr 09:00-13:00, 14:00-18:00; Mar-Oct Sa 09:00-13:00; Nov-Feb Mo-Fr 09:00-12:00, 14:00-18:00; Nov-Feb Sa 09:00-12:00; PH off",
    "service:bicycle:repair": "yes",
    "service:bicycle:retail": "yes",
    "shop": "bicycle",
    "website": "https://www.oktosport.at/"
  }
},
{
  "type": "node",
  "id": 622390983,
  "lat": 48.1368183,
  "lon": 16.3175366,
  "tags": {
    "addr:city": "Wien",
    "addr:country": "AT",
    "addr:housenumber": "45",
    "addr:postcode": "1230",
    "addr:street": "Perfektastraße",
    "name": "Bikestore Wien Süd",
    "opening_hours": "Mo-Fr 10:00-19:00; Sa 09:00-17:00",
    "operator": "bikestore.cc",
    "phone": "+43-1-236 770 0300",
    "shop": "bicycle",
    "website": "https://www.bikestore.cc/"
  }
},
{
  "type": "node",
  "id": 639222740,
  "lat": 48.1992427,
  "lon": 16.3363648,
  "tags": {
    "addr:city": "Wien",
    "addr:country": "AT",
    "addr:housenumber": "8",
    "addr:postcode": "1150",
    "addr:street": "Goldschlagstraße",
    "commons": "workshop",
    "description": "Fahrrad-Selbsthilfewerkstatt",
    "name": "The Vienna Bikekitchen",
    "opening_hours": "Th 17:00-20:00",
    "repair": "assisted_self_service",
    "service:bicycle:diy": "yes",
    "service:bicycle:repair": "no",
    "service:bicycle:retail": "no",
    "shop": "bicycle",
    "website": "http://bikekitchen.net/",
    "wheelchair": "no"
  }
},
{
  "type": "node",
  "id": 701320864,
  "lat": 48.2019155,
  "lon": 16.3445693,
  "tags": {
    "addr:city": "Wien",
    "addr:country": "AT",
    "addr:housenumber": "26",
    "addr:postcode": "1070",
    "addr:street": "Westbahnstraße",
    "description": "Lastenräder, Anhänger",
    "email": "office@elektrobiker.com",
    "name": "Elektrobiker",
    "opening_hours": "Tu-Fr 10:00-12:30,14:00-18:30",
    "shop": "bicycle",
    "website": "https://www.elektrobiker.com/"
  }
},
{
  "type": "node",
  "id": 716956689,
  "lat": 48.1880956,
  "lon": 16.3740641,
  "tags": {
    "addr:city": "Wien",
    "addr:country": "AT",
    "addr:housenumber": "37",
    "addr:postcode": "1040",
    "addr:street": "Weyringergasse",
    "description": "Sportartikel allgemein (Tennis, laufen, Rad, Wandern, Fitness, Rollensport, Ski, etc. )",
    "email": "hburger.kosty@aon.at",
    "name": "Kosteletzky GmbH",
    "opening_hours": "Tu-Fr 09:00-12:00, Mo-Fr 14:00-18:00, Sa 10:00-14:00, Mo 14:00-18:00",
    "shop": "bicycle",
    "website": "http://www.kosty-radsport.at/",
    "wheelchair": "limited"
  }
},
{
  "type": "node",
  "id": 747816760,
  "lat": 48.2057390,
  "lon": 16.3690823,
  "tags": {
    "addr:city": "Wien",
    "addr:country": "AT",
    "addr:housenumber": "3",
    "addr:postcode": "1010",
    "addr:street": "Lobkowitzplatz",
    "email": "mail@newton.at",
    "name": "Newton Bikes",
    "opening_hours": "\"nach telefonischer Vereinbarung\"",
    "phone": "+43 650 3635346",
    "service:bicycle:pump": "no",
    "shop": "bicycle",
    "website": "https://www.newton-bikes.eu/",
    "wheelchair": "no"
  }
},
{
  "type": "node",
  "id": 828132497,
  "lat": 48.2636504,
  "lon": 16.3669066,
  "tags": {
    "addr:city": "Wien",
    "addr:country": "AT",
    "addr:postcode": "1190",
    "addr:street": "Donaupromenade am Radweg",
    "contact:email": "radsport.nussdorf@gmail.com",
    "contact:phone": "+43 1 3704598",
    "contact:website": "https://www.donau-fritzi.at/",
    "description": "Gebrauchträder,Neuware: Stadträder, Vorjahresmode, Einzelstücke, transportbeschädigte Räder",
    "name": "Donau Fritzi",
    "opening_hours": "Mar-Nov Tu,Fr 08:00-18:00; Mar-Nov We 10:00-20:00; Dec-Feb Tu,We,Fr off",
    "operator": "Alexander Boris Göttling",
    "service:bicycle:rental": "yes",
    "service:bicycle:repair": "yes",
    "service:bicycle:retail": "yes",
    "shop": "bicycle",
    "vending": "bicycle_tube",
    "vending_machine": "yes"
  }
},
{
  "type": "node",
  "id": 891875447,
  "lat": 48.2023793,
  "lon": 16.3743383,
  "tags": {
    "addr:city": "Wien",
    "addr:country": "AT",
    "addr:housenumber": "19",
    "addr:postcode": "1010",
    "addr:street": "Hegelgasse",
    "alt_name": "Trek Bicycle Store",
    "brand": "Trek",
    "brand:wikidata": "Q1067617",
    "brand:wikipedia": "en:Trek Bicycle Corporation",
    "email": "office@trekbicycle-vienna.at",
    "name": "Bike Vienna",
    "note": "air pump during opening hours",
    "opening_hours": "Mo-Fr 10:00-18:30; Sa 10:00-17:00",
    "phone": "+4315130514",
    "service:bicycle:cleaning": "yes",
    "service:bicycle:pump": "yes",
    "service:bicycle:repair": "yes",
    "service:bicycle:retail": "yes",
    "shop": "bicycle",
    "website": "https://www.bikevienna.at/",
    "wheelchair": "yes"
  }
},
{
  "type": "node",
  "id": 905829720,
  "lat": 48.1730006,
  "lon": 16.3535352,
  "tags": {
    "addr:city": "Wien",
    "addr:country": "AT",
    "addr:housenumber": "114;R3",
    "addr:postcode": "1100",
    "addr:street": "Troststraße",
    "description": "Eingang Knöllgasse",
    "email": "office@velo.wien",
    "name": "velo.wien Services e.U.",
    "opening_hours": "Mo-Th 11:00-19:00",
    "operator": "velo.wien Services e.U.",
    "payment:cash": "yes",
    "phone": "067763058540",
    "service:bicycle:Bicycle_Sales_and_Service": "yes",
    "service:bicycle:rental": "yes",
    "service:bicycle:repair": "yes",
    "service:bicycle:second_hand": "yes",
    "service:bicycle:service": "yes",
    "shop": "bicycle",
    "website": "https://velo.wien"
  }
},
{
  "type": "node",
  "id": 1035420056,
  "lat": 48.1444544,
  "lon": 16.2932213,
  "tags": {
    "addr:city": "Wien",
    "addr:country": "AT",
    "addr:housenumber": "270",
    "addr:postcode": "1230",
    "addr:street": "Breitenfurter Straße",
    "email": "office@2radtreff.at",
    "name": "2radtreff.at",
    "opening_hours": "Mo,Tu 10:00-12:30,14:00-18:00; We 14:00-18:00; Th,Fr 10:00-12:30,14:00-19:00",
    "shop": "bicycle",
    "website": "http://www.2radtreff.at"
  }
},
{
  "type": "node",
  "id": 1149088650,
  "lat": 48.2279426,
  "lon": 16.3632318,
  "tags": {
    "addr:city": "Wien",
    "addr:country": "AT",
    "addr:housenumber": "11",
    "addr:postcode": "1090",
    "addr:street": "Spittelauer Lände",
    "check_date": "2023-06-05",
    "name": "Enzovelo",
    "opening_hours": "Mo-Fr 10:00-18:00; Sa 10:00-15:00",
    "payment:mastercard": "yes",
    "payment:visa": "yes",
    "service:bicycle:repair": "yes",
    "shop": "bicycle",
    "website": "http://www.enzovelo.at",
    "wheelchair": "no"
  }
},
{
  "type": "node",
  "id": 1149116885,
  "lat": 48.2610478,
  "lon": 16.4002981,
  "tags": {
    "addr:city": "Wien",
    "addr:country": "AT",
    "addr:housenumber": "26-32/5/R1",
    "addr:postcode": "1210",
    "addr:street": "Brünner Straße",
    "email": "rafael@rad21.at",
    "name": "Rad21",
    "opening_hours": "Mo-Fr 10:00-13:00, 15:00-18:00; Sa 10:00-13:00; We off; PH off",
    "phone": "+43-699 1705 4021",
    "service:bicycle:repair": "yes",
    "service:bicycle:retail": "yes",
    "shop": "bicycle",
    "website": "http://www.rad21.at",
    "wheelchair": "limited"
  }
},
{
  "type": "node",
  "id": 1186085549,
  "lat": 48.1910179,
  "lon": 16.3526612,
  "tags": {
    "addr:city": "Wien",
    "addr:country": "AT",
    "addr:housenumber": "128",
    "addr:postcode": "1060",
    "addr:street": "Linke Wienzeile",
    "email": "fahrrad-ski@chello.at",
    "name": "Fahrrad + Ski",
    "opening_hours": "Mo-Fr 10:00-13:00,14:00-18:00; Sa 09:00-12:30",
    "service:bicycle:pump": "yes",
    "service:bicycle:repair": "yes",
    "service:bicycle:retail": "yes",
    "service:bicycle:second_hand": "yes",
    "shop": "bicycle",
    "website": "https://www.fahrrad-ski.at/"
  }
},
{
  "type": "node",
  "id": 1211592356,
  "lat": 48.2022163,
  "lon": 16.3368084,
  "tags": {
    "addr:city": "Wien",
    "addr:country": "AT",
    "addr:housenumber": "31",
    "addr:postcode": "1150",
    "addr:street": "Neubaugürtel",
    "contact:email": "info@radshop.at",
    "contact:facebook": "https://www.facebook.com/radshop.at/?fref=ts",
    "contact:instagram": "https://www.instagram.com/radshop.at/",
    "contact:phone": "+43 1 98 222 39",
    "contact:website": "https://www.radshop.at/",
    "name": "radshop.at",
    "opening_hours": "Mo-Fr 10:00-19:00",
    "operator": "radshop.at Gabor Magyar e.U.",
    "service:bicycle:repair": "yes",
    "shop": "bicycle"
  }
},
{
  "type": "node",
  "id": 1242586382,
  "lat": 48.1913014,
  "lon": 16.3669946,
  "tags": {
    "addr:city": "Wien",
    "addr:country": "AT",
    "addr:housenumber": "55",
    "addr:postcode": "1040",
    "addr:street": "Wiedner Hauptstraße",
    "name": "2rad-Shop Gerhardt",
    "old_name": "Cycle Circle",
    "opening_hours": "Mo-Fr 09:00-12:00,13:00-18:00; Sa 09:00-12:00",
    "service:bicycle:pump": "yes",
    "shop": "bicycle",
    "website": "https://www.2rad-shop.at/"
  }
},
{
  "type": "node",
  "id": 1253965640,
  "lat": 48.1849520,
  "lon": 16.3300065,
  "tags": {
    "addr:city": "Wien",
    "addr:country": "AT",
    "addr:housenumber": "65",
    "addr:postcode": "1150",
    "addr:street": "Ullmannstraße",
    "description": "Hollandräder, Stadträder",
    "name": "Mechaniker Marek",
    "opening_hours": "Mo-Fr 10:00-13:00, 14:00-18:30; Sa 10:00-13:00",
    "shop": "bicycle",
    "website": "www.fahrrad-mechaniker-marek.at",
    "wheelchair": "no"
  }
},
{
  "type": "node",
  "id": 1253965641,
  "lat": 48.2057283,
  "lon": 16.3989220,
  "tags": {
    "addr:city": "Wien",
    "addr:country": "AT",
    "addr:housenumber": "64-66",
    "addr:postcode": "1020",
    "addr:street": "Böcklinstraße",
    "email": "2rad-pv@gmx.at",
    "name": "Peter Vesecky",
    "opening_hours": "Mo-Fr 09:00-13:00,14:00-18:00, Sa 09:00-12:00",
    "shop": "bicycle",
    "website": "https://www.2rad-pv.at/"
  }
},
{
  "type": "node",
  "id": 1253965642,
  "lat": 48.2100983,
  "lon": 16.3871036,
  "tags": {
    "addr:city": "Wien",
    "addr:country": "AT",
    "addr:housenumber": "11",
    "addr:postcode": "1030",
    "addr:street": "Hintere Zollamtsstraße",
    "check_date:opening_hours": "2022-02-22",
    "email": "leonid@galaxy-fahrraeder.at",
    "name": "Galaxy",
    "note": "Reparatur, Service, Ersatzteile, Gebrauchträder",
    "opening_hours": "Mo-Fr 10:00-13:00,14:00-18:00; Sa 10:30-13:00; PH off",
    "phone": "+4369911398484",
    "service:bicycle:pump": "yes",
    "service:bicycle:rental": "yes",
    "service:bicycle:repair": "yes",
    "service:bicycle:retail": "yes",
    "service:bicycle:second_hand": "yes",
    "shop": "bicycle",
    "website": "http://galaxy-fahrraeder.at/",
    "wheelchair": "no"
  }
},
{
  "type": "node",
  "id": 1253965643,
  "lat": 48.1679196,
  "lon": 16.3129626,
  "tags": {
    "addr:city": "Wien",
    "addr:country": "AT",
    "addr:housenumber": "19",
    "addr:postcode": "1120",
    "addr:street": "Schlöglgasse",
    "email": "info@waffenrad.at",
    "name": "Waffenradspezialist",
    "opening_hours": "Mo-Fr 10:00-18:00; Oct-Mar Tu 14:00-18:00, We 10:00-18:00, Fr 10:00-14:00",
    "phone": "+43 1 8025222",
    "phone:mobile": "+43 699 12169864",
    "service:bicycle:repair": "yes",
    "service:bicycle:retail": "yes",
    "shop": "bicycle",
    "website": "https://www.waffenrad.at/"
  }
},
{
  "type": "node",
  "id": 1256839759,
  "lat": 48.1909686,
  "lon": 16.3469517,
  "tags": {
    "addr:city": "Wien",
    "addr:country": "AT",
    "addr:housenumber": "111",
    "addr:postcode": "1060",
    "addr:street": "Gumpendorfer Straße",
    "email": "coop@fahrrad.co.at",
    "name": "Cooperative Fahrrad",
    "opening_hours": "Mo-Tu 10:00-13:00,14:00-18:00; We 14:00-18:00; Th-Fr 10:00-13:00,14:00-19:00; Sa 10:00-16:00; Sep-Feb: Th-Fr 10:00-13:00,14:00-18:00; Sep-Feb: Sa 10:00-13:00; Su, PH off",
    "phone": "+43 1 596 52 56",
    "service:bicycle:pump": "yes",
    "service:bicycle:repair": "yes",
    "shop": "bicycle",
    "website": "https://www.fahrrad.co.at/",
    "wheelchair": "no"
  }
},
{
  "type": "node",
  "id": 1256839760,
  "lat": 48.2130724,
  "lon": 16.3587480,
  "tags": {
    "addr:city": "Wien",
    "addr:country": "AT",
    "addr:housename": "Radhaus Singer",
    "addr:housenumber": "13",
    "addr:postcode": "1010",
    "addr:street": "Reichsratsstraße",
    "check_date": "2023-05-13",
    "email": "radhaus.singer@utanet.at",
    "fax": "+43 (1) 4062143",
    "name": "Radhaus Singer",
    "opening_hours": "Mo-Fr 10:00-18:30; Sa 10:00-15:00",
    "phone": "+43 (1) 4062143",
    "service:bicycle:repair": "yes",
    "service:bicycle:retail": "yes",
    "shop": "bicycle",
    "wheelchair": "limited"
  }
},
{
  "type": "node",
  "id": 1298407955,
  "lat": 48.2506588,
  "lon": 16.4117445,
  "tags": {
    "addr:city": "Wien",
    "addr:country": "AT",
    "addr:housenumber": "5-11/7/R1",
    "addr:postcode": "1210",
    "addr:street": "Fultonstraße",
    "email": "technik@radundtat.co.at",
    "name": "Rad & Tat",
    "opening_hours": "Tu-Fr 10:00-13:00,15:00-18:00; Sa 09:00-13:00; Mo off; PH off",
    "phone": "+43 699 10692861",
    "service:bicycle:pump": "yes",
    "service:bicycle:repair": "yes",
    "service:bicycle:retail": "yes",
    "shop": "bicycle",
    "website": "https://radundtatwien.at",
    "wheelchair": "limited"
  }
},
{
  "type": "node",
  "id": 1402601516,
  "lat": 48.2181876,
  "lon": 16.3770975,
  "tags": {
    "addr:city": "Wien",
    "addr:country": "AT",
    "addr:housenumber": "28",
    "addr:postcode": "1020",
    "addr:street": "Leopoldsgasse",
    "email": "hans.poellhuber@chello.at",
    "name": "Das Taschenfahrrad",
    "opening_hours": "Mo-Fr 13:00-18:00; Sa 09:00-15:00",
    "phone": "+43 699 10431886",
    "service:bicycle:repair": "yes",
    "service:bicycle:retail": "yes",
    "shop": "bicycle",
    "website": "http://www.dastaschenfahrrad.com"
  }
},
{
  "type": "node",
  "id": 1427842883,
  "lat": 48.1324392,
  "lon": 16.3221675,
  "tags": {
    "addr:city": "Wien",
    "addr:country": "AT",
    "addr:housenumber": "282-284",
    "addr:postcode": "1230",
    "addr:street": "Triester Straße",
    "contact:email": "support@bernhardkohl.at",
    "contact:website": "http://www.bernhardkohl.at",
    "name": "Bernhard Kohl Fahrrad & Fitness",
    "opening_hours": "Mo-Fr 10:00-18:00; Sa 10:00-16:00",
    "shop": "bicycle"
  }
},
{
  "type": "node",
  "id": 1461626973,
  "lat": 48.2155277,
  "lon": 16.3863845,
  "tags": {
    "addr:city": "Wien",
    "addr:country": "AT",
    "addr:housenumber": "48",
    "addr:postcode": "1020",
    "addr:street": "Praterstraße",
    "check_date:opening_hours": "2023-02-10",
    "email": "sporthausrih@gmx.at",
    "name": "Radsport RIH",
    "opening_hours": "Mo-Fr 08:30-18:00; Sa 08:30-12:00; PH off",
    "phone": "+43 1 2145180",
    "service:bicycle:pump": "no",
    "service:bicycle:repair": "yes",
    "service:bicycle:retail": "yes",
    "shop": "bicycle",
    "website": "https://radsport-rih.webnode.at",
    "wheelchair": "yes"
  }
},
{
  "type": "node",
  "id": 1517146176,
  "lat": 48.2064853,
  "lon": 16.3479689,
  "tags": {
    "addr:city": "Wien",
    "addr:country": "AT",
    "addr:housenumber": "57",
    "addr:postcode": "1070",
    "addr:street": "Lerchenfelder Straße",
    "email": "office@sportladen1070.at",
    "name": "SportLaden 1070",
    "opening_hours": "Mo-Fr 10:00-18:30; Sa 09:30-13:00",
    "operator": "store-check.at e.U.",
    "phone": "+43 650/87 29 231",
    "service:bicycle:pump": "no",
    "service:bicycle:repair": "yes",
    "shop": "bicycle",
    "website": "https://www.sportladen1070.at/",
    "wheelchair": "limited"
  }
},
{
  "type": "node",
  "id": 1726625794,
  "lat": 48.1918909,
  "lon": 16.3636715,
  "tags": {
    "addr:city": "Wien",
    "addr:country": "AT",
    "addr:housenumber": "4",
    "addr:postcode": "1050",
    "addr:street": "Mittersteig",
    "check_date:opening_hours": "2022-03-06",
    "email": "kontakt@dasradhaus.at",
    "name": "Das Radhaus",
    "opening_hours": "Mo-Fr 11:00-19:00",
    "phone": "+43 1 3537234",
    "service:bicycle:repair": "yes",
    "service:bicycle:retail": "no",
    "service:bicycle:second_hand": "yes",
    "shop": "bicycle",
    "website": "http://dasradhaus.at/",
    "wheelchair": "yes"
  }
},
{
  "type": "node",
  "id": 1729252913,
  "lat": 48.2172643,
  "lon": 16.3792381,
  "tags": {
    "addr:city": "Wien",
    "addr:country": "AT",
    "addr:housenumber": "9",
    "addr:postcode": "1020",
    "addr:street": "Tandelmarktgasse",
    "name": "Radort",
    "opening_hours": "Mo-Fr 09:00-17:00",
    "phone": "+4318906437",
    "service:bicycle:repair": "yes",
    "service:bicycle:second_hand": "yes",
    "shop": "bicycle",
    "website": "http://radort.at"
  }
},
{
  "type": "node",
  "id": 1729252918,
  "lat": 48.2638194,
  "lon": 16.3936586,
  "tags": {
    "addr:city": "Wien",
    "addr:country": "AT",
    "addr:housenumber": "19",
    "addr:postcode": "1210",
    "addr:street": "Galvanigasse",
    "email": "wolfgang.dorfinger@chello.at",
    "name": "Zweirad Dorfinger",
    "opening_hours": "Mo-Fr 08:00-12:00, 14:00-18:00; Sa 09:00-12:00",
    "shop": "bicycle",
    "website": "http://www.2rad-dorfinger.at/"
  }
},
{
  "type": "node",
  "id": 1731066461,
  "lat": 48.2133232,
  "lon": 16.3814861,
  "tags": {
    "addr:city": "Wien",
    "addr:country": "AT",
    "addr:housenumber": "13",
    "addr:postcode": "1020",
    "addr:street": "Praterstraße",
    "check_date:opening_hours": "2023-07-03",
    "name": "VELETAGE - Salon für Radkultur",
    "opening_hours": "Tu-Fr 11:00-18:00; Sa 10:00-17:00",
    "operator": "veletage GmbH",
    "phone": "+43 1 2124911",
    "service:bicycle:pump": "no",
    "shop": "bicycle",
    "website": "https://veletage.com/"
  }
},
{
  "type": "node",
  "id": 1731066483,
  "lat": 48.2134856,
  "lon": 16.3780968,
  "tags": {
    "addr:city": "Wien",
    "addr:country": "AT",
    "addr:housenumber": "2",
    "addr:postcode": "1020",
    "addr:street": "Gredlerstraße",
    "email": "office@radmechaniker.at",
    "name": "Radmechaniker",
    "opening_hours": "Mar-Nov Mo-Fr 10:00-17:00; Dec Mo-Fr 10:00-14:00; Feb Mo-Fr 10:00-14:00; Dec 21-Jan 29 off; PH off",
    "operator": "Horst May",
    "phone": "+43 664 4415515",
    "service:bicycle:repair": "yes",
    "service:bicycle:retail": "yes",
    "shop": "bicycle",
    "website": "https://www.radmechaniker.at/"
  }
},
{
  "type": "node",
  "id": 1764558479,
  "lat": 48.2017211,
  "lon": 16.3411008,
  "tags": {
    "addr:city": "Wien",
    "addr:country": "AT",
    "addr:housenumber": "35",
    "addr:postcode": "1070",
    "addr:street": "Westbahnstraße",
    "email": "info@reanimated-bikes.eu",
    "name": "Reanimated Bikes",
    "opening_hours": "Mo-Fr 10:00-18:00",
    "service:bicycle:rental": "yes",
    "service:bicycle:repair": "yes",
    "shop": "bicycle",
    "website": "http://www.reanimated-bikes.eu",
    "wheelchair": "no"
  }
},
{
  "type": "node",
  "id": 1767500724,
  "lat": 48.2443392,
  "lon": 16.3419796,
  "tags": {
    "addr:city": "Wien",
    "addr:country": "AT",
    "addr:housenumber": "31",
    "addr:postcode": "1190",
    "addr:street": "Obkirchergasse",
    "email": "troschlundnovak@gmx.com",
    "name": "Troschl und Novak",
    "opening_hours": "Tu-Fr 10:00-18:00; Sa 10:00-14:00",
    "phone": "+43 660 1368843",
    "shop": "bicycle",
    "wheelchair": "no"
  }
},
{
  "type": "node",
  "id": 1774359945,
  "lat": 48.0910149,
  "lon": 16.3242913,
  "tags": {
    "addr:city": "Wiener Neudorf",
    "addr:country": "AT",
    "addr:housenumber": "10",
    "addr:postcode": "2351",
    "addr:street": "Nestroyweg",
    "contact:email": "service@bikefloh.at",
    "contact:website": "http://www.bikefloh.at",
    "name": "BIKEFLOH",
    "service:bicycle:repair": "yes",
    "shop": "bicycle"
  }
},
{
  "type": "node",
  "id": 1894650561,
  "lat": 48.2193903,
  "lon": 16.4045931,
  "tags": {
    "addr:city": "Wien",
    "addr:housenumber": "2",
    "addr:postcode": "1020",
    "addr:street": "Ilgplatz",
    "name": "Heavy Pedals",
    "phone": "+43 1 353 0 353-44",
    "shop": "bicycle",
    "website": "https://heavypedals.at/",
    "wheelchair": "yes"
  }
},
{
  "type": "node",
  "id": 1912688494,
  "lat": 48.2130541,
  "lon": 16.3358800,
  "tags": {
    "addr:city": "Wien",
    "addr:country": "AT",
    "addr:housenumber": "6",
    "addr:postcode": "1160",
    "addr:street": "Yppenplatz",
    "email": "thomas@fahrradwerk.at",
    "name": "Die kleine Fahrradwerkstatt",
    "note": "Verleih u Verkauf Elektroräder, Fachreparatur alle Fahrräder, Diebstahlschutz",
    "opening_hours": "Tu 07:30-10:00,17:00-19:30; We 14:00-18:00; Th 07:30-10:00,14:00-18:00; Fr 15:00-19:00; Mo,Sa,Su,PH off || \"nach Vereinbarung\"",
    "phone": "+43 664 5426065",
    "service:bicycle:pump": "yes",
    "service:bicycle:repair": "yes",
    "shop": "bicycle",
    "website": "http://www.fahrradwerk.at",
    "wheelchair": "no"
  }
},
{
  "type": "node",
  "id": 1912698016,
  "lat": 48.2076477,
  "lon": 16.3364959,
  "tags": {
    "addr:city": "Wien",
    "addr:country": "AT",
    "addr:housenumber": "6",
    "addr:postcode": "1160",
    "addr:street": "Hasnerstraße",
    "name": "Radwerkstatt",
    "note": "Öffnungszeiten können saisonal unterschiedlich sein.",
    "opening_hours": "We, Fr 09:00-14:00; Mo, Tu,Th 14:00-18:30; Sa, Su, PH off",
    "phone": "+43 1 236 34 88",
    "service:bicycle:repair": "yes",
    "shop": "bicycle",
    "website": "http://www.radwerkstatt.at/"
  }
},
{
  "type": "node",
  "id": 1936479866,
  "lat": 48.2227763,
  "lon": 16.3507275,
  "tags": {
    "addr:city": "Wien",
    "addr:country": "AT",
    "addr:housenumber": "12",
    "addr:postcode": "1090",
    "addr:street": "Severingasse",
    "description": "Fahrrad-Selbsthilfewerkstatt",
    "email": "fahrrad@wuk.at",
    "name": "fahrrad.selbsthilfe.werkstatt im WUK",
    "opening_hours": "Mo-We 15:00-19:00",
    "repair": "assisted_self_service",
    "service:bicycle:diy": "yes",
    "service:bicycle:repair": "no",
    "service:bicycle:retail": "no",
    "shop": "bicycle",
    "website": "http://fahrrad.wuk.at"
  }
},
{
  "type": "node",
  "id": 1982602550,
  "lat": 48.0044006,
  "lon": 16.2429852,
  "tags": {
    "name": "Rad Service Station (bike2train)",
    "opening_hours": "Mo 15:00-18:00; Tu-Fr 09:30-12:00, 15:00-18:00",
    "service:bicycle:rental": "yes",
    "service:bicycle:repair": "yes",
    "service:bicycle:retail": "yes",
    "shop": "bicycle",
    "website": "http://www.bike2train.at"
  }
},
{
  "type": "node",
  "id": 1991271922,
  "lat": 48.2031922,
  "lon": 16.4038935,
  "tags": {
    "addr:city": "Wien",
    "addr:country": "AT",
    "addr:housenumber": "104",
    "addr:postcode": "1020",
    "addr:street": "Böcklinstraße",
    "email": "office@sator-bike.at",
    "name": "Sator Bike Shop",
    "opening_hours": "Mo-Fr 09:00-13:00,14:00-18:00; Sa 09:00-12:00",
    "service:bicycle:repair": "yes",
    "service:bicycle:retail": "yes",
    "shop": "bicycle",
    "website": "http://www.sator-bike.at/",
    "wheelchair": "no"
  }
},
{
  "type": "node",
  "id": 1995362264,
  "lat": 48.2019391,
  "lon": 16.3443173,
  "tags": {
    "addr:city": "Wien",
    "addr:country": "AT",
    "addr:housenumber": "28",
    "addr:postcode": "1070",
    "addr:street": "Westbahnstraße",
    "compressed_air": "yes",
    "description": "Rennräder, Klappräder, Accessoirs",
    "email": "shop@ig-fahrrad.at",
    "name": "ig-fahrrad",
    "opening_hours": "Mo-Fr 11:00-19:00; Sa 11:00-17:00; PH off",
    "service:bicycle:repair": "yes",
    "shop": "bicycle",
    "website": "https://www.ig-fahrrad.at/"
  }
},
{
  "type": "node",
  "id": 2036227704,
  "lat": 48.3104421,
  "lon": 16.3239023,
  "tags": {
    "addr:city": "Klosterneuburg",
    "addr:country": "AT",
    "addr:housenumber": "5",
    "addr:postcode": "3400",
    "addr:street": "Martinstraße",
    "name": "Radsport Swoboda",
    "opening_hours": "Tu-Sa 09:00-12:00, Tu,We,Fr 15:00-18:00",
    "operator": "Franz Swoboda",
    "service:bicycle:pump": "no",
    "shop": "bicycle",
    "source": "http://www.radsport-swoboda.at/"
  }
},
{
  "type": "node",
  "id": 2109195389,
  "lat": 48.2226653,
  "lon": 16.3174428,
  "tags": {
    "addr:city": "Wien",
    "addr:country": "AT",
    "addr:housenumber": "163",
    "addr:postcode": "1170",
    "addr:street": "Hernalser Hauptstraße",
    "email": "office@radambulanz.at",
    "name": "Radambulanz",
    "opening_hours": "Sa 10:00-15:00; Mo-We 10:30-18:00; Th,Fr 10:30-19:00",
    "shop": "bicycle",
    "website": "https://www.radambulanz.at/",
    "wheelchair": "yes"
  }
},
{
  "type": "node",
  "id": 2136945221,
  "lat": 48.2273613,
  "lon": 16.3484718,
  "tags": {
    "addr:city": "Wien",
    "addr:housenumber": "35",
    "addr:postcode": "1180",
    "addr:street": "Semperstraße",
    "check_date:opening_hours": "2020-11-24",
    "contact:email": "demeza-bikes@gmx.at",
    "contact:phone": "+436802321298",
    "name": "Thomas De Meza Fahrradmechaniker",
    "opening_hours": "Mo-Th 10:00-18:00; Fr 13:00-18:00; PH off",
    "phone": "+43 680 23 21 298",
    "service:bicycle:repair": "yes",
    "shop": "bicycle",
    "website": "https://demeza.bike"
  }
},
{
  "type": "node",
  "id": 2155679376,
  "lat": 48.1973044,
  "lon": 16.3698333,
  "tags": {
    "addr:city": "Wien",
    "addr:country": "AT",
    "addr:housenumber": "2-4",
    "addr:postcode": "1040",
    "addr:street": "Frankenberggasse",
    "check_date": "2023-04-27",
    "check_date:opening_hours": "2022-05-21",
    "contact:email": "mikko.stout@stadtradler.at",
    "contact:phone": "+43 1 3401568",
    "contact:website": "https://www.stadtradler.at/",
    "name": "Stadtradler",
    "opening_hours": "Tu-Fr 11:00-19:00; Sa 09:00-17:00",
    "service:bicycle:pump": "yes",
    "service:bicycle:repair": "yes",
    "service:bicycle:retail": "yes",
    "shop": "bicycle",
    "wheelchair": "limited"
  }
},
{
  "type": "node",
  "id": 2158186811,
  "lat": 48.2151919,
  "lon": 16.3153783,
  "tags": {
    "addr:city": "Wien",
    "addr:country": "AT",
    "addr:housenumber": "37",
    "addr:postcode": "1160",
    "addr:street": "Degengasse",
    "name": "Klemens Schachinger (Wolfgang Brunner)",
    "note": "Rad Vollsortiment",
    "opening_hours": "Mo-Fr 09:00-13:00, 15:00-18:00; Sa 10:00-13:00; PH off",
    "phone": "+43 1 4855732",
    "shop": "bicycle",
    "website": "https://www.reparaturnetzwerk.at/start.asp?ID=2780",
    "wheelchair": "no"
  }
},
{
  "type": "node",
  "id": 2158237691,
  "lat": 48.2121553,
  "lon": 16.3443353,
  "tags": {
    "addr:city": "Wien",
    "addr:country": "AT",
    "addr:housenumber": "54",
    "addr:postcode": "1080",
    "addr:street": "Florianigasse",
    "description": "KTM, Simplon, Staiger, Hai, Zubehör, Reperatur",
    "email": "office@mistelbiker.at",
    "name": "Mistelbiker",
    "opening_hours": "Mo-Fr 09:00-18:00; Sa 09:00-12:00",
    "phone": "+43 680 127 61 83",
    "service:bicycle:repair": "yes",
    "service:bicycle:retail": "yes",
    "service:bicycle:second_hand": "yes",
    "shop": "bicycle",
    "website": "http://www.mistelbiker.at/"
  }
},
{
  "type": "node",
  "id": 2158257896,
  "lat": 48.2249613,
  "lon": 16.4542392,
  "tags": {
    "addr:city": "Wien",
    "addr:country": "AT",
    "addr:housenumber": "19",
    "addr:postcode": "1220",
    "addr:street": "Langobardenstraße",
    "contact:email": "office@2rad-shop.at",
    "contact:website": "www.2rad-shop.at",
    "name": "2rad-shop Gerhardt",
    "opening_hours": "Mo-Fr 08:30-12:00, 13:00-18:00; Sa 08:30-12:30; PH off",
    "shop": "bicycle",
    "website": "https://www.2rad-shop.at/"
  }
},
{
  "type": "node",
  "id": 2170800354,
  "lat": 48.1991626,
  "lon": 16.3865065,
  "tags": {
    "addr:city": "Wien",
    "addr:country": "AT",
    "addr:housenumber": "34",
    "addr:postcode": "1030",
    "addr:street": "Neulinggasse",
    "contact:website": "http://www.raederei.at",
    "email": "123@raederei.at",
    "name": "Räderei",
    "opening_hours": "Tu-Fr 11:00-14:00,15:00-18:00",
    "phone": "+43 680 5052297",
    "shop": "bicycle",
    "website": "http://www.raederei.at",
    "wheelchair": "no"
  }
},
{
  "type": "node",
  "id": 2184078838,
  "lat": 48.2232378,
  "lon": 16.3548123,
  "tags": {
    "addr:city": "Wien",
    "addr:country": "AT",
    "addr:housenumber": "5",
    "addr:postcode": "1090",
    "addr:street": "Widerhofergasse",
    "name": "Re.bicycle",
    "opening_hours": "Tu-Th 14:00-19:00",
    "shop": "bicycle",
    "website": "https://www.facebook.com/rebicyclewien",
    "wheelchair": "no"
  }
},
{
  "type": "node",
  "id": 2192772920,
  "lat": 48.1960481,
  "lon": 16.3643482,
  "tags": {
    "addr:city": "Wien",
    "addr:country": "AT",
    "addr:housenumber": "32",
    "addr:postcode": "1040",
    "addr:street": "Margaretenstraße",
    "email": "info@fahrradmeister.at",
    "name": "Fahrradmeister",
    "opening_hours": "Mo-Fr 10:00-19:00; PH off",
    "operator": "Fahrrad Marek OG - Fahrradmeister marek & Sohn",
    "phone": "+43 1 5870482",
    "service:bicycle:pump": "no",
    "service:bicycle:repair": "yes",
    "service:bicycle:retail": "yes",
    "shop": "bicycle",
    "website": "https://www.fahrradmeister.at/"
  }
},
{
  "type": "node",
  "id": 2271426924,
  "lat": 48.2213198,
  "lon": 16.3737206,
  "tags": {
    "addr:city": "Wien",
    "addr:country": "AT",
    "addr:housename": "Zweirad Ortner bike & more",
    "addr:housenumber": "32",
    "addr:postcode": "1020",
    "addr:street": "Untere Augartenstraße",
    "name": "Zweirad Ortner bike & more",
    "opening_hours": "Mo-Fr 10:00-13:00, 14:00-18:00",
    "phone": "+43 1 216 36 73",
    "shop": "bicycle",
    "website": "www.zweiradortner.com",
    "wheelchair": "no"
  }
},
{
  "type": "node",
  "id": 2271484951,
  "lat": 48.1973655,
  "lon": 16.3681676,
  "tags": {
    "addr:city": "Wien",
    "addr:country": "AT",
    "addr:housename": "Argus Shop",
    "addr:housenumber": "11",
    "addr:postcode": "1040",
    "addr:street": "Frankenberggasse",
    "check_date": "2023-03-20",
    "email": "shop@argus.or.at",
    "name": "Argus Shop",
    "opening_hours": "Mo-Fr 14:00-19:00; Sa 10:00-14:00",
    "phone": "+4315050907",
    "service:bicycle:chain_tool": "yes",
    "service:bicycle:pump": "yes",
    "service:bicycle:repair": "yes",
    "service:bicycle:retail": "yes",
    "service:bicycle:second_hand": "no",
    "shop": "bicycle",
    "website": "https://argus.odoo.com/",
    "wheelchair": "no"
  }
},
{
  "type": "node",
  "id": 2272381273,
  "lat": 48.1928398,
  "lon": 16.3524730,
  "tags": {
    "addr:city": "Wien",
    "addr:country": "AT",
    "addr:housenumber": "12A/5",
    "addr:postcode": "1060",
    "addr:street": "Mollardgasse",
    "check_date:opening_hours": "2023-06-11",
    "description": "urbane Mobilität, schöne Räder für die Stadt",
    "email": "florian@metallhase.at",
    "name": "Metallhase.at",
    "opening_hours:signed": "no",
    "service:bicycle:pump": "no",
    "shop": "bicycle",
    "website": "https://www.metallhase.at/"
  }
},
{
  "type": "node",
  "id": 2272386947,
  "lat": 48.1919097,
  "lon": 16.3517412,
  "tags": {
    "addr:city": "Wien",
    "addr:country": "AT",
    "addr:housename": "Willinger Peugeot Fahrräder",
    "addr:housenumber": "20",
    "addr:postcode": "1060",
    "addr:street": "Mollardgasse",
    "email": "info@willinger.com",
    "name": "Willinger Peugeot Fahrräder",
    "opening_hours": "Mo-Th 08:00-12:00,12:45-17:00; Fr 08:00-12:00,12:45-15:00",
    "service:bicycle:pump": "no",
    "shop": "bicycle"
  }
},
{
  "type": "node",
  "id": 2272389671,
  "lat": 48.1957239,
  "lon": 16.3470712,
  "tags": {
    "addr:city": "Wien",
    "addr:country": "AT",
    "addr:housenumber": "10",
    "addr:postcode": "1060",
    "addr:street": "Schmalzhofgasse",
    "email": "office@radpunkt.at",
    "name": "Radpunkt",
    "opening_hours": "Mo-Fr 10:00-18:30;Sa 10:00-14:00",
    "phone": "+43 660 1593399",
    "service:bicycle:pump": "yes",
    "service:bicycle:repair": "yes",
    "service:bicycle:retail": "yes",
    "service:bicycle:second_hand": "yes",
    "shop": "bicycle"
  }
},
{
  "type": "node",
  "id": 2272417747,
  "lat": 48.2095087,
  "lon": 16.3372861,
  "tags": {
    "addr:city": "Wien",
    "addr:country": "AT",
    "addr:housename": "Maderna Cycle Systems",
    "addr:housenumber": "11",
    "addr:postcode": "1160",
    "addr:street": "Grundsteingasse",
    "email": "info@maderna.at",
    "name": "Maderna Cycle Systems - Werkstatt",
    "note": "Fahrräder, Radzubehör, Radservice",
    "shop": "bicycle"
  }
},
{
  "type": "node",
  "id": 2278072024,
  "lat": 48.1384298,
  "lon": 16.3951738,
  "tags": {
    "addr:city": "Wien",
    "addr:country": "AT",
    "addr:housenumber": "105",
    "addr:postcode": "1100",
    "addr:street": "Oberlaaer Straße",
    "email": "office@radsport-hoffmann.at",
    "name": "Rad&Service Oberlaa",
    "opening_hours": "Mo-Fr 10:00-18:00; Sa 09:00-12:00",
    "operator": "Peter Hoffmann",
    "shop": "bicycle",
    "website": "http://www.radsport-hoffmann.at"
  }
},
{
  "type": "node",
  "id": 2278083879,
  "lat": 48.1728809,
  "lon": 16.4131209,
  "tags": {
    "addr:city": "Wien",
    "addr:country": "AT",
    "addr:housenumber": "39",
    "addr:postcode": "1110",
    "addr:street": "Lorystraße",
    "email": "manfred.faul@chello.at",
    "name": "Faul Manfred Fahrradwerkstatt",
    "opening_hours": "Mo-Fr 08:00-12:00,14:00-18:00; PH off",
    "service:bicycle:repair": "yes",
    "shop": "bicycle",
    "wheelchair": "yes"
  }
},
{
  "type": "node",
  "id": 2278121673,
  "lat": 48.1823431,
  "lon": 16.2798313,
  "tags": {
    "addr:city": "Wien",
    "addr:country": "AT",
    "addr:housenumber": "6",
    "addr:postcode": "1130",
    "addr:street": "Schrutkagasse",
    "email": "office@maroitalia.com",
    "name": "Maroitalia",
    "note": "Sport- und Freizeitbekleidung",
    "shop": "bicycle",
    "website": "https://www.maroitalia.com/"
  }
},
{
  "type": "node",
  "id": 2278154794,
  "lat": 48.2090641,
  "lon": 16.2125760,
  "tags": {
    "addr:city": "Wien",
    "addr:country": "AT",
    "addr:housenumber": "2",
    "addr:postcode": "1140",
    "addr:street": "Josef-Palme-Platz",
    "description": "RLS Sport Rad-, Lauf- u.Schwimmsportartikel",
    "email": "office@rls-sport.at",
    "name": "RLS Sport",
    "opening_hours": "Mo-Fr 10:00-12:00,14:00-18:30; Sa 09:00-13:00",
    "service:bicycle:pump": "yes",
    "shop": "bicycle",
    "website": "http://www.rls-sport.at/"
  }
},
{
  "type": "node",
  "id": 2278244200,
  "lat": 48.2239466,
  "lon": 16.3156523,
  "tags": {
    "addr:city": "Wien",
    "addr:country": "AT",
    "addr:housenumber": "1",
    "addr:postcode": "1170",
    "addr:street": "Gräffergasse",
    "email": "office@wunda.at",
    "name": "Fahrrad Eck",
    "opening_hours": "Mo-Fr 08:00-12:00, 14:00-18:00",
    "service:bicycle:pump": "no",
    "service:bicycle:repair": "yes",
    "shop": "bicycle",
    "website": "www.wunda.at"
  }
},
{
  "type": "node",
  "id": 2278256691,
  "lat": 48.2175302,
  "lon": 16.3365245,
  "tags": {
    "addr:city": "Wien",
    "addr:country": "AT",
    "addr:housenumber": "31",
    "addr:postcode": "1170",
    "addr:street": "Jörgerstraße",
    "email": "info@pbike.at",
    "name": "Pbike",
    "opening_hours": "Mo-Fr 10:00-18:30; Sa 10:00-13:00",
    "phone": "+43 1 403015112",
    "service:bicycle:repair": "yes",
    "service:bicycle:retail": "yes",
    "service:bicycle:second_hand": "yes",
    "shop": "bicycle",
    "website": "https://www.pbike.at/",
    "wheelchair": "no"
  }
},
{
  "type": "node",
  "id": 2278271839,
  "lat": 48.2300421,
  "lon": 16.3258976,
  "tags": {
    "addr:city": "Wien",
    "addr:country": "AT",
    "addr:housenumber": "19",
    "addr:postcode": "1180",
    "addr:street": "Schindlergasse",
    "email": "info@fahrrad18.at",
    "name": "Fahrrad18",
    "opening_hours": "Mo-Fr 10:00-12:00, 15:00-18:00; Sa 10:00-12:00",
    "service:bicycle:repair": "yes",
    "shop": "bicycle",
    "website": "http://www.fahrrad18.at"
  }
},
{
  "type": "node",
  "id": 2278353837,
  "lat": 48.2509466,
  "lon": 16.3046631,
  "tags": {
    "addr:city": "Wien",
    "addr:country": "AT",
    "addr:housenumber": "28",
    "addr:postcode": "1190",
    "addr:street": "Rathstraße",
    "name": "Beranek",
    "operator": "E. Reitinger",
    "shop": "bicycle"
  }
},
{
  "type": "node",
  "id": 2392551516,
  "lat": 48.2234781,
  "lon": 16.4893438,
  "tags": {
    "addr:city": "Wien",
    "addr:country": "AT",
    "addr:housenumber": "53/2/1",
    "addr:postcode": "1220",
    "addr:street": "Soldanellenweg",
    "email": "service@bibersport.at",
    "image": "https://www.bibersport.at/img/Soldannellenweg-min.jpg",
    "name": "Biber Sport Service",
    "opening_hours": "Tu-Fr 09:00-12:00,15:00-18:00; Sa 09:00-12:00",
    "operator": "Čedomir Dogandžić - BIBER SPORT SERVICE",
    "phone": "+4369919472425",
    "service:bicycle:repair": "yes",
    "service:bicycle:retail": "yes",
    "service:bicycle:second_hand": "yes",
    "shop": "bicycle",
    "website": "bibersport.at"
  }
},
{
  "type": "node",
  "id": 2393431602,
  "lat": 48.1923357,
  "lon": 16.4680979,
  "tags": {
    "addr:city": "Wien",
    "addr:country": "AT",
    "addr:postcode": "1220",
    "addr:street": "Raffineriestraße bei km 8,5",
    "email": "pesche-radverleih@gmx.net",
    "name": "Radverleih Ostbahnbrücke",
    "service:bicycle:rental": "yes",
    "shop": "bicycle"
  }
},
{
  "type": "node",
  "id": 2882276102,
  "lat": 48.1962790,
  "lon": 16.3039496,
  "tags": {
    "addr:city": "Wien",
    "addr:housenumber": "26",
    "addr:postcode": "1140",
    "addr:street": "Matznergasse",
    "contact:facebook": "https://www.facebook.com/radstefan.wien",
    "contact:phone": "+43 650 510 57 58",
    "contact:website": "https://radstefan.at/",
    "name": "RadStefan",
    "opening_hours": "Tu-Fr 09:00-12:00, 15:00-18:00",
    "service:bicycle:repair": "yes",
    "service:bicycle:sales": "yes",
    "shop": "bicycle"
  }
},
{
  "type": "node",
  "id": 3017863398,
  "lat": 48.0863492,
  "lon": 16.2975746,
  "tags": {
    "addr:city": "Mödling",
    "addr:country": "AT",
    "addr:housenumber": "10",
    "addr:postcode": "2340",
    "addr:street": "Wiener Straße",
    "contact:email": "anton.chladek@utanet.at",
    "contact:fax": "+43 2236 47959",
    "contact:phone": "+43 2236 47959",
    "contact:website": "http://www.2rad-chladek.at",
    "name": "2rad Chladek",
    "opening_hours": "Mo-Fr 08:00-12:00, 13:00-18:30; Sa 08:00-12:00; Sa[1] 08:00-12:00, 13:00-17:00",
    "shop": "bicycle"
  }
},
{
  "type": "node",
  "id": 3059735665,
  "lat": 48.2059248,
  "lon": 16.3401648,
  "tags": {
    "addr:city": "Wien",
    "addr:country": "AT",
    "addr:housenumber": "135",
    "addr:postcode": "1070",
    "addr:street": "Neustiftgasse",
    "name": "Izi Ride",
    "opening_hours": "Mo-Fr 09:00-12:00,12:30-18:00",
    "service:bicycle:pump": "yes",
    "service:bicycle:repair": "yes",
    "service:bicycle:retail": "no",
    "shop": "bicycle",
    "website": "http://www.izi-ride.at/",
    "wheelchair": "limited"
  }
},
{
  "type": "node",
  "id": 3098676660,
  "lat": 48.2135783,
  "lon": 16.3285804,
  "tags": {
    "addr:city": "Wien",
    "addr:country": "AT",
    "addr:housenumber": "71",
    "addr:postcode": "1160",
    "addr:street": "Ottakringer Straße",
    "name": "Das Faltrad",
    "opening_hours": "We-Fr 10:00-18:00",
    "shop": "bicycle",
    "website": "http://www.dasfaltrad.at/",
    "wheelchair": "limited"
  }
},
{
  "type": "node",
  "id": 3216533934,
  "lat": 48.3029584,
  "lon": 16.1499209,
  "tags": {
    "shop": "bicycle"
  }
},
{
  "type": "node",
  "id": 3305792924,
  "lat": 48.2248070,
  "lon": 16.4987066,
  "tags": {
    "addr:city": "Wien",
    "addr:country": "AT",
    "addr:housenumber": "9",
    "addr:postcode": "1220",
    "addr:street": "Maria-Tusch-Straße",
    "contact:email": "office@dr-bike.at",
    "contact:facebook": "https://www.facebook.com/drbikeseestadt/",
    "contact:phone": "+43 1 2806986",
    "contact:website": "http://www.dr-bike.at",
    "name": "Dr Bike",
    "opening_hours": "Mo-Fr 10:00-12:00,14:00-18:00; Sa 10:00-13:00",
    "service:bicycle:repair": "yes",
    "service:bicycle:retail": "yes",
    "shop": "bicycle",
    "start_date": "2015-03"
  }
},
{
  "type": "node",
  "id": 3428896329,
  "lat": 48.1268352,
  "lon": 16.2832130,
  "tags": {
    "email": "rad@catenasport.at",
    "fax": "+43 1 865198589",
    "image": "https://image.jimcdn.com/app/cms/image/transf/dimension=189x10000:format=png/path/sbc2b52e4fc179d39/image/ib781904399358974/version/1509787306/image.png",
    "name": "Catena",
    "opening_hours": "Mo-We,Fr 10:00-18:00; Sa 10:00-13:00; PH,We,Su off",
    "phone": "+43 1 8651985",
    "service:bicycle:cleaning": "yes",
    "service:bicycle:repair": "yes",
    "service:bicycle:retail": "yes",
    "shop": "bicycle",
    "source": "P'dorf Rundschau",
    "website": "https://www.catenasport.at/"
  }
},
{
  "type": "node",
  "id": 3527744085,
  "lat": 48.1874419,
  "lon": 16.3467644,
  "tags": {
    "addr:city": "Wien",
    "addr:country": "AT",
    "addr:housenumber": "1",
    "addr:postcode": "1050",
    "addr:street": "Am Hundsturm",
    "brand": "workcycles;Larry vs Harry;Yuba;Nihola;Xtracycle;Bakfiets;Christiana Bikes;Benno;Bicicapace;FlexiModal;Butchers & Bicycles;Carla Cargo;chike;Dolly;Muli;Omnium Cargo;Tern;Urban Arrow;Velove;Winther Bikes",
    "contact:email": "info@heavypedals.at",
    "contact:fax": "+43 1 353035355",
    "contact:phone": "+43 1 3530353",
    "contact:website": "http://heavypedals.at",
    "name": "Heavy Pedals",
    "opening_hours": "Tu-Fr 10:00-13:00,14:00-18:00",
    "service:bicycle:pump": "yes",
    "service:bicycle:rental": "yes",
    "service:bicycle:repair": "yes",
    "service:bicycle:retail": "yes",
    "shop": "bicycle"
  }
},
{
  "type": "node",
  "id": 3562149332,
  "lat": 48.0820456,
  "lon": 16.3025242,
  "tags": {
    "name": "Merida",
    "shop": "bicycle"
  }
},
{
  "type": "node",
  "id": 3634242449,
  "lat": 48.2159324,
  "lon": 16.3509342,
  "tags": {
    "addr:city": "Wien",
    "addr:country": "AT",
    "addr:housenumber": "3",
    "addr:postcode": "1090",
    "addr:street": "Spitalgasse",
    "name": "velo peaches",
    "opening_hours": "Tu-Th 11:00-19:00; Fr 11:00-17:00",
    "service:bicycle:repair": "yes",
    "shop": "bicycle",
    "website": "https://www.velopeaches.com/"
  }
},
{
  "type": "node",
  "id": 3715281138,
  "lat": 48.2270058,
  "lon": 16.3962261,
  "tags": {
    "addr:city": "Wien",
    "addr:country": "AT",
    "addr:housenumber": "23",
    "addr:postcode": "1020",
    "addr:street": "Krakauer Straße",
    "name": "Wien Rad",
    "opening_hours": "Mo-Fr 09:00-12:30,14:00-19:00; Sa 09:00-15:00",
    "shop": "bicycle",
    "website": "https://wienrad.at/"
  }
},
{
  "type": "node",
  "id": 3759159535,
  "lat": 48.1884394,
  "lon": 16.3305707,
  "tags": {
    "addr:city": "Wien",
    "addr:country": "AT",
    "addr:housenumber": "9",
    "addr:postcode": "1150",
    "addr:street": "Reindorfgasse",
    "email": "mail@popsykkel.at",
    "name": "Popsykkel",
    "opening_hours": "Mo-Fr 10:00-18:00; Sa 10:00-14:00",
    "phone": "+43-1-996 9853",
    "service:bicycle:Bicycle_Sales_and_Service": "yes",
    "service:bicycle:repair": "yes",
    "service:bicycle:service": "yes",
    "shop": "bicycle",
    "website": "http://popsykkel.at"
  }
},
{
  "type": "node",
  "id": 3765441970,
  "lat": 48.1940817,
  "lon": 16.3381720,
  "tags": {
    "addr:city": "Wien",
    "addr:country": "AT",
    "addr:housenumber": "2",
    "addr:postcode": "1150",
    "addr:street": "Dingelstedtgasse",
    "name": "Radlheim-Fünfhaus",
    "opening_hours": "Mo,We,Fr 13:00-19:00",
    "phone": "+43-1-929 15 82",
    "service:bicycle:repair": "yes",
    "service:bicycle:retail": "no",
    "shop": "bicycle",
    "website": "www.radlheim.org"
  }
},
{
  "type": "node",
  "id": 3901168497,
  "lat": 48.2115859,
  "lon": 16.3446951,
  "tags": {
    "addr:city": "Wien",
    "addr:country": "AT",
    "addr:housenumber": "1",
    "addr:postcode": "1080",
    "addr:street": "Skodagasse",
    "name": "Stadtwerkstatt",
    "service:bicycle:cleaning": "yes",
    "service:bicycle:diy": "yes",
    "service:bicycle:repair": "yes",
    "service:bicycle:retail": "no",
    "shop": "bicycle",
    "website": "http://alpenrad.at"
  }
},
{
  "type": "node",
  "id": 3911962799,
  "lat": 48.2251430,
  "lon": 16.5046693,
  "tags": {
    "addr:city": "Wien",
    "addr:country": "AT",
    "addr:housenumber": "1",
    "addr:postcode": "1220",
    "addr:street": "Eva-Maria-Mazzucco-Platz",
    "check_date:opening_hours": "2023-02-08",
    "contact:email": "office@unitedincycling.com",
    "contact:facebook": "https://www.facebook.com/UnitedInCycling/",
    "contact:instagram": "https://www.instagram.com/unitedincycling/",
    "contact:phone": "+43 670 509 16 96",
    "contact:website": "https://unitedincycling.com",
    "name": "United In Cycling - Fahrradgeschäft & Werkstatt",
    "opening_hours": "Tu-Fr 10:00-18:00; Sa 09:00-17:00",
    "opening_hours:covid19": "same",
    "operator": "United In Cycling GmbH",
    "payment:cards": "yes",
    "payment:cash": "yes",
    "payment:contactless": "yes",
    "service:bicycle:bicycle": "yes",
    "service:bicycle:dealer": "yes",
    "service:bicycle:ebike": "yes",
    "service:bicycle:parts": "yes",
    "service:bicycle:pump": "yes",
    "service:bicycle:rental": "yes",
    "service:bicycle:repair": "yes",
    "service:bicycle:retail": "yes",
    "service:bicycle:sales": "yes",
    "service:bicycle:service": "yes",
    "service:bicycle:tools": "yes",
    "shop": "bicycle"
  }
},
{
  "type": "node",
  "id": 4158927689,
  "lat": 48.0041642,
  "lon": 16.2318865,
  "tags": {
    "name": "Pfannberger Cycling",
    "opening_hours": "Tu-Fr 10:00-13:00, 14:00-18:00; Sa 09:00-12:00",
    "shop": "bicycle",
    "website": "https://www.pfannberger.com"
  }
},
{
  "type": "node",
  "id": 4233327187,
  "lat": 48.2196210,
  "lon": 16.3768337,
  "tags": {
    "addr:city": "Wien",
    "addr:country": "AT",
    "addr:housenumber": "21",
    "addr:postcode": "1020",
    "addr:street": "Leopoldsgasse",
    "email": "office@glanzrad.com",
    "name": "Glanzrad",
    "opening_hours": "Tu-Fr 12:00-18:00; Sa 11:00-18:00; PH off",
    "phone": "+43 664 9533662",
    "service:bicycle:repair": "yes",
    "service:bicycle:retail": "yes",
    "service:bicycle:retro_bikes": "yes",
    "shop": "bicycle",
    "website": "https://www.glanzrad.com/"
  }
},
{
  "type": "node",
  "id": 4450880711,
  "lat": 48.2401419,
  "lon": 16.3846704,
  "tags": {
    "addr:city": "Wien",
    "addr:country": "AT",
    "addr:housenumber": "86",
    "addr:postcode": "1200",
    "addr:street": "Engerthstraße",
    "check_date:opening_hours": "2022-08-23",
    "name": "Best Bike",
    "opening_hours": "Mo-Th 09:00-19:00; Fr 09:00-13:00,14:00-19:00; Sa 09:00-17:00",
    "service:bicycle:repair": "yes",
    "service:bicycle:retail": "yes",
    "service:bicycle:second_hand": "no",
    "shop": "bicycle",
    "wheelchair": "limited"
  }
},
{
  "type": "node",
  "id": 4589192647,
  "lat": 48.1991177,
  "lon": 16.3261380,
  "tags": {
    "addr:city": "Wien",
    "addr:country": "AT",
    "addr:housenumber": "36",
    "addr:postcode": "1150",
    "addr:street": "Hütteldorfer Straße",
    "contact:facebook": "https://www.facebook.com/cycloholics",
    "contact:website": "http://www.cycloholics.at",
    "name": "Cycloholics",
    "opening_hours": "Mo,Tu,Fr 09:30-12:00,14:00-18:00; We off; Th 09:30-12:00,14:00-18:00; Sa 09:30-13:00",
    "service:bicycle:pump": "no",
    "shop": "bicycle"
  }
},
{
  "type": "node",
  "id": 4741190221,
  "lat": 48.2241605,
  "lon": 16.3668736,
  "tags": {
    "addr:city": "Wien",
    "addr:country": "AT",
    "addr:housenumber": "33",
    "addr:postcode": "1090",
    "addr:street": "Roßauer Lände",
    "check_date:opening_hours": "2023-01-20",
    "email": "office@fahrradkeller.at",
    "name": "Fahrradkeller",
    "opening_hours": "Mo-Fr 10:00-19:00; Sa 10:00-17:00",
    "phone": "+43 660 5780770",
    "service:bicycle:repair": "yes",
    "service:bicycle:retail": "yes",
    "service:bicycle:second_hand": "yes",
    "shop": "bicycle",
    "website": "https://fahrradkeller.at"
  }
},
{
  "type": "node",
  "id": 4747130556,
  "lat": 48.1848791,
  "lon": 16.3751846,
  "tags": {
    "access": "yes",
    "addr:city": "Wien",
    "addr:country": "AT",
    "addr:housenumber": "1",
    "addr:postcode": "1100",
    "addr:street": "Am Hauptbahnhof",
    "amenity": "bicycle_parking",
    "bicycle_parking": "building",
    "covered": "yes",
    "fee": "yes",
    "level": "0",
    "name": "Dieradstation",
    "opening_hours": "Mo-Fr 09:00-18:00",
    "service:bicycle:rental": "yes",
    "shop": "bicycle",
    "website": "https://www.dieradstation.cc/",
    "wheelchair": "yes"
  }
},
{
  "type": "node",
  "id": 4851429230,
  "lat": 48.2247678,
  "lon": 16.3566651,
  "tags": {
    "addr:city": "Wien",
    "addr:country": "AT",
    "addr:housenumber": "21",
    "addr:postcode": "1090",
    "addr:street": "Boltzmanngasse",
    "email": "info@pbike.at",
    "name": "Pbike",
    "opening_hours": "Mo-Fr 10:00-19:00; Sa 10:00-14:00",
    "phone": "+43 1 403015110",
    "service:bicycle:repair": "yes",
    "service:bicycle:retail": "yes",
    "shop": "bicycle",
    "website": "http://pbike.at/"
  }
},
{
  "type": "node",
  "id": 4852583858,
  "lat": 48.2022980,
  "lon": 16.3945720,
  "tags": {
    "addr:city": "Wien",
    "addr:country": "AT",
    "addr:housenumber": "22",
    "addr:postcode": "1030",
    "addr:street": "Erdbergstraße",
    "contact:facebook": "https://www.facebook.com/huberista",
    "email": "office@huberista.com",
    "name": "huberista",
    "official_name": "CHHUBER bicycles GmbH",
    "opening_hours": "Mo-Fr 12:00-18:00; Sa,Su,PH off",
    "operator": "Christian Huber",
    "phone": "+43 676 3660900",
    "shop": "bicycle",
    "website": "https://www.huberista.com"
  }
},
{
  "type": "node",
  "id": 4881845348,
  "lat": 48.1852781,
  "lon": 16.3209063,
  "tags": {
    "addr:city": "Wien",
    "addr:country": "AT",
    "addr:housenumber": "249",
    "addr:postcode": "1120",
    "addr:street": "Rechte Wienzeile",
    "name": "Bikeservice",
    "operator": "Uwe",
    "phone": "+43 677 61361817",
    "service:bicycle:repair": "yes",
    "service:bicycle:second_hand": "yes",
    "shop": "bicycle"
  }
},
{
  "type": "node",
  "id": 4987545145,
  "lat": 48.2293471,
  "lon": 16.2025016,
  "tags": {
    "addr:city": "Wien",
    "addr:housenumber": "174-184",
    "addr:postcode": "1140",
    "addr:street": "Mauerbachstraße",
    "name": "Bike Shop Hohe Wand Wiese",
    "opening_hours": "We-Su 09:30 - 19:00",
    "operator": "morethanbike",
    "shop": "bicycle",
    "website": "https://morethanbike.at/"
  }
},
{
  "type": "node",
  "id": 5027895027,
  "lat": 48.1477443,
  "lon": 16.4802246,
  "tags": {
    "addr:city": "Schwechat",
    "addr:country": "AT",
    "addr:housenumber": "57",
    "addr:postcode": "2320",
    "addr:street": "Sendnergasse",
    "name": "ZoneExtreme",
    "shop": "bicycle",
    "website": "www.zoneextreme.eu"
  }
},
{
  "type": "node",
  "id": 5152281601,
  "lat": 48.1926464,
  "lon": 16.3162895,
  "tags": {
    "addr:city": "Wien",
    "addr:country": "AT",
    "addr:housenumber": "1-3",
    "addr:postcode": "1140",
    "addr:street": "Johnstraße",
    "check_date": "2023-06-03",
    "contact:email": "velobis@bikesplus.at",
    "contact:phone": "+43 1 7863980",
    "contact:website": "http://velobis.com/",
    "name": "Velobis",
    "opening_hours": "Tu-Fr 10:00-18:00; Sa 11:00-15:00; PH off",
    "service:bicycle:parts": "yes",
    "service:bicycle:repair": "yes",
    "service:bicycle:retail": "yes",
    "shop": "bicycle",
    "website": "http://velobis.com/",
    "wheelchair": "yes"
  }
},
{
  "type": "node",
  "id": 5165112921,
  "lat": 48.2249684,
  "lon": 16.4691684,
  "tags": {
    "addr:city": "Wien",
    "addr:country": "AT",
    "addr:housenumber": "80",
    "addr:postcode": "1220",
    "addr:street": "Rittersporngasse",
    "name": "Oliver Holat",
    "phone": "+4369912804465",
    "service:bicycle:repair": "yes",
    "shop": "bicycle",
    "website": "http://www.radwerkstatt.wien/"
  }
},
{
  "type": "node",
  "id": 5165177907,
  "lat": 48.1888392,
  "lon": 16.3545077,
  "tags": {
    "addr:city": "Wien",
    "addr:country": "AT",
    "addr:housenumber": "107",
    "addr:postcode": "1050",
    "addr:street": "Margaretenstraße",
    "name": "Mitico",
    "service:bicycle:repair": "yes",
    "service:bicycle:retail": "yes",
    "shop": "bicycle",
    "website": "https://www.miticobikes.com/",
    "wheelchair": "limited"
  }
},
{
  "type": "node",
  "id": 5165452070,
  "lat": 48.1724900,
  "lon": 16.3377793,
  "tags": {
    "addr:city": "Wien",
    "addr:country": "AT",
    "addr:housenumber": "1",
    "addr:postcode": "1120",
    "addr:street": "Eibesbrunnergasse",
    "email": "office@ratka.at",
    "name": "Michael Ratka",
    "service:bicycle:ebike": "yes",
    "service:bicycle:repair": "yes",
    "shop": "bicycle",
    "website": "http://www.backwind.at/"
  }
},
{
  "type": "node",
  "id": 5165527900,
  "lat": 48.2460989,
  "lon": 16.3777969,
  "tags": {
    "name": "bike20",
    "note": "Über Wintermonate geschlossen",
    "service:bicycle:repair": "yes",
    "shop": "bicycle"
  }
},
{
  "type": "node",
  "id": 5403565599,
  "lat": 48.2122113,
  "lon": 16.3413302,
  "tags": {
    "addr:city": "Wien",
    "addr:country": "AT",
    "addr:housenumber": "68/2",
    "addr:postcode": "1080",
    "addr:street": "Florianigasse",
    "name": "Church of Bikes",
    "opening_hours": "Th - Sa 12:00 - 19:00; Su-We, PH off",
    "phone": "+43 677  619 071 23",
    "service:bicycle:chain_tool": "yes",
    "service:bicycle:diy": "yes",
    "service:bicycle:pump": "yes",
    "service:bicycle:repair": "yes",
    "service:bicycle:tools": "yes",
    "shop": "bicycle",
    "website": "http://www.churchofbikes.com/"
  }
},
{
  "type": "node",
  "id": 5403566966,
  "lat": 48.2229663,
  "lon": 16.3532409,
  "tags": {
    "addr:city": "Wien",
    "addr:country": "AT",
    "addr:housenumber": "3",
    "addr:postcode": "1090",
    "addr:street": "Nußdorfer Straße",
    "addr:unit": "3",
    "email": "office@arizonabike.at",
    "name": "Arizona Bike",
    "opening_hours": "Mo-Fr 09:00-19:00; Sa 09:00-18:00",
    "phone": "+43 680 1161575",
    "service:bicycle:pump": "yes",
    "service:bicycle:repair": "yes",
    "service:bicycle:service": "yes",
    "shop": "bicycle",
    "website": "https://www.arizonabike.at"
  }
},
{
  "type": "node",
  "id": 5403570069,
  "lat": 48.1898991,
  "lon": 16.4007585,
  "tags": {
    "addr:city": "Wien",
    "addr:country": "AT",
    "addr:housenumber": "173-175",
    "addr:postcode": "1030",
    "addr:street": "Landstraßer Hauptstraße",
    "check_date": "2023-04-17",
    "name": "Radgeber",
    "opening_hours": "Tu-Fr 10:00-13:30,14:30-17:00",
    "service:bicycle:pump": "no",
    "service:bicycle:repair": "yes",
    "shop": "bicycle",
    "website": "https://www.radgeber.bike",
    "wheelchair": "no"
  }
},
{
  "type": "node",
  "id": 5519258057,
  "lat": 48.2205234,
  "lon": 16.3234975,
  "tags": {
    "addr:city": "Wien",
    "addr:country": "AT",
    "addr:housenumber": "119",
    "addr:postcode": "1170",
    "addr:street": "Hernalser Hauptstraße",
    "name": "Fahrraddiscounter",
    "shop": "bicycle"
  }
},
{
  "type": "node",
  "id": 5534133900,
  "lat": 48.2133265,
  "lon": 16.3081910,
  "tags": {
    "addr:city": "Wien",
    "addr:country": "AT",
    "addr:housenumber": "152",
    "addr:postcode": "1160",
    "addr:street": "Thaliastraße",
    "email": "info@pedalus.at",
    "name": "Pedalus",
    "opening_hours": "Mo-Fr 09:00-18:00",
    "operator": "Roland Garber",
    "phone": "+43 650 3 555 555",
    "service:bicycle:rental": "no",
    "service:bicycle:repair": "yes",
    "service:bicycle:retail": "yes",
    "shop": "bicycle",
    "website": "https://www.pedalus.at/",
    "wheelchair": "no"
  }
},
{
  "type": "node",
  "id": 5556876603,
  "lat": 48.1783925,
  "lon": 16.3796892,
  "tags": {
    "addr:city": "Wien",
    "addr:country": "AT",
    "addr:housenumber": "38",
    "addr:postcode": "1100",
    "addr:street": "Sonnwendgasse",
    "at_bev:addr_date": "2017-10-01",
    "contact:phone": "+4369918080606",
    "name": "Lemon Bike",
    "opening_hours": "Mo-Fr 10:00-18:00",
    "shop": "bicycle"
  }
},
{
  "type": "node",
  "id": 5582369121,
  "lat": 48.0537858,
  "lon": 16.3070436,
  "tags": {
    "bicycle": "yes",
    "email": "info@oemobil.at",
    "name": "oemobil",
    "opening_hours": "Tu 11:00-20:00, Th 11:00-20:00",
    "phone": "0043 664 3027470",
    "service:bicycle:rental": "yes",
    "service:bicycle:repair": "yes",
    "service:bicycle:retail": "yes",
    "service:bicycle:second_hand": "yes",
    "shop": "bicycle",
    "website": "http://oemobil.at",
    "wheelchair": "yes"
  }
},
{
  "type": "node",
  "id": 5610799188,
  "lat": 48.1856293,
  "lon": 16.3450412,
  "tags": {
    "addr:city": "Wien",
    "addr:country": "AT",
    "addr:housenumber": "134",
    "addr:postcode": "1050",
    "addr:street": "Margaretengürtel",
    "email": "werkstatt@dieradwerkstatt.at",
    "name": "Die radwerkstatt",
    "name:de": "Die Radwerkstatt",
    "opening_hours": "Mo 9:00-15:00; Tu-Fr 9:00-18:00; Sa 10:00-13:00",
    "phone": "+4315443801",
    "service:bicycle:pump": "yes",
    "service:bicycle:repair": "yes",
    "service:bicycle:second_hand": "yes",
    "shop": "bicycle",
    "website": "http://www.dieradwerkstatt.at/"
  }
},
{
  "type": "node",
  "id": 5730357617,
  "lat": 48.2191691,
  "lon": 16.3825759,
  "tags": {
    "contact:website": "http://www.kinderkutsche.at",
    "name": "KinderKutsche.at",
    "opening_hours": "Mo-Fr 10:00-18:00||\"Nach Vereinbarung\"",
    "phone": "+43 650 942 34 55",
    "service:bicycle:pump": "no",
    "shop": "bicycle"
  }
},
{
  "type": "node",
  "id": 6139631055,
  "lat": 48.1618185,
  "lon": 16.3179575,
  "tags": {
    "addr:city": "Wien",
    "addr:housenumber": "109",
    "addr:postcode": "1120",
    "addr:street": "Altmannsdorfer Straße",
    "name": "Jugend am Werk",
    "operator": "Jugend am Werk",
    "operator:wikidata": "Q1410368",
    "phone": "+4318028057",
    "repair": "yes",
    "second_hand": "only",
    "service:bicycle:pump": "no",
    "service:bicycle:repair": "yes",
    "service:bicycle:second_hand": "yes",
    "shop": "bicycle"
  }
},
{
  "type": "node",
  "id": 6164773524,
  "lat": 48.2080853,
  "lon": 16.3497101,
  "tags": {
    "name": "Maderna Cycle Systems - Geschäft",
    "shop": "bicycle"
  }
},
{
  "type": "node",
  "id": 6484431517,
  "lat": 48.2069623,
  "lon": 16.3513119,
  "tags": {
    "addr:city": "Wien",
    "addr:housenumber": "14",
    "addr:postcode": "1080",
    "addr:street": "Piaristengasse",
    "check_date:opening_hours": "2002-06-08",
    "name": "Optimus Bike",
    "opening_hours": "Mo-Fr 10:00-19:00; Sa 10:00-15:00",
    "payment:credit_cards": "yes",
    "payment:debit_cards": "yes",
    "shop": "bicycle",
    "wheelchair": "limited"
  }
},
{
  "type": "node",
  "id": 6629905321,
  "lat": 48.2294151,
  "lon": 16.3877512,
  "tags": {
    "addr:city": "Wien",
    "addr:housenumber": "136",
    "addr:postcode": "1200",
    "addr:street": "Dresdner Straße",
    "check_date": "2022-06-09",
    "email": "info@der-drehmoment.at",
    "name": "der drehmoment",
    "opening_hours": "Mo-Fr 14:00-19:00; PH off",
    "phone": "+43 660 3695117",
    "service:bicycle:retail": "yes",
    "service:bicycle:second_hand": "yes",
    "service:bicycle:service": "yes",
    "shop": "bicycle",
    "website": "https://der-drehmoment.at",
    "wheelchair": "limited"
  }
},
{
  "type": "node",
  "id": 6727820749,
  "lat": 48.1997418,
  "lon": 16.5483217,
  "tags": {
    "contact:website": "https://www.velomove.at",
    "name": "Velomove",
    "opening_hours": "Mo-Fr 09:00-12:00, 15:00-18:00; Sa 09:00-12:00",
    "shop": "bicycle"
  }
},
{
  "type": "node",
  "id": 6796452710,
  "lat": 48.2057463,
  "lon": 16.3319315,
  "tags": {
    "addr:city": "Wien",
    "addr:housenumber": "24",
    "addr:postcode": "1160",
    "addr:street": "Herbststraße",
    "email": "werkstatt@radlfriseur.at",
    "name": "Radlfriseur",
    "opening_hours": "Tu-Fr 09:00-12:00, 14:00-18:00; Sa 08:00-12:00; PH off",
    "phone": "+43 660 681 68 33",
    "shop": "bicycle",
    "website": "https://www.radlfriseur.at/"
  }
},
{
  "type": "node",
  "id": 7056724590,
  "lat": 48.2268813,
  "lon": 16.3926058,
  "tags": {
    "addr:city": "Wien",
    "addr:housenumber": "11",
    "addr:postcode": "1020",
    "addr:street": "Bruno-Marek-Allee",
    "check_date:opening_hours": "2022-06-09",
    "email": "office@starbike.at",
    "name": "Star Bike",
    "opening_hours": "Mo-Fr 10:00-18:00; Sa 09:00-16:00",
    "phone": "+43 1 2198560",
    "service:bicycle:pump": "yes",
    "service:bicycle:rental": "yes",
    "service:bicycle:repair": "yes",
    "service:bicycle:retail": "yes",
    "shop": "bicycle",
    "website": "https://www.starbike.at",
    "wheelchair": "limited"
  }
},
{
  "type": "node",
  "id": 7149757716,
  "lat": 48.1403918,
  "lon": 16.4760941,
  "tags": {
    "addr:city": "Schwechat",
    "addr:housenumber": "3",
    "addr:postcode": "2320",
    "addr:street": "Rathausplatz",
    "name": "Zoneextreme",
    "opening_hours": "Mo-Fr 09:00-19:00",
    "operator": "Zoneextreme.eu",
    "service:bicycle:pump": "yes",
    "service:bicycle:repair": "yes",
    "service:bicycle:retail": "yes",
    "shop": "bicycle",
    "website": "http://www.zoneextreme.eu/zone"
  }
},
{
  "type": "node",
  "id": 7321540238,
  "lat": 48.1672561,
  "lon": 16.3083255,
  "tags": {
    "addr:city": "Wien",
    "addr:housenumber": "81",
    "addr:postcode": "1120",
    "addr:street": "Hetzendorfer Straße",
    "check_date": "2022-08-16",
    "contact:phone": "+43 650 4842222",
    "contact:website": "https://fahrradwerkstatt.flickschuh.wien/",
    "level": "0",
    "name": "Fahrradwerkstatt Flickschuh",
    "opening_hours": "Mo,Tu,Th,Fr 08:30-12:00,14:30-18:30; Sa 09:30-17:00; PH off",
    "operator": "Heinrich Flickschuh",
    "second_hand": "yes",
    "service:bicycle:charging": "no",
    "service:bicycle:cleaning": "no",
    "service:bicycle:diy": "no",
    "service:bicycle:pump": "yes",
    "service:bicycle:rental": "no",
    "service:bicycle:repair": "yes",
    "service:bicycle:retail": "yes",
    "service:bicycle:second_hand": "yes",
    "shop": "bicycle",
    "website": "https://flickschuh.wien/"
  }
},
{
  "type": "node",
  "id": 7459249216,
  "lat": 48.1202836,
  "lon": 16.3166714,
  "tags": {
    "brand": "Zweirad-Center Stadler",
    "brand:wikidata": "Q27225809",
    "brand:wikipedia": "de:Zweirad-Center Stadler",
    "contact:website": "https://shop.zweirad-stadler.de/Wien/",
    "name": "Zweirad-Center Stadler",
    "shop": "bicycle"
  }
},
{
  "type": "node",
  "id": 7464971804,
  "lat": 48.1418708,
  "lon": 16.3543739,
  "tags": {
    "name": "SG Velo",
    "shop": "bicycle"
  }
},
{
  "type": "node",
  "id": 7465008581,
  "lat": 48.1941665,
  "lon": 16.3443603,
  "tags": {
    "addr:housenumber": "40",
    "addr:street": "Stumpergasse",
    "check_date:opening_hours": "2023-06-09",
    "name": "Veloversum",
    "opening_hours": "Mo-Fr 09:00-19:00; Sa 09:00-18:00",
    "service:bicycle:pump": "no",
    "service:bicycle:repair": "yes",
    "shop": "bicycle"
  }
},
{
  "type": "node",
  "id": 7465009109,
  "lat": 48.1422123,
  "lon": 16.3852604,
  "tags": {
    "addr:housenumber": "209",
    "addr:street": "Oberlaaer Straße",
    "name": "Das Rad",
    "opening_hours": "Mo-Fr 10:00-18:00; Sa 09:00-12:00",
    "shop": "bicycle"
  }
},
{
  "type": "node",
  "id": 7465010019,
  "lat": 48.1814311,
  "lon": 16.2853308,
  "tags": {
    "addr:housenumber": "1",
    "addr:street": "Stadlergasse",
    "name": "Cycle Factory 1130",
    "shop": "bicycle",
    "website": "https://www.cycle-factory.at"
  }
},
{
  "type": "node",
  "id": 7834802092,
  "lat": 48.2590716,
  "lon": 16.4015398,
  "tags": {
    "name": "Fahrrad Lab",
    "shop": "bicycle"
  }
},
{
  "type": "node",
  "id": 7843396022,
  "lat": 48.1991962,
  "lon": 16.3883268,
  "tags": {
    "addr:city": "Wien",
    "addr:housenumber": "24",
    "addr:postcode": "1030",
    "addr:street": "Neulinggasse",
    "level": "-1",
    "name": "Fahrradtechnik Johannes Neugebauer",
    "opening_hours": "Mo-Sa 10:00-19:00",
    "opening_hours:covid19": "same",
    "operator": "Johannes Neugebauer",
    "phone": "+43 664 5336008",
    "service:bicycle:parts": "yes",
    "service:bicycle:pump": "yes",
    "service:bicycle:repair": "yes",
    "service:bicycle:service": "yes",
    "shop": "bicycle",
    "stroller": "no",
    "wheelchair": "no"
  }
},
{
  "type": "node",
  "id": 7970224941,
  "lat": 48.2217384,
  "lon": 16.3997971,
  "tags": {
    "description": "Fahrrad-Selbsthilfewerkstatt",
    "email": "firlevapz@riseup.net",
    "name": "Die Absteige",
    "opening_hours": "We 17:00-21:00",
    "repair": "assisted_self_service",
    "service:bicycle:diy": "yes",
    "shop": "bicycle",
    "wheelchair": "no"
  }
},
{
  "type": "node",
  "id": 8123945864,
  "lat": 48.3088483,
  "lon": 16.3586780,
  "tags": {
    "addr:city": "Langenzersdorf",
    "addr:housenumber": "13",
    "addr:postcode": "2103",
    "addr:street": "Wiener Straße",
    "name": "Drohtesl",
    "opening_hours": "Mo-Fr 08:30-12:00,15:00-18:00; Sa 08:30-12:00",
    "phone": "+43 2244 2643",
    "service:bicycle:bike": "yes",
    "service:bicycle:repair": "yes",
    "shop": "bicycle",
    "website": "https://drohtesl.at/"
  }
},
{
  "type": "node",
  "id": 8267696470,
  "lat": 48.0105886,
  "lon": 16.2424980,
  "tags": {
    "addr:housenumber": "13-21",
    "addr:street": "Wiener Straße",
    "name": "Cyclefactory At",
    "opening_hours": "Mo-We, Fr 10:00-18:00; Th, Sa 10:00-14:00",
    "shop": "bicycle",
    "website": "https://www.cycle-factory.at/baden"
  }
},
{
  "type": "node",
  "id": 8267696471,
  "lat": 48.0253334,
  "lon": 16.3037339,
  "tags": {
    "addr:housenumber": "56",
    "addr:street": "Karl Adlitzer Straße",
    "name": "Bike Peter",
    "opening_hours": "Tu, Th 07:00-13:00; We, Fr 13:00-18:00",
    "phone": "+43 699 19207522",
    "shop": "bicycle",
    "website": "www.bike-peter.at"
  }
},
{
  "type": "node",
  "id": 8373806641,
  "lat": 48.2493226,
  "lon": 16.4431912,
  "tags": {
    "name": "Sportique Kagran",
    "shop": "bicycle"
  }
},
{
  "type": "node",
  "id": 8373806642,
  "lat": 48.2467060,
  "lon": 16.4757894,
  "tags": {
    "name": "Ing. Andreas Mocha",
    "shop": "bicycle"
  }
},
{
  "type": "node",
  "id": 8373806643,
  "lat": 48.2380415,
  "lon": 16.4326917,
  "tags": {
    "name": "Bikestore Servicecenter",
    "shop": "bicycle"
  }
},
{
  "type": "node",
  "id": 8373806645,
  "lat": 48.2572137,
  "lon": 16.4137271,
  "tags": {
    "name": "Repa-Rad-Tur.at",
    "shop": "bicycle"
  }
},
{
  "type": "node",
  "id": 8373806646,
  "lat": 48.2306425,
  "lon": 16.3742814,
  "tags": {
    "name": "Velotek",
    "opening_hours": "Tu-Fr 12:00-19:00",
    "phone": "+43 677 62890673",
    "shop": "bicycle",
    "website": "http://velotek.at"
  }
},
{
  "type": "node",
  "id": 8373806648,
  "lat": 48.2550350,
  "lon": 16.3658389,
  "tags": {
    "email": "office@mei-radl.at",
    "name": "Mei Radl Werkstatt",
    "opening_hours": "PH,Su off; Mo-Sa 08:00-18:00",
    "operator": "Harald Lechleitner",
    "phone": "+43 1 3185245",
    "shop": "bicycle",
    "website": "https://www.mei-radl.at/"
  }
},
{
  "type": "node",
  "id": 8373806649,
  "lat": 48.2652643,
  "lon": 16.3349828,
  "tags": {
    "name": "Federelement",
    "shop": "bicycle"
  }
},
{
  "type": "node",
  "id": 8373806650,
  "lat": 48.2255940,
  "lon": 16.2872554,
  "tags": {
    "name": "Christian Proschinger Fahrradtechnik e.U.",
    "shop": "bicycle"
  }
},
{
  "type": "node",
  "id": 8373806653,
  "lat": 48.1524356,
  "lon": 16.3733210,
  "tags": {
    "name": "Walter Johann Knechtl - Die Fahrradtechnik",
    "shop": "bicycle"
  }
},
{
  "type": "node",
  "id": 8373806654,
  "lat": 48.1814718,
  "lon": 16.3845688,
  "tags": {
    "check_date": "2023-04-22",
    "name": "Lenkerbande - Kompetenzzentrum für Bahnhofsräder",
    "opening_hours": "Tu-Fr 11:00-19:00; Sa 12:00-16:00",
    "shop": "bicycle"
  }
},
{
  "type": "node",
  "id": 8373806656,
  "lat": 48.2082827,
  "lon": 16.3394483,
  "tags": {
    "addr:city": "Wien",
    "addr:country": "AT",
    "addr:housenumber": "106",
    "addr:postcode": "1070",
    "addr:street": "Kaiserstraße",
    "email": "info@radplatz.at",
    "name": "Radplatz",
    "opening_hours": "Tu-Fr 10:00-18:00; Sa 12:00-17:00; Mo,Su,PH off",
    "phone": "+43 19 612 610",
    "service:bicycle:Bicycle_Sales_and_Service": "yes",
    "service:bicycle:bicycle": "yes",
    "service:bicycle:bike": "yes",
    "service:bicycle:chain_tool": "yes",
    "service:bicycle:cleaning": "yes",
    "service:bicycle:clothing": "yes",
    "service:bicycle:dealer": "yes",
    "service:bicycle:diy": "yes",
    "service:bicycle:parts": "yes",
    "service:bicycle:pump": "yes",
    "service:bicycle:repair": "yes",
    "service:bicycle:retail": "yes",
    "service:bicycle:sales": "yes",
    "service:bicycle:service": "yes",
    "service:bicycle:tools": "yes",
    "shop": "bicycle",
    "website": "https://radplatz.at/"
  }
},
{
  "type": "node",
  "id": 8373806657,
  "lat": 48.1896406,
  "lon": 16.3565397,
  "tags": {
    "name": "Genniges Fahrräder",
    "opening_hours": "Mo,We-Fr 10:00-13:00,14:00-18:00; Sa 10:00-15:00",
    "shop": "bicycle"
  }
},
{
  "type": "node",
  "id": 8373806660,
  "lat": 48.2180642,
  "lon": 16.3886645,
  "tags": {
    "addr:city": "Wien",
    "addr:housenumber": "49",
    "addr:postcode": "1020",
    "addr:street": "Novaragasse",
    "name": "Sport nach Mass",
    "opening_hours:signed": "no",
    "operator": "Thomas Drucker e.U.",
    "phone": "+43 (0)1 9094331",
    "service:bicycle:bicycle": "yes",
    "service:bicycle:pump": "no",
    "service:bicycle:repair": "yes",
    "service:bicycle:service": "yes",
    "shop": "bicycle",
    "website": "https://sport-nach-mass.com",
    "wheelchair": "no"
  }
},
{
  "type": "node",
  "id": 8373806661,
  "lat": 48.2232163,
  "lon": 16.4045767,
  "tags": {
    "name": "La Bicicleta Verde",
    "opening_hours:signed": "no",
    "shop": "bicycle",
    "wheelchair": "no"
  }
},
{
  "type": "node",
  "id": 8373806662,
  "lat": 48.2190133,
  "lon": 16.3881539,
  "tags": {
    "name": "Rad-Bike",
    "opening_hours": "Mo-Fr 09:00-18:00; Sa 09:00-13:00",
    "phone": "+4369919670433",
    "service:bicycle:pump": "yes",
    "service:bicycle:repair": "yes",
    "shop": "bicycle",
    "wheelchair": "yes"
  }
},
{
  "type": "node",
  "id": 8373806663,
  "lat": 48.2014446,
  "lon": 16.3705006,
  "tags": {
    "name": "Pedal Power",
    "service:bicycle:rental": "yes",
    "service:bicycle:repair": "yes",
    "service:bicycle:retail": "yes",
    "shop": "bicycle"
  }
},
{
  "type": "node",
  "id": 8599202692,
  "lat": 48.2009827,
  "lon": 16.3552245,
  "tags": {
    "addr:city": "Wien",
    "addr:housenumber": "5-9",
    "addr:postcode": "1070",
    "addr:street": "Stiftgasse",
    "name": "Bergspezl",
    "opening_hours": "Mo-Fr 10:00-19:00; Sa 10:00-18:00",
    "shop": "bicycle"
  }
},
{
  "type": "node",
  "id": 8758112045,
  "lat": 48.1925427,
  "lon": 16.2786906,
  "tags": {
    "addr:city": "Wien",
    "addr:housenumber": "192",
    "addr:postcode": "1140",
    "addr:street": "Hadikgasse",
    "email": "team@vertical.world",
    "name": "2 Rad Helden",
    "opening_hours": "Mo-Fr 10:00-18:00; Sa 10:00-14:00",
    "operator": "VERTICAL eMobility GmbH",
    "phone": "+43 (0)1 9296690",
    "service:bicycle:pump": "no",
    "shop": "bicycle",
    "website": "https://2radhelden.at"
  }
},
{
  "type": "node",
  "id": 8758112046,
  "lat": 48.1906384,
  "lon": 16.3234667,
  "tags": {
    "addr:city": "Wien",
    "addr:housenumber": "206",
    "addr:postcode": "1150",
    "addr:street": "Mariahilfer Straße",
    "name": "Bike City",
    "opening_hours": "\"Fahrradwerkstatt nur im Sommer\"",
    "service:bicycle:diy": "no",
    "service:bicycle:pump": "yes",
    "service:bicycle:rental": "no",
    "service:bicycle:repair": "yes",
    "service:bicycle:retail": "no",
    "service:bicycle:second_hand": "no",
    "shop": "bicycle"
  }
},
{
  "type": "node",
  "id": 8765520433,
  "lat": 48.2183923,
  "lon": 16.3512400,
  "tags": {
    "addr:city": "Wien",
    "addr:housenumber": "1",
    "addr:postcode": "1090",
    "addr:street": "Lazarettgasse",
    "name": "eBike now",
    "opening_hours": "Mo-We 10:00-18:00; Sa 10:00-14:00",
    "service:bicycle:repair": "yes",
    "service:bicycle:retail": "yes",
    "service:bicycle:second_hand": "yes",
    "shop": "bicycle",
    "website": "https://ebikenow.at"
  }
},
{
  "type": "node",
  "id": 8811848449,
  "lat": 48.1919318,
  "lon": 16.3534597,
  "tags": {
    "addr:city": "Wien",
    "addr:housenumber": "1",
    "addr:postcode": "1060",
    "addr:street": "Turmburggasse",
    "check_date:opening_hours": "2023-05-21",
    "name": "Flickerei",
    "opening_hours": "Tu 17:00-21:00",
    "repair": "assisted_self_service",
    "service:bicycle:diy": "yes",
    "service:bicycle:pump": "no",
    "shop": "bicycle",
    "website": "http://flickerei.blogsport.at/"
  }
},
{
  "type": "node",
  "id": 8982716109,
  "lat": 48.3747139,
  "lon": 16.5205486,
  "tags": {
    "name": "Alfreds Fahrradwerkstatt",
    "phone": "+43 667 61781132",
    "service:bicycle:repair": "yes",
    "shop": "bicycle"
  }
},
{
  "type": "node",
  "id": 9076875914,
  "lat": 48.2036236,
  "lon": 16.3963236,
  "tags": {
    "addr:housenumber": "19",
    "addr:street": "Hörnesgasse",
    "name": "Fahrradwelt",
    "opening_hours": "Mo-Fr 09:00-20:00; Sa 09:00-18:00",
    "shop": "bicycle"
  }
},
{
  "type": "node",
  "id": 9252445430,
  "lat": 48.2522507,
  "lon": 16.3198250,
  "tags": {
    "addr:city": "Wien",
    "addr:housenumber": "140",
    "addr:postcode": "1190",
    "addr:street": "Sieveringer Straße",
    "email": "werkstatt@sradl.at",
    "name": "'s Radl",
    "opening_hours": "Mo-Fr 09:00-12:00,13:00-16:00; Sa 09:00-12:00; PH off",
    "opening_hours:covid19": "same",
    "operator": "Paul Mallesitz",
    "phone": "+436764402520",
    "service:bicycle:cleaning": "yes",
    "service:bicycle:repair": "yes",
    "shop": "bicycle",
    "website": "https://www.sradl.at"
  }
},
{
  "type": "node",
  "id": 9335049428,
  "lat": 48.0128859,
  "lon": 16.2935643,
  "tags": {
    "addr:postcode": "2514",
    "name": "Radler",
    "opening_hours": "Mo-We 10:00-18:00; Th 13:00-18:00; Fr 10:00-18:00; Sa 10:00-13:00",
    "phone": "+43 677 62101339",
    "shop": "bicycle",
    "website": "https://www.radler.co.at/"
  }
},
{
  "type": "node",
  "id": 9340784038,
  "lat": 48.3300636,
  "lon": 16.2126528,
  "tags": {
    "name": "Radstall",
    "service:bicycle:repair": "yes",
    "service:bicycle:retail": "yes",
    "shop": "bicycle",
    "website": "http://www.radstall.at/"
  }
},
{
  "type": "node",
  "id": 9368243415,
  "lat": 48.0093266,
  "lon": 16.2630902,
  "tags": {
    "addr:housenumber": "24",
    "addr:street": "Mozartgasse",
    "name": "Charlys Fahrradgarage",
    "opening_hours": "Mo-Fr 10:00-19:00; Sa 12:00-17:00",
    "phone": "+43 676 690 14 94",
    "shop": "bicycle",
    "website": "https://fahrradcharly.at/"
  }
},
{
  "type": "node",
  "id": 9453343813,
  "lat": 48.0127878,
  "lon": 16.2632422,
  "tags": {
    "name": "Familybikes Lastenräder",
    "opening_hours": "Mo-Fr 09:00-17:00",
    "phone": "+43 660 8712461",
    "shop": "bicycle",
    "website": "https://www.familybikes.at"
  }
},
{
  "type": "node",
  "id": 9773182428,
  "lat": 48.2737454,
  "lon": 16.4418777,
  "tags": {
    "addr:city": "Wien",
    "addr:housenumber": "19",
    "addr:postcode": "1210",
    "addr:street": "Moritz-Dreger-Gasse",
    "name": "FahrradFreundeFloridsdorf",
    "opening_hours": "Tu 09:00-13:00,14:00-17:00; Th 09:00-13:00,14:00-17:00; Fr 09:00-13:00",
    "operator": "Haus Erna",
    "phone": "+43 677 615 38 389",
    "service:bicycle:repair": "yes",
    "service:bicycle:service": "yes",
    "shop": "bicycle",
    "website": "https://www.heilsarmee.at/fff"
  }
},
{
  "type": "node",
  "id": 9793193771,
  "lat": 48.1969792,
  "lon": 16.3068308,
  "tags": {
    "addr:housenumber": "156/4",
    "addr:street": "Märzstraße",
    "name": "Velosaloon",
    "shop": "bicycle",
    "website": "https://www.velosaloon.com/"
  }
},
{
  "type": "node",
  "id": 9820217220,
  "lat": 48.2641733,
  "lon": 16.3944192,
  "tags": {
    "addr:city": "Wien",
    "addr:country": "AT",
    "addr:housenumber": "26",
    "addr:postcode": "1210",
    "addr:street": "Prager Straße",
    "name": "Best Bike",
    "shop": "bicycle",
    "website": "https://www.best-bike.at/"
  }
},
{
  "type": "node",
  "id": 9870433047,
  "lat": 48.1007199,
  "lon": 16.2850958,
  "tags": {
    "addr:city": "Maria Enzersdorf",
    "addr:housenumber": "5/UG1",
    "addr:postcode": "2344",
    "addr:street": "Hauptstraße",
    "name": "BikeSchneiderei",
    "opening_hours": "Tu,Fr 12:00-19:00; We,Th 09:00-15:00; Sa 09:00-13:00; Su,PH off",
    "operator": "Felix Schneider",
    "service:bicycle:parts": "yes",
    "service:bicycle:pump": "yes",
    "service:bicycle:repair": "yes",
    "service:bicycle:service": "yes",
    "shop": "bicycle",
    "website": "https://www.bikeschneiderei.at/",
    "wheelchair": "no"
  }
},
{
  "type": "node",
  "id": 9884750186,
  "lat": 48.1876376,
  "lon": 16.3510032,
  "tags": {
    "addr:city": "Wien",
    "addr:housenumber": "51",
    "addr:postcode": "1050",
    "addr:street": "Kohlgasse",
    "name": "Fahrrad-1050",
    "phone": "+43660 1649045",
    "service:bicycle:Bicycle_Sales_and_Service": "yes",
    "service:bicycle:repair": "yes",
    "service:bicycle:retail": "yes",
    "shop": "bicycle"
  }
},
{
  "type": "node",
  "id": 9961183560,
  "lat": 48.2061904,
  "lon": 16.3984107,
  "tags": {
    "name": "2Rad Service Vescky",
    "shop": "bicycle"
  }
},
{
  "type": "node",
  "id": 9987699952,
  "lat": 48.0824990,
  "lon": 16.2873375,
  "tags": {
    "addr:city": "Mödling",
    "addr:housenumber": "20",
    "addr:postcode": "2340",
    "addr:street": "Friedrich Schiller-Straße",
    "name": "Bonabza Rad",
    "service:bicycle:repair": "yes",
    "shop": "bicycle"
  }
},
{
  "type": "node",
  "id": 10606112359,
  "lat": 48.2024350,
  "lon": 16.3900530,
  "tags": {
    "name": "Fahrrad 1030",
    "shop": "bicycle"
  }
},
{
  "type": "node",
  "id": 10723294509,
  "lat": 48.1883654,
  "lon": 16.3339228,
  "tags": {
    "addr:housenumber": "1",
    "addr:street": "Kranzgasse",
    "name": "radbar",
    "service:bicycle:pump": "yes",
    "service:bicycle:repair": "yes",
    "service:bicycle:retail": "yes",
    "shop": "bicycle"
  }
},
{
  "type": "node",
  "id": 10723344542,
  "lat": 48.1852556,
  "lon": 16.3365661,
  "tags": {
    "addr:city": "Wien",
    "addr:housenumber": "192",
    "addr:postcode": "1120",
    "addr:street": "Schönbrunner Straße",
    "name": "Edis Fahrrad",
    "phone": "+43 676 7045755",
    "shop": "bicycle",
    "website": "https://edisfahrrad.at/"
  }
},
{
  "type": "node",
  "id": 10733028198,
  "lat": 48.1983350,
  "lon": 16.3370708,
  "tags": {
    "addr:housenumber": "3",
    "addr:postcode": "1150",
    "addr:street": "Löhrgasse",
    "check_date": "2023-03-13",
    "email": "kontakt@radlheim.org",
    "name": "Radlheim Fünfhaus",
    "opening_hours": "Mo-Fr 11:00-19:00",
    "phone": "+43 670 6500945",
    "service:bicycle:repair": "yes",
    "shop": "bicycle",
    "start_date": "2023-02-01",
    "website": "http://radlheim.org/"
  }
},
{
  "type": "node",
  "id": 10739182314,
  "lat": 48.1754967,
  "lon": 16.4777458,
  "tags": {
    "addr:city": "Wien",
    "addr:housenumber": "27",
    "addr:postcode": "1020",
    "addr:street": "Freudenauer Hafenstraße",
    "name": "Fahrradwerkstatt Freudenau",
    "service:bicycle:repair": "yes",
    "shop": "bicycle",
    "website": "http://fahrrad-freudenau.at"
  }
},
{
  "type": "node",
  "id": 10740110179,
  "lat": 48.2279649,
  "lon": 16.3530848,
  "tags": {
    "name": "Bike Basement",
    "phone": "+43 680 30 64 299",
    "shop": "bicycle",
    "website": "https://www.bikebasement.at/"
  }
},
{
  "type": "node",
  "id": 10740110180,
  "lat": 48.2272917,
  "lon": 16.3586859,
  "tags": {
    "name": "Chainge",
    "phone": "+43 677 615 844 93",
    "shop": "bicycle",
    "website": "http://www.chainge.at/"
  }
},
{
  "type": "node",
  "id": 10740110181,
  "lat": 48.2217107,
  "lon": 16.3635804,
  "tags": {
    "name": "Michael Beck - Beckbikes",
    "phone": "+43 676 6673440",
    "shop": "bicycle",
    "website": "http://www.beckbikes.at/"
  }
},
{
  "type": "node",
  "id": 10740110182,
  "lat": 48.2303834,
  "lon": 16.3693598,
  "tags": {
    "name": "Seven Bike",
    "shop": "bicycle"
  }
},
{
  "type": "node",
  "id": 10740110183,
  "lat": 48.1961534,
  "lon": 16.3549754,
  "tags": {
    "name": "Roadbiker",
    "opening_hours": "Mo-Fr 10:00-18:30; Sa 09:00-16:30",
    "shop": "bicycle"
  }
},
{
  "type": "node",
  "id": 10740110184,
  "lat": 48.1908417,
  "lon": 16.3594191,
  "tags": {
    "email": "v@morassiframes.com",
    "name": "Rahmenmanufaktur Morassi",
    "opening_hours": "Tu 10:00-18:00; Th 10:00-18:00; Sa 06:00-12:30; We 10:00-19:00 || \"by appointment\"",
    "phone": "+43 660 2443034",
    "shop": "bicycle",
    "website": "https://morassiframes.com/"
  }
},
{
  "type": "node",
  "id": 10740110185,
  "lat": 48.2093588,
  "lon": 16.3805846,
  "tags": {
    "name": "Artbauer",
    "shop": "bicycle",
    "website": "https://www.ktm-bikes-artbauer.at/"
  }
},
{
  "type": "node",
  "id": 10740110186,
  "lat": 48.1967932,
  "lon": 16.3946002,
  "tags": {
    "name": "JOVELO",
    "phone": "+43 660 3132444",
    "shop": "bicycle"
  }
},
{
  "type": "node",
  "id": 10740110187,
  "lat": 48.2181752,
  "lon": 16.4026900,
  "tags": {
    "name": "Zweiradheimat",
    "shop": "bicycle",
    "website": "http://www.zweiradheimat.at"
  }
},
{
  "type": "node",
  "id": 10740110188,
  "lat": 48.2195701,
  "lon": 16.4031621,
  "tags": {
    "name": "Velopold Vienna Rental Services and Tours e.U.",
    "shop": "bicycle",
    "website": "https://velopoldvienna.com/"
  }
},
{
  "type": "node",
  "id": 10740110189,
  "lat": 48.2443813,
  "lon": 16.4572817,
  "tags": {
    "name": "Limitedbikes",
    "shop": "bicycle",
    "website": "https://www.limitedbikes.at/"
  }
},
{
  "type": "node",
  "id": 10740110190,
  "lat": 48.2751678,
  "lon": 16.3882515,
  "tags": {
    "name": "Stir Bike",
    "shop": "bicycle",
    "website": "https://stirbike.at"
  }
},
{
  "type": "node",
  "id": 10740110191,
  "lat": 48.2697054,
  "lon": 16.3889316,
  "tags": {
    "name": "Cargobikes",
    "shop": "bicycle",
    "website": "https://cargobikes.at/"
  }
},
{
  "type": "node",
  "id": 10741225382,
  "lat": 48.1919866,
  "lon": 16.3904918,
  "tags": {
    "addr:city": "Wien",
    "addr:housenumber": "20",
    "addr:postcode": "1030",
    "addr:street": "Obere Bahngasse",
    "name": "fluidbike, Radwerkstatt und Institut für angewandtes Fahrradfahren",
    "phone": "+43 660 5442165",
    "shop": "bicycle",
    "website": "https://fluidbike.at/"
  }
},
{
  "type": "node",
  "id": 10741316764,
  "lat": 48.1680635,
  "lon": 16.4223426,
  "tags": {
    "addr:city": "Wien",
    "addr:housenumber": "142-150/5/R2",
    "addr:postcode": "1100",
    "addr:street": "Simmeringer Hauptstraße",
    "name": "Die Radbox",
    "phone": "+43 650 460 77 33",
    "shop": "bicycle",
    "website": "https://www.dieradbox.net/"
  }
},
{
  "type": "way",
  "id": 31613385,
  "center": {
    "lat": 48.3652845,
    "lon": 16.3591378
  },
  "nodes": [
    353696353,
    353696355,
    353696356,
    5599351100,
    5599351101,
    353696359,
    5599351099,
    5599351098,
    353696353
  ],
  "tags": {
    "addr:city": "Stetten",
    "addr:country": "AT",
    "addr:housenumber": "2",
    "addr:place": "Gewerbegebiet",
    "addr:postcode": "2100",
    "at_bev:addr_date": "2017-10-01",
    "building": "yes",
    "contact:website": "http://www.radwelt.cc",
    "name": "Pink",
    "opening_hours": "Mo-Fr 09:30-18:00; Sa 09:30-17:00",
    "shop": "bicycle"
  }
},
{
  "type": "way",
  "id": 129436090,
  "center": {
    "lat": 48.1335713,
    "lon": 16.3098547
  },
  "nodes": [
    1428101463,
    1428101464,
    1428101465,
    1428101469,
    1428101471,
    1428101473,
    1428101475,
    1428101479,
    1428101463
  ],
  "tags": {
    "addr:city": "Wien",
    "addr:country": "AT",
    "addr:housenumber": "53-55",
    "addr:postcode": "1230",
    "addr:street": "Lemböckgasse",
    "building": "retail",
    "building:levels": "1",
    "contact:email": "wien@emotion-technologies.at",
    "contact:phone": "+4319974475",
    "contact:website": "https://emotion-technologies.at/wien/",
    "disused:shop": "yes",
    "name": "e-motion e-Bike Welt Wien",
    "shop": "bicycle"
  }
},
{
  "type": "way",
  "id": 173939858,
  "center": {
    "lat": 48.2543199,
    "lon": 16.4979788
  },
  "nodes": [
    2278397713,
    1846863797,
    1846863768,
    5640078902,
    1846863769,
    2278397713
  ],
  "tags": {
    "addr:city": "Wien",
    "addr:country": "AT",
    "addr:housenumber": "21",
    "addr:postcode": "1220",
    "addr:street": "Agavenweg",
    "building": "yes",
    "description": "Elektroräder, Mountain, Trekking, Cross, Rennräder, Beachcruiser, Kinderräder, Dreiräder",
    "email": "office@bikemore.at",
    "name": "Bike + More HandelsgesmbH",
    "opening_hours": "Mo-Fr 09:00-18:00; Sa 09:00-15:00; PH off",
    "service:bicycle:retail": "yes",
    "shop": "bicycle",
    "website": "https://www.bikemore.at/"
  }
},
{
  "type": "way",
  "id": 188728083,
  "center": {
    "lat": 48.1476476,
    "lon": 16.2972605
  },
  "nodes": [
    1993492153,
    1993492151,
    1993492147,
    1993492112,
    1993492125,
    1993492135,
    1993492137,
    1993492139,
    1993492149,
    1993492153
  ],
  "tags": {
    "addr:city": "Wien",
    "addr:country": "AT",
    "addr:housenumber": "224",
    "addr:postcode": "1230",
    "addr:street": "Breitenfurter Straße",
    "building": "yes",
    "email": "unterhuber@sport2000.at",
    "name": "Sport 2000 Sport Unterhuber",
    "opening_hours": "Mo-Fr 09:00-18:00; Sa 09:00-17:00",
    "shop": "bicycle",
    "source": "wien.gv.at",
    "website": "https://www.sport2000.at/haendlerseite.php?id=12",
    "year_of_construction": "1907"
  }
},
{
  "type": "way",
  "id": 217329739,
  "center": {
    "lat": 48.0855889,
    "lon": 16.2879885
  },
  "nodes": [
    2266022725,
    2266022722,
    2266021457,
    2266022723,
    2266022724,
    3179952815,
    2266022725
  ],
  "tags": {
    "addr:housenumber": "4",
    "addr:postcode": "2340",
    "addr:street": "Wehrgasse",
    "building": "retail",
    "contact:email": "office@wienerwaldbiker.at",
    "contact:phone": "+43 2236 27307",
    "contact:website": "http://www.wienerwaldbiker.at",
    "name": "Wienerwaldbiker",
    "opening_hours": "Mo,Tu,We,Fr 10:00-12:00,14:00-18:00; Th 14:00-19:00; Sa 09:00-12:00; Su,PH off",
    "shop": "bicycle"
  }
},
{
  "type": "way",
  "id": 243943559,
  "center": {
    "lat": 48.1079775,
    "lon": 16.3053517
  },
  "nodes": [
    2512981743,
    2512981734,
    2512981741,
    8228629625,
    2512981748,
    2512981743
  ],
  "tags": {
    "addr:city": "Brunn am Gebirge",
    "addr:country": "AT",
    "addr:housenumber": "87",
    "addr:postcode": "2345",
    "addr:street": "Rennweg",
    "building": "commercial",
    "building:levels": "2",
    "email": "wien-sued@multicycle.at",
    "name": "CUBE Store Wien Süd by Multicycle",
    "opening_hours": "Tu-Fr 10:00-19:00; Sa 10:00-16:00; Mo,Su,PH off",
    "operator": "Multicycle",
    "payment:american_express": "yes",
    "payment:cash": "yes",
    "payment:contactless": "yes",
    "payment:credit_cards": "yes",
    "payment:debit_cards": "yes",
    "payment:mastercard": "yes",
    "payment:visa": "yes",
    "service:bicycle:Bicycle_Sales_and_Service": "yes",
    "service:bicycle:bicycle": "yes",
    "service:bicycle:bike": "yes",
    "service:bicycle:clothing": "yes",
    "service:bicycle:ebike": "yes",
    "service:bicycle:repair": "yes",
    "service:bicycle:sales": "yes",
    "service:bicycle:service": "yes",
    "service:bicycle:showroom": "yes",
    "shop": "bicycle"
  }
},
{
  "type": "way",
  "id": 316385955,
  "center": {
    "lat": 48.1201266,
    "lon": 16.2937686
  },
  "nodes": [
    3224932575,
    3224932573,
    3224932576,
    3224932579,
    3224932577,
    3224932578,
    3224932574,
    3224932572,
    3224932575
  ],
  "tags": {
    "addr:city": "Brunn am Gebirge",
    "addr:country": "AT",
    "addr:housenumber": "11",
    "addr:postcode": "2345",
    "addr:street": "Wolfholzgasse",
    "building": "commercial",
    "contact:email": "servus@bentho.at",
    "contact:phone": "+43 2236 378763",
    "contact:website": "https://www.bentho.at/",
    "name": "BENTHO e-Bikes",
    "opening_hours": "Mo-Fr 10:00-18:30; Sa 09:00-15:00",
    "service:bicycle:cleaning": "yes",
    "service:bicycle:repair": "yes",
    "service:bicycle:retail": "yes",
    "shop": "bicycle"
  }
},
{
  "type": "way",
  "id": 485725126,
  "center": {
    "lat": 48.3099316,
    "lon": 16.3285226
  },
  "nodes": [
    4784979068,
    4784979067,
    4784979066,
    6486563461,
    6486563460,
    6486563459,
    4784979065,
    8557584953,
    4784979068
  ],
  "tags": {
    "building": "commercial",
    "building:levels": "1",
    "check_date": "2022-09-30",
    "contact:website": "http://www.giantstore-vienna.at",
    "email": "bike@speed-planet.at",
    "name": "Giant Store Wien",
    "opening_hours": "Mo,Tu,Th,Fr 10:00-18:00; Sa 10:00-15:00",
    "roof:levels": "0",
    "roof:shape": "flat",
    "shop": "bicycle",
    "wheelchair": "yes"
  }
},
{
  "type": "way",
  "id": 921277354,
  "center": {
    "lat": 48.3465850,
    "lon": 16.2429987
  },
  "nodes": [
    8553546317,
    8553546318,
    8553546319,
    6741844594,
    8553546320,
    8553546317
  ],
  "tags": {
    "addr:city": "Greifenstein",
    "addr:housenumber": "33",
    "addr:postcode": "3422",
    "addr:street": "Hauptstraße",
    "building": "yes",
    "building:levels": "1",
    "name:de": "Wolf's Bikeklinik",
    "shop": "bicycle"
  }
}

  ]
}
