{
  "version": 0.6,
  "generator": "Overpass API 0.7.60.6 e2dc3e5b",
  "osm3s": {
    "timestamp_osm_base": "2023-08-06T13:07:42Z",
    "copyright": "The data included in this document is from www.openstreetmap.org. The data is made available under ODbL."
  },
  "elements": [

{
  "type": "node",
  "id": 8091317,
  "lat": 48.2118174,
  "lon": 16.3111936,
  "tags": {
    "name": "Wien Ottakring",
    "operator": "ÖBB-Infrastruktur AG",
    "platforms": "2",
    "railway": "halt",
    "railway:position": "2.5",
    "railway:position:exact": "2.500",
    "railway:ref": "Ok",
    "uic_ref": "8100512",
    "wheelchair": "yes",
    "wikidata": "Q801606",
    "wikipedia": "de:Bahnhof Wien Ottakring"
  }
},
{
  "type": "node",
  "id": 8091423,
  "lat": 48.2489807,
  "lon": 16.3655452,
  "tags": {
    "ele": "169",
    "name": "Wien Heiligenstadt",
    "operator": "ÖBB-Infrastruktur AG",
    "platforms": "5",
    "public_transport": "station",
    "railway": "station",
    "railway:position": "2.7 / 9.6",
    "railway:position:exact": "2.678 / 9.584",
    "railway:ref": "Ht",
    "train": "yes",
    "uic_name": "Wien Heiligenstadt",
    "uic_ref": "8100269",
    "wheelchair": "yes",
    "wikidata": "Q801604",
    "wikimedia_commons": "Category:Bahnhof Wien Heiligenstadt",
    "wikipedia": "de:Bahnhof Wien Heiligenstadt"
  }
},
{
  "type": "node",
  "id": 60093107,
  "lat": 48.1965445,
  "lon": 16.3362817,
  "tags": {
    "heritage": "2",
    "heritage:operator": "bda",
    "name": "Wien Westbahnhof",
    "operator": "ÖBB-Infrastruktur AG",
    "public_transport": "station",
    "railway": "station",
    "railway:position": "0.0",
    "railway:position:exact": "0.000",
    "railway:ref": "Ws",
    "railway:ref:DB": "XAWW",
    "ref:at:bda": "40557",
    "short_name": "Wien Westbf",
    "toilets:wheelchair": "yes",
    "uic_name": "Wien Westbahnhof",
    "uic_ref": "8100003",
    "wheelchair": "yes",
    "wikidata": "Q698145",
    "wikipedia": "de:Wien Westbahnhof"
  }
},
{
  "type": "node",
  "id": 62823673,
  "lat": 48.1202259,
  "lon": 16.5642737,
  "tags": {
    "name": "Flughafen Wien",
    "name:en": "Vienna Airport",
    "network": "VOR",
    "operator": "ÖBB-Infrastruktur AG",
    "platforms": "3",
    "public_transport": "station",
    "railway": "station",
    "railway:position": "19.3",
    "railway:position:exact": "19.300",
    "railway:ref": "Fws",
    "railway:ref:DB": "XAWIF",
    "uic_name": "Flughafen Wien",
    "uic_ref": "8100353",
    "wheelchair": "yes"
  }
},
{
  "type": "node",
  "id": 66432827,
  "lat": 48.1745297,
  "lon": 16.3339652,
  "tags": {
    "ele": "210",
    "name": "Wien Meidling",
    "network": "VOR",
    "network:wikidata": "Q2516485",
    "operator": "ÖBB-Infrastruktur AG",
    "platforms": "8",
    "public_transport": "station",
    "railway": "station",
    "railway:position": "3.4 / 7.7",
    "railway:position:exact": "3.437 / 7.726",
    "railway:ref": "Mi",
    "railway:ref:DB": "XAWG",
    "station": "train",
    "train": "yes",
    "uic_ref": "8100514",
    "wheelchair": "yes",
    "wikidata": "Q514441",
    "wikipedia": "de:Bahnhof Wien Meidling"
  }
},
{
  "type": "node",
  "id": 73220148,
  "lat": 48.1860742,
  "lon": 16.0932817,
  "tags": {
    "name": "Tullnerbach-Pressbaum",
    "network": "VOR",
    "operator": "ÖBB-Infrastruktur AG",
    "public_transport": "station",
    "railway": "station",
    "railway:position": "20.0",
    "railway:position:exact": "19.970",
    "railway:ref": "Pm",
    "railway:station_category": "4",
    "uic_ref": "8101650",
    "wheelchair": "yes"
  }
},
{
  "type": "node",
  "id": 321330275,
  "lat": 48.1973615,
  "lon": 16.2613010,
  "tags": {
    "addr:city": "Wien",
    "addr:country": "AT",
    "addr:housenumber": "5",
    "addr:postcode": "1140",
    "addr:street": "Keißlergasse",
    "name": "Wien Hütteldorf",
    "operator": "ÖBB-Infrastruktur AG",
    "public_transport": "station",
    "railway": "station",
    "railway:position": "5.9 / 2.1",
    "railway:position:exact": "5.846 / 2.124",
    "railway:ref": "Hf",
    "railway:ref:DB": "XAWH",
    "uic_ref": "8100447",
    "wheelchair": "limited",
    "wikidata": "Q801605",
    "wikipedia": "de:Bahnhof Wien Hütteldorf"
  }
},
{
  "type": "node",
  "id": 419610148,
  "lat": 48.0181555,
  "lon": 16.2588865,
  "tags": {
    "name": "Pfaffstätten",
    "note": "old railway:ref=Md H3",
    "operator": "ÖBB-Infrastruktur AG",
    "platforms": "2",
    "railway": "station",
    "railway:position": "24.1",
    "railway:position:exact": "24.140",
    "railway:ref": "Bf",
    "uic_name": "Pfaffstätten",
    "uic_ref": "8101352"
  }
},
{
  "type": "node",
  "id": 1138166179,
  "lat": 48.0299732,
  "lon": 16.3133045,
  "tags": {
    "name": "Möllersdorf Aspangbahn",
    "network": "VOR",
    "operator": "ÖBB-Infrastruktur AG",
    "public_transport": "stop_position",
    "railway": "halt",
    "railway:platform_height": "25",
    "railway:platform_length": "80",
    "railway:position": "23.2",
    "railway:position:exact": "23.170",
    "railway:ref": "Guk H2",
    "ref": "1",
    "train": "yes",
    "uic_ref": "8101229"
  }
},
{
  "type": "node",
  "id": 1204401837,
  "lat": 48.1975454,
  "lon": 16.3067324,
  "tags": {
    "addr:city": "Wien",
    "addr:country": "AT",
    "addr:postcode": "1140",
    "name": "Wien Breitensee",
    "operator": "ÖBB-Infrastruktur AG",
    "platforms": "2",
    "railway": "halt",
    "railway:position": "0.9",
    "railway:position:exact": "0.860",
    "railway:ref": "Ok H1",
    "uic_ref": "8100395",
    "website": "https://www.oebb.at/",
    "wheelchair": "yes",
    "wikidata": "Q1572413",
    "wikipedia": "de:Haltestelle Wien Breitensee"
  }
},
{
  "type": "node",
  "id": 1418408017,
  "lat": 48.2308682,
  "lon": 16.3290927,
  "tags": {
    "name": "Wien Gersthof",
    "operator": "ÖBB-Infrastruktur AG",
    "platforms": "2",
    "railway": "halt",
    "railway:position": "5.4",
    "railway:position:exact": "5.400",
    "railway:ref": "Ht H3",
    "uic_ref": "8100249",
    "wheelchair": "yes"
  }
},
{
  "type": "node",
  "id": 1418408040,
  "lat": 48.2400590,
  "lon": 16.3406035,
  "tags": {
    "name": "Wien Krottenbachstraße",
    "operator": "ÖBB-Infrastruktur AG",
    "platforms": "2",
    "public_transport": "station",
    "railway": "halt",
    "railway:position": "6.9",
    "railway:position:exact": "6.850",
    "railway:ref": "Ht H2",
    "uic_ref": "8100279",
    "wheelchair": "no"
  }
},
{
  "type": "node",
  "id": 1418408080,
  "lat": 48.2440857,
  "lon": 16.3440405,
  "tags": {
    "name": "Wien Oberdöbling",
    "operator": "ÖBB-Infrastruktur AG",
    "platforms": "2",
    "public_transport": "station",
    "railway": "halt",
    "railway:position": "7.5",
    "railway:position:exact": "7.450",
    "railway:ref": "Ht H1",
    "uic_ref": "8100441",
    "wheelchair": "no"
  }
},
{
  "type": "node",
  "id": 1740850471,
  "lat": 48.2232527,
  "lon": 16.3148455,
  "tags": {
    "name": "Wien Hernals",
    "operator": "ÖBB-Infrastruktur AG",
    "platforms": "2",
    "railway": "halt",
    "railway:position": "3.9",
    "railway:position:exact": "3.850",
    "railway:ref": "Hns",
    "uic_ref": "8100271",
    "wheelchair": "yes",
    "wikidata": "Q608453",
    "wikipedia": "de:Bahnhof Wien Hernals"
  }
},
{
  "type": "node",
  "id": 1772970220,
  "lat": 48.1700397,
  "lon": 16.4195311,
  "tags": {
    "name": "Wien Simmering",
    "operator": "ÖBB-Infrastruktur AG",
    "railway": "halt",
    "railway:position": "3.8",
    "railway:position:exact": "3.773",
    "railway:ref": "Wbf H1",
    "railway:ref:DB": "XAWSG",
    "uic_name": "Wien Simmering",
    "uic_ref": "8101553",
    "wheelchair": "yes"
  }
},
{
  "type": "node",
  "id": 1775537146,
  "lat": 48.1926935,
  "lon": 16.3048931,
  "tags": {
    "addr:city": "Wien",
    "addr:country": "AT",
    "addr:postcode": "1140",
    "internet_access": "no",
    "name": "Wien Penzing",
    "operator": "ÖBB-Infrastruktur AG",
    "public_transport": "station",
    "railway": "station",
    "railway:position": "2.6 / 0.0",
    "railway:position:exact": "2.553 / 0.000",
    "railway:ref": "Pz",
    "railway:ref:DB": "XAWP",
    "train": "yes",
    "uic_name": "Wien Penzing",
    "uic_ref": "8100450",
    "wheelchair": "yes",
    "wikidata": "Q801609",
    "wikipedia": "de:Bahnhof Wien Penzing"
  }
},
{
  "type": "node",
  "id": 1839787470,
  "lat": 48.1850101,
  "lon": 16.3778549,
  "tags": {
    "alt_name:ko": "비엔나 중앙역",
    "name": "Wien Hauptbahnhof",
    "name:en": "Vienna Central Station",
    "name:es": "Estación Central de Viena",
    "name:ko": "빈 중앙역",
    "name:ml": "വിയന്ന സെൻട്രൽ സ്റ്റേഷൻ",
    "network": "VOR",
    "operator": "ÖBB-Infrastruktur AG",
    "platforms": "10",
    "public_transport": "station",
    "railway": "station",
    "railway:position": "0.000 / 99.947",
    "railway:position:exact": "0.000 / 99.947",
    "railway:ref": "Wbf",
    "railway:ref:DB": "XAWIE",
    "short_name": "Wien Hbf",
    "toilets:wheelchair": "yes",
    "train": "yes",
    "uic_name": "Wien Hbf",
    "uic_ref": "8103000",
    "wheelchair": "yes",
    "wikidata": "Q697300",
    "wikipedia": "de:Wien Hauptbahnhof"
  }
},
{
  "type": "node",
  "id": 2673144959,
  "lat": 48.0443299,
  "lon": 16.3251228,
  "tags": {
    "name": "Guntramsdorf-Kaiserau Hst",
    "network": "VOR",
    "operator": "ÖBB-Infrastruktur AG",
    "public_transport": "stop_position",
    "railway": "halt",
    "railway:platform_height": "38",
    "railway:platform_length": "70",
    "railway:position": "21.4",
    "railway:position:exact": "21.350",
    "railway:ref": "Guk H1",
    "ref": "1",
    "train": "yes",
    "uic_name": "Guntramsdorf Kaiserau Hst",
    "uic_ref": "8100372"
  }
},
{
  "type": "node",
  "id": 2691315726,
  "lat": 48.1668251,
  "lon": 16.3155273,
  "tags": {
    "name": "Wien Hetzendorf",
    "operator": "ÖBB-Infrastruktur AG",
    "railway": "halt",
    "railway:position": "5.2",
    "railway:position:exact": "5.220",
    "railway:ref": "Het",
    "uic_ref": "8100935",
    "wheelchair": "yes"
  }
},
{
  "type": "node",
  "id": 2795941577,
  "lat": 48.0038483,
  "lon": 16.2408222,
  "tags": {
    "light_rail": "yes",
    "name": "Baden Viadukt",
    "operator": "WLB",
    "public_transport": "station",
    "railway": "station",
    "station": "light_rail",
    "uic_name": "Baden b. Wien Bahnhof (Viadukt)"
  }
},
{
  "type": "node",
  "id": 2874018201,
  "lat": 48.1396047,
  "lon": 16.3695515,
  "tags": {
    "name": "Wien Blumental",
    "network": "VOR",
    "network:wikidata": "Q2516485",
    "operator": "ÖBB-Infrastruktur AG",
    "public_transport": "station",
    "railway": "station",
    "railway:position": "6.3",
    "railway:position:exact": "6.296",
    "railway:ref": "Id",
    "train": "yes",
    "uic_ref": "8101003",
    "wikidata": "Q27957790"
  }
},
{
  "type": "node",
  "id": 2919957304,
  "lat": 48.1779748,
  "lon": 16.3910866,
  "tags": {
    "name": "Wien Hauptbahnhof Autoreisezug",
    "operator": "ÖBB-Infrastruktur AG",
    "public_transport": "station",
    "railway": "station",
    "railway:position": "101.1",
    "railway:position:exact": "101.050",
    "railway:ref": "Of",
    "railway:ref:DB": "XAWIO",
    "short_name": "Wien Hbf Autoreisezug",
    "start_date": "2014-06-14",
    "wheelchair": "yes"
  }
},
{
  "type": "node",
  "id": 3105405930,
  "lat": 48.2061306,
  "lon": 16.1757734,
  "tags": {
    "name": "Purkersdorf Zentrum",
    "old_name": "Purkersdorf Gablitz",
    "operator": "ÖBB-Infrastruktur AG",
    "railway": "halt",
    "railway:position": "12.9",
    "railway:position:exact": "12.889",
    "railway:ref": "Up H1",
    "wheelchair": "yes"
  }
},
{
  "type": "node",
  "id": 3111811989,
  "lat": 48.1333170,
  "lon": 16.4390869,
  "tags": {
    "name": "Kledering",
    "operator": "ÖBB-Infrastruktur AG",
    "platforms": "2",
    "railway": "halt",
    "railway:position": "7.4",
    "railway:position:exact": "7.365",
    "railway:ref": "Za",
    "uic_name": "Kledering b. Wien",
    "uic_ref": "8101051",
    "wheelchair": "no"
  }
},
{
  "type": "node",
  "id": 3124681423,
  "lat": 48.1859936,
  "lon": 16.3751198,
  "tags": {
    "alt_name:ko": "비엔나 중앙역",
    "name": "Wien Hauptbahnhof",
    "name:ko": "빈 중앙역",
    "network": "VOR",
    "old_name": "Wien Südtiroler Platz",
    "operator": "ÖBB-Infrastruktur AG",
    "platforms": "2",
    "railway": "halt",
    "railway:position": "0.4",
    "railway:position:exact": "0.400",
    "railway:ref": "Wsp H1",
    "short_name": "Wien Hbf",
    "toilets:wheelchair": "yes",
    "uic_name": "Wien Hauptbahnhof",
    "uic_ref": "8101590",
    "wheelchair": "yes"
  }
},
{
  "type": "node",
  "id": 3127678348,
  "lat": 48.1801300,
  "lon": 16.3577654,
  "tags": {
    "name": "Wien Matzleinsdorfer Platz",
    "operator": "ÖBB-Infrastruktur AG",
    "platforms": "2",
    "railway": "halt",
    "railway:position": "9.4",
    "railway:position:exact": "9.414",
    "railway:ref": "Wbf H1S",
    "uic_ref": "8101227",
    "website": "https://www.oebb.at/",
    "wheelchair": "yes",
    "wikidata": "Q1572423",
    "wikipedia": "de:Haltestelle Wien Matzleinsdorfer Platz"
  }
},
{
  "type": "node",
  "id": 3244697566,
  "lat": 48.0058422,
  "lon": 16.2337804,
  "tags": {
    "light_rail": "yes",
    "name": "Baden Josefsplatz",
    "operator": "WLB",
    "public_transport": "station",
    "railway": "station",
    "station": "light_rail",
    "uic_name": "Baden b. Wien Josefsplatz (WLB)",
    "wheelchair": "yes"
  }
},
{
  "type": "node",
  "id": 3244697567,
  "lat": 48.0040441,
  "lon": 16.2427890,
  "tags": {
    "name": "Baden",
    "operator": "ÖBB-Infrastruktur AG",
    "railway": "halt",
    "railway:ref": "Bf H1",
    "uic_ref": "8100025"
  }
},
{
  "type": "node",
  "id": 3265275935,
  "lat": 48.1673655,
  "lon": 16.4067627,
  "tags": {
    "name": "Wien Grillgasse",
    "network": "VOR",
    "old_name": "Simmering Ostbahn",
    "operator": "ÖBB-Infrastruktur AG",
    "platforms": "2",
    "railway": "halt",
    "railway:position": "2.9",
    "railway:position:exact": "2.858",
    "railway:ref": "Sg",
    "uic_name": "Wien Grillgasse",
    "uic_ref": "8101556",
    "wheelchair": "yes",
    "wheelchair:description": "No toilet availability!"
  }
},
{
  "type": "node",
  "id": 3286379332,
  "lat": 48.1735896,
  "lon": 16.2836694,
  "tags": {
    "name": "Wien Speising",
    "operator": "ÖBB-Infrastruktur AG",
    "railway": "halt",
    "railway:position": "3.6",
    "railway:position:exact": "3.645",
    "railway:ref": "Hf H1A",
    "train": "yes",
    "uic_ref": "8101853",
    "website": "https://www.oebb.at/",
    "wheelchair": "yes"
  }
},
{
  "type": "node",
  "id": 3308392301,
  "lat": 48.1880263,
  "lon": 16.3818923,
  "tags": {
    "name": "Wien Quartier Belvedere",
    "old_name": "Wien Südbahnhof (S-Bahn)",
    "operator": "ÖBB-Infrastruktur AG",
    "public_transport": "station",
    "railway": "halt",
    "railway:position": "1.9",
    "railway:position:exact": "1.925",
    "railway:ref": "Wwb",
    "uic_ref": "8101473",
    "wheelchair": "limited",
    "wikidata": "Q1572427",
    "wikipedia": "de:Haltestelle Wien Quartier Belvedere"
  }
},
{
  "type": "node",
  "id": 3309570449,
  "lat": 48.2056315,
  "lon": 16.3842468,
  "tags": {
    "name": "Wien Mitte",
    "network": "VOR",
    "network:wikidata": "Q2516485",
    "operator": "ÖBB-Infrastruktur AG",
    "public_transport": "station",
    "railway": "station",
    "railway:position": "4.8",
    "railway:position:exact": "4.845",
    "railway:ref": "Hz",
    "railway:ref:DB": "XAWMI",
    "train": "yes",
    "uic_name": "Wien Mitte",
    "uic_ref": "8100449",
    "wheelchair": "yes",
    "wheelchair:description": "Achtung: Ausgang Stadtpark nicht rollstuhlgerecht.",
    "wikidata": "Q677576",
    "wikipedia": "de:Bahnhof Wien Mitte"
  }
},
{
  "type": "node",
  "id": 3309570450,
  "lat": 48.2191234,
  "lon": 16.3921133,
  "tags": {
    "name": "Wien Praterstern",
    "network": "VOR",
    "network:wikidata": "Q2516485",
    "operator": "ÖBB-Infrastruktur AG",
    "public_transport": "station",
    "railway": "station",
    "railway:position": "0.1",
    "railway:position:exact": "0.065",
    "railway:ref": "Nw",
    "railway:ref:DB": "XAWNP",
    "train": "yes",
    "uic_name": "Wien Praterstern",
    "uic_ref": "8100349",
    "wheelchair": "yes",
    "wikidata": "Q680165",
    "wikipedia": "de:Bahnhof Wien Praterstern"
  }
},
{
  "type": "node",
  "id": 3309570451,
  "lat": 48.1954720,
  "lon": 16.3860262,
  "tags": {
    "name": "Wien Rennweg",
    "operator": "ÖBB-Infrastruktur AG",
    "public_transport": "station",
    "railway": "halt",
    "railway:position": "3.7",
    "railway:position:exact": "3.725",
    "railway:ref": "Ren",
    "uic_ref": "8101433",
    "wheelchair": "yes",
    "wikipedia": "de:Haltestelle Wien Rennweg"
  }
},
{
  "type": "node",
  "id": 3309570452,
  "lat": 48.2348667,
  "lon": 16.3832879,
  "tags": {
    "name": "Wien Traisengasse",
    "operator": "ÖBB-Infrastruktur AG",
    "railway": "halt",
    "railway:position": "1.8",
    "railway:position:exact": "1.770",
    "railway:ref": "Nw H1",
    "uic_name": "Wien Traisengasse",
    "uic_ref": "8101641",
    "wheelchair": "yes",
    "wikidata": "Q1572428",
    "wikipedia": "de:Haltestelle Wien Traisengasse"
  }
},
{
  "type": "node",
  "id": 3310963985,
  "lat": 48.2740290,
  "lon": 16.3959265,
  "tags": {
    "name": "Wien Jedlersdorf",
    "operator": "ÖBB-Infrastruktur AG",
    "railway": "halt",
    "railway:position": "6.5",
    "railway:position:exact": "6.500",
    "railway:ref": "J",
    "uic_name": "Wien Jedlersdorf",
    "uic_ref": "8101013",
    "wheelchair": "yes"
  }
},
{
  "type": "node",
  "id": 3310963986,
  "lat": 48.2859056,
  "lon": 16.3812584,
  "tags": {
    "name": "Wien Strebersdorf",
    "operator": "ÖBB-Infrastruktur AG",
    "railway": "halt",
    "railway:position": "8.1",
    "railway:position:exact": "8.105",
    "railway:ref": "Sdf",
    "uic_name": "Wien Strebersdorf",
    "uic_ref": "8101588",
    "wheelchair": "yes"
  }
},
{
  "type": "node",
  "id": 3310997802,
  "lat": 48.2677641,
  "lon": 16.4035845,
  "tags": {
    "name": "Wien Brünner  Straße",
    "operator": "ÖBB-Infrastruktur AG",
    "railway": "halt",
    "railway:position": "5.7",
    "railway:position:exact": "5.686",
    "railway:ref": "F H1S",
    "uic_name": "Wien Brünner Straße",
    "uic_ref": "8100691",
    "wheelchair": "yes"
  }
},
{
  "type": "node",
  "id": 3310997803,
  "lat": 48.2564008,
  "lon": 16.4000183,
  "tags": {
    "name": "Wien Floridsdorf",
    "operator": "ÖBB-Infrastruktur AG",
    "public_transport": "station",
    "railway": "station",
    "railway:position": "4.2 / 4.8",
    "railway:position:exact": "4.150 / 4.760",
    "railway:ref": "F",
    "ref": "334",
    "toilets:wheelchair": "yes",
    "uic_name": "Wien Floridsdorf",
    "uic_ref": "8100236",
    "wheelchair": "yes",
    "wikidata": "Q801603",
    "wikipedia": "de:Bahnhof Wien Floridsdorf"
  }
},
{
  "type": "node",
  "id": 3313275910,
  "lat": 48.3029283,
  "lon": 16.5635660,
  "tags": {
    "name": "Deutsch Wagram",
    "operator": "ÖBB-Infrastruktur AG",
    "platforms": "3",
    "railway": "station",
    "railway:position": "18.2",
    "railway:position:exact": "18.207",
    "railway:ref": "Wg",
    "uic_name": "Deutsch Wagram",
    "uic_ref": "8100721",
    "wheelchair": "yes"
  }
},
{
  "type": "node",
  "id": 3313275912,
  "lat": 48.3104047,
  "lon": 16.5974559,
  "tags": {
    "name": "Helmahof",
    "operator": "ÖBB-Infrastruktur AG",
    "platforms": "2",
    "railway": "halt",
    "railway:position": "20.8",
    "railway:position:exact": "20.770",
    "railway:ref": "Wg H1",
    "uic_name": "Helmahof",
    "uic_ref": "8100928"
  }
},
{
  "type": "node",
  "id": 3313275951,
  "lat": 48.2772033,
  "lon": 16.4478315,
  "tags": {
    "name": "Wien Leopoldau",
    "network": "VOR",
    "network:wikidata": "Q2516485",
    "operator": "ÖBB-Infrastruktur AG",
    "public_transport": "station",
    "railway": "station",
    "railway:position": "9.2",
    "railway:position:exact": "9.201",
    "railway:ref": "Lp",
    "train": "yes",
    "uic_name": "Wien Leopoldau",
    "uic_ref": "8101170",
    "wheelchair": "yes",
    "wikidata": "Q683314",
    "wikipedia": "de:Bahnhof Wien Leopoldau"
  }
},
{
  "type": "node",
  "id": 3313275952,
  "lat": 48.2707607,
  "lon": 16.4202707,
  "tags": {
    "alt_name": "Wien Siemensstrasse",
    "name": "Wien Siemensstraße",
    "network": "VOR",
    "operator": "ÖBB-Infrastruktur AG",
    "railway": "halt",
    "railway:position": "7.0",
    "railway:position:exact": "6.950",
    "railway:ref": "F H1",
    "uic_name": "Wien Siemensstraße",
    "uic_ref": "8100796",
    "wheelchair": "yes"
  }
},
{
  "type": "node",
  "id": 3313275953,
  "lat": 48.2855686,
  "lon": 16.4855158,
  "tags": {
    "name": "Wien Süßenbrunn",
    "network": "VOR",
    "network:wikidata": "Q2516485",
    "operator": "ÖBB-Infrastruktur AG",
    "platforms": "4",
    "public_transport": "station",
    "railway": "station",
    "railway:position": "12.0 / 1.5",
    "railway:position:exact": "12.000 / 1.464",
    "railway:ref": "Sue",
    "train": "yes",
    "uic_name": "Wien Süßenbrunn",
    "uic_ref": "8101619"
  }
},
{
  "type": "node",
  "id": 3324369161,
  "lat": 48.0857870,
  "lon": 16.2957627,
  "tags": {
    "name": "Mödling",
    "operator": "ÖBB-Infrastruktur AG",
    "public_transport": "station",
    "railway": "station",
    "railway:ref": "Md",
    "train": "yes",
    "uic_ref": "8101230",
    "wheelchair": "limited"
  }
},
{
  "type": "node",
  "id": 3324394753,
  "lat": 48.1348604,
  "lon": 16.2842558,
  "tags": {
    "name": "Wien Liesing",
    "network": "VOR",
    "network:wikidata": "Q2516485",
    "operator": "ÖBB-Infrastruktur AG",
    "public_transport": "station",
    "railway": "station",
    "railway:position": "9.6 / 0.0",
    "railway:position:exact": "9.611 / 0.000",
    "railway:ref": "Lg",
    "train": "yes",
    "uic_name": "Wien Liesing",
    "uic_ref": "8101150",
    "wheelchair": "limited",
    "wikidata": "Q801607",
    "wikipedia": "de:Bahnhof Wien Liesing"
  }
},
{
  "type": "node",
  "id": 3324474926,
  "lat": 48.2419967,
  "lon": 16.3853478,
  "tags": {
    "addr:city": "Wien",
    "addr:country": "AT",
    "addr:postcode": "1200",
    "internet_access": "wlan",
    "internet_access:fee": "no",
    "name": "Wien Handelskai",
    "operator": "ÖBB-Infrastruktur AG",
    "platforms": "2",
    "railway": "halt",
    "railway:position": "2.7",
    "railway:position:exact": "2.707",
    "railway:ref": "Nw H2",
    "uic_name": "Wien Handelskai (Bahnsteige 1-2)",
    "uic_ref": "8101934",
    "website": "https://www.oebb.at/",
    "wheelchair": "yes",
    "wikidata": "Q85848026",
    "wikipedia": "de:Verkehrsstation Wien Handelskai"
  }
},
{
  "type": "node",
  "id": 3324474927,
  "lat": 48.2421399,
  "lon": 16.3860169,
  "tags": {
    "internet_access": "wlan",
    "internet_access:fee": "no",
    "name": "Wien Handelskai",
    "operator": "ÖBB-Infrastruktur AG",
    "platforms": "2",
    "railway": "halt",
    "railway:position": "2.3",
    "railway:position:exact": "2.280",
    "railway:ref": "Hak",
    "uic_name": "Wien Handelskai (Bahnsteige 11-12)",
    "uic_ref": "8101947",
    "wheelchair": "yes"
  }
},
{
  "type": "node",
  "id": 3326393877,
  "lat": 48.2390464,
  "lon": 16.5823975,
  "tags": {
    "name": "Raasdorf",
    "operator": "ÖBB-Infrastruktur AG",
    "railway": "station",
    "railway:position": "10.3",
    "railway:position:exact": "10.326",
    "railway:ref": "Raf",
    "uic_name": "Raasdorf",
    "uic_ref": "8101415",
    "wheelchair": "yes",
    "wikimedia_commons": "Category:Bahnhof Raasdorf"
  }
},
{
  "type": "node",
  "id": 3327470949,
  "lat": 48.1996585,
  "lon": 16.4412679,
  "tags": {
    "name": "Wien Praterkai",
    "operator": "ÖBB-Infrastruktur AG",
    "railway": "halt",
    "railway:position": "7.5",
    "railway:position:exact": "7.534",
    "railway:ref": "El H1",
    "uic_name": "Wien Praterkai",
    "uic_ref": "8101539",
    "wheelchair": "yes"
  }
},
{
  "type": "node",
  "id": 3327470950,
  "lat": 48.1788069,
  "lon": 16.4262301,
  "tags": {
    "addr:city": "Wien",
    "addr:country": "AT",
    "addr:housenumber": "1",
    "addr:postcode": "1110",
    "addr:street": "Haidestraße",
    "name": "Wien Haidestraße",
    "operator": "ÖBB-Infrastruktur AG",
    "railway": "halt",
    "railway:position": "5.0",
    "railway:position:exact": "4.957",
    "railway:ref": "Wbf H2",
    "uic_name": "Wien Haidestraße",
    "uic_ref": "8100920",
    "website": "https://www.oebb.at/"
  }
},
{
  "type": "node",
  "id": 3327518464,
  "lat": 48.2185708,
  "lon": 16.4481671,
  "tags": {
    "addr:city": "Wien",
    "addr:country": "AT",
    "addr:housenumber": "1",
    "addr:postcode": "1220",
    "addr:street": "Am Bahnhof",
    "name": "Wien Stadlau",
    "operator": "ÖBB-Infrastruktur AG",
    "railway": "halt",
    "railway:position": "9.9",
    "railway:position:exact": "9.877",
    "railway:ref": "El H3",
    "uic_name": "Wien Stadlau",
    "uic_ref": "8104229",
    "wheelchair": "yes"
  }
},
{
  "type": "node",
  "id": 3327739589,
  "lat": 48.2298102,
  "lon": 16.4532145,
  "tags": {
    "name": "Wien Erzherzog-Karl-Straße",
    "note": "nach ÖBB-Verzeichnis ist dies eine Haltestelle (und nicht 'station'), und zwar innerhalb des Bf Stadlau",
    "operator": "ÖBB-Infrastruktur AG",
    "platforms": "4",
    "railway": "halt",
    "railway:position": "11.3 / 0.7",
    "railway:position:exact": "11.300 / 0.725",
    "railway:ref": "Stk",
    "uic_name": "Wien Erzherzog-Karl-Straße",
    "uic_ref": "8100756"
  }
},
{
  "type": "node",
  "id": 3329291522,
  "lat": 48.1753063,
  "lon": 16.4070862,
  "tags": {
    "name": "Wien Geiselbergstraße",
    "operator": "ÖBB-Infrastruktur AG",
    "public_transport": "station",
    "railway": "halt",
    "railway:position": "3.916",
    "railway:position:exact": "3.9",
    "railway:ref": "Sah H1",
    "uic_name": "Wien Geiselbergstraße",
    "uic_ref": "8101555",
    "wheelchair": "yes"
  }
},
{
  "type": "node",
  "id": 3329304534,
  "lat": 48.1883659,
  "lon": 16.3987785,
  "tags": {
    "alt_name": "Vienna Biocenter",
    "name": "Wien St. Marx",
    "operator": "ÖBB-Infrastruktur AG",
    "railway": "halt",
    "railway:position": "2.2",
    "railway:position:exact": "2.241",
    "railway:ref": "Nw H1H",
    "wheelchair": "yes"
  }
},
{
  "type": "node",
  "id": 3329319162,
  "lat": 48.1541076,
  "lon": 16.4261034,
  "tags": {
    "name": "Wien Zentralfriedhof",
    "network": "VOR",
    "network:wikidata": "Q2516485",
    "operator": "ÖBB-Infrastruktur AG",
    "public_transport": "station",
    "railway": "station",
    "railway:position": "6.7 / 0.0",
    "railway:position:exact": "6.733 / 0.033",
    "railway:ref": "Cf",
    "train": "yes",
    "uic_name": "Wien Zentralfriedhof (S-Bahn)",
    "uic_ref": "8101820",
    "wheelchair": "yes",
    "wikidata": "Q15917028",
    "wikipedia": "de:Bahnhof Wien Zentralfriedhof"
  }
},
{
  "type": "node",
  "id": 3329326134,
  "lat": 48.1461718,
  "lon": 16.4654282,
  "tags": {
    "name": "Wien Kaiserebersdorf",
    "network": "VOR",
    "network:wikidata": "Q2516485",
    "note": "old position of line 191 01 was '11.037'",
    "old_name": "Klein Schwechat",
    "operator": "ÖBB-Infrastruktur AG",
    "public_transport": "station",
    "railway": "station",
    "railway:position": "18.7 / 11.0",
    "railway:position:exact": "18.738 / 10.951",
    "railway:ref": "Klf",
    "train": "yes",
    "uic_name": "Wien Kaiserebersdorf",
    "uic_ref": "8100374",
    "wheelchair": "yes",
    "wikidata": "Q15112101",
    "wikipedia": "de:Haltestelle Wien Kaiserebersdorf"
  }
},
{
  "type": "node",
  "id": 3329357416,
  "lat": 48.1363945,
  "lon": 16.5079991,
  "tags": {
    "name": "Mannswörth",
    "operator": "ÖBB-Infrastruktur AG",
    "railway": "halt",
    "railway:position": "14.7",
    "railway:position:exact": "14.730",
    "railway:ref": "Kls H2",
    "uic_name": "Mannswörth",
    "uic_ref": "8101871"
  }
},
{
  "type": "node",
  "id": 3329357422,
  "lat": 48.1436581,
  "lon": 16.4813900,
  "tags": {
    "abandoned:railway": "station",
    "name": "Schwechat",
    "old_name": "Groß Schwechat",
    "operator": "ÖBB-Infrastruktur AG",
    "railway": "halt",
    "railway:position": "12.6",
    "railway:position:exact": "12.553",
    "railway:ref": "Gs",
    "uic_name": "Schwechat",
    "uic_ref": "8100259"
  }
},
{
  "type": "node",
  "id": 3395076835,
  "lat": 48.3434717,
  "lon": 16.3285428,
  "tags": {
    "name": "Korneuburg",
    "operator": "ÖBB-Infrastruktur AG",
    "railway": "station",
    "railway:position": "15.6",
    "railway:position:exact": "15.631",
    "railway:ref": "Ko",
    "toilets:wheelchair": "yes",
    "uic_name": "Korneuburg",
    "uic_ref": "8100293",
    "wheelchair": "yes"
  }
},
{
  "type": "node",
  "id": 3396773141,
  "lat": 48.3644669,
  "lon": 16.3020965,
  "tags": {
    "name": "Leobendorf-Burg Kreuzenstein",
    "operator": "ÖBB-Infrastruktur AG",
    "railway": "halt",
    "railway:position": "18.8",
    "railway:position:exact": "18.810",
    "railway:ref": "Ko H1",
    "uic_ref": "8101124",
    "wheelchair": "yes"
  }
},
{
  "type": "node",
  "id": 3396805671,
  "lat": 48.3757654,
  "lon": 16.2570785,
  "tags": {
    "name": "Spillern",
    "operator": "ÖBB-Infrastruktur AG",
    "railway": "halt",
    "railway:position": "22.5",
    "railway:position:exact": "22.465",
    "railway:ref": "Ko H2",
    "uic_ref": "8101578",
    "wheelchair": "yes"
  }
},
{
  "type": "node",
  "id": 3397575004,
  "lat": 48.3163883,
  "lon": 16.3472564,
  "tags": {
    "name": "Bisamberg",
    "operator": "ÖBB-Infrastruktur AG",
    "platforms": "2",
    "railway": "halt",
    "railway:position": "12.4",
    "railway:position:exact": "12.403",
    "railway:ref": "F H3S",
    "uic_ref": "8100689"
  }
},
{
  "type": "node",
  "id": 3397575014,
  "lat": 48.3066298,
  "lon": 16.3557714,
  "tags": {
    "name": "Langenzersdorf",
    "operator": "ÖBB-Infrastruktur AG",
    "platforms": "2",
    "railway": "halt",
    "railway:position": "11.2",
    "railway:position:exact": "11.179",
    "railway:ref": "F H2S",
    "uic_ref": "8101191",
    "wheelchair": "yes"
  }
},
{
  "type": "node",
  "id": 3486406879,
  "lat": 48.3275278,
  "lon": 16.1218035,
  "tags": {
    "ele": "176",
    "name": "Langenlebarn",
    "operator": "ÖBB-Infrastruktur AG",
    "platforms": "2",
    "railway": "halt",
    "railway:position": "28.6",
    "railway:position:exact": "28.597",
    "railway:ref": "Aw H3",
    "uic_name": "Langenlebarn",
    "uic_ref": "8101159"
  }
},
{
  "type": "node",
  "id": 3486449460,
  "lat": 48.3266225,
  "lon": 16.1750396,
  "tags": {
    "ele": "174",
    "name": "Zeiselmauer-Königstetten",
    "operator": "ÖBB-Infrastruktur AG",
    "platforms": "2",
    "railway": "halt",
    "railway:position": "24.6",
    "railway:position:exact": "24.632",
    "railway:ref": "Aw H1",
    "uic_name": "Zeiselmauer-Königstetten",
    "uic_ref": "8101825",
    "wheelchair": "limited"
  }
},
{
  "type": "node",
  "id": 3486449461,
  "lat": 48.3338611,
  "lon": 16.2089756,
  "tags": {
    "ele": "174",
    "name": "St. Andrä-Wördern",
    "operator": "ÖBB-Infrastruktur AG",
    "platforms": "2",
    "railway": "station",
    "railway:position": "21.9",
    "railway:position:exact": "21.908",
    "railway:ref": "Aw",
    "uic_name": "St. Andrä-Wördern",
    "uic_ref": "8100432",
    "wheelchair": "limited"
  }
},
{
  "type": "node",
  "id": 3486449465,
  "lat": 48.3282833,
  "lon": 16.1501065,
  "tags": {
    "ele": "173",
    "name": "Muckendorf-Wipfing",
    "operator": "ÖBB-Infrastruktur AG",
    "platforms": "2",
    "railway": "halt",
    "railway:position": "26.6",
    "railway:position:exact": "26.562",
    "railway:ref": "Aw H2",
    "uic_name": "Muckendorf-Wipfing",
    "uic_ref": "8101247"
  }
},
{
  "type": "node",
  "id": 3488254960,
  "lat": 48.3448256,
  "lon": 16.2397495,
  "tags": {
    "ele": "173",
    "name": "Greifenstein-Altenberg",
    "operator": "ÖBB-Infrastruktur AG",
    "platforms": "2",
    "railway": "halt",
    "railway:position": "19.3",
    "railway:position:exact": "19.262",
    "railway:ref": "Kz H2",
    "uic_name": "Greifenstein-Altenberg",
    "uic_ref": "8100257"
  }
},
{
  "type": "node",
  "id": 3488292944,
  "lat": 48.3099373,
  "lon": 16.3261794,
  "tags": {
    "ele": "173",
    "name": "Klosterneuburg Kierling",
    "operator": "ÖBB-Infrastruktur AG",
    "platforms": "2",
    "railway": "halt",
    "railway:position": "10.4",
    "railway:position:exact": "10.366",
    "railway:ref": "Ken H1",
    "uic_ref": "8100460",
    "wheelchair": "yes"
  }
},
{
  "type": "node",
  "id": 3488292949,
  "lat": 48.3240606,
  "lon": 16.3093150,
  "tags": {
    "alt_name": "Unterkritzendorf",
    "ele": "170",
    "name": "Unter Kritzendorf",
    "operator": "ÖBB-Infrastruktur AG",
    "platforms": "2",
    "railway": "halt",
    "railway:position": "12.4",
    "railway:position:exact": "12.400",
    "railway:ref": "Ken H2",
    "uic_name": "Unter Kritzendorf",
    "uic_ref": "8101702"
  }
},
{
  "type": "node",
  "id": 3488292950,
  "lat": 48.2975829,
  "lon": 16.3345848,
  "tags": {
    "ele": "173",
    "name": "Klosterneuburg Weidling",
    "operator": "ÖBB-Infrastruktur AG",
    "platforms": "3",
    "railway": "station",
    "railway:position": "8.9",
    "railway:position:exact": "8.870",
    "railway:ref": "Ken",
    "uic_name": "Klosterneuburg Weidling",
    "uic_ref": "8101101",
    "wheelchair": "yes"
  }
},
{
  "type": "node",
  "id": 3488292953,
  "lat": 48.3500584,
  "lon": 16.2716300,
  "tags": {
    "ele": "171",
    "name": "Höflein an der Donau",
    "operator": "ÖBB-Infrastruktur AG",
    "platforms": "2",
    "railway": "halt",
    "railway:position": "16.6",
    "railway:position:exact": "16.645",
    "railway:ref": "Kz H1"
  }
},
{
  "type": "node",
  "id": 3488292955,
  "lat": 48.3359058,
  "lon": 16.2991138,
  "tags": {
    "ele": "170",
    "name": "Kritzendorf",
    "operator": "ÖBB-Infrastruktur AG",
    "platforms": "2",
    "railway": "station",
    "railway:position": "13.9",
    "railway:position:exact": "13.927",
    "railway:ref": "Kz",
    "uic_name": "Kritzendorf",
    "uic_ref": "8101084",
    "wheelchair": "no",
    "wikimedia_commons": "Category:Bahnhof Kritzendorf"
  }
},
{
  "type": "node",
  "id": 3488369063,
  "lat": 48.2602280,
  "lon": 16.3677782,
  "tags": {
    "alt_name": "Wien Nussdorf",
    "ele": "164",
    "name": "Wien Nußdorf",
    "network": "VOR",
    "network:wikidata": "Q2516485",
    "operator": "ÖBB-Infrastruktur AG",
    "platforms": "3",
    "public_transport": "station",
    "railway": "station",
    "railway:position": "4.0",
    "railway:position:exact": "3.952",
    "railway:ref": "Nf",
    "train": "yes",
    "uic_name": "Wien Nußdorf",
    "uic_ref": "8101290",
    "wheelchair": "no",
    "wikidata": "Q18762414",
    "wikimedia_commons": "Category:Bahnhof Wien Nußdorf",
    "wikipedia": "de:Bahnhof Wien Nußdorf"
  }
},
{
  "type": "node",
  "id": 3488513518,
  "lat": 48.2266888,
  "lon": 16.3611137,
  "tags": {
    "alt_name": "Wien FJB",
    "ele": "164",
    "name": "Wien Franz-Josefs-Bahnhof",
    "operator": "ÖBB-Infrastruktur AG",
    "platforms": "5",
    "railway": "station",
    "railway:position": "0.0",
    "railway:position:exact": "0.000",
    "railway:ref": "Wf",
    "railway:ref:DB": "XAWF",
    "short_name": "Wien FJBf",
    "uic_name": "Wien Franz-Josefs-Bahnhof",
    "uic_ref": "8100446",
    "wheelchair": "yes",
    "wikidata": "Q686592",
    "wikipedia": "de:Wien Franz-Josefs-Bahnhof"
  }
},
{
  "type": "node",
  "id": 3488513530,
  "lat": 48.2353204,
  "lon": 16.3580625,
  "tags": {
    "ele": "166",
    "name": "Wien Spittelau",
    "operator": "ÖBB-Infrastruktur AG",
    "platforms": "2",
    "railway": "halt",
    "railway:position": "1.1",
    "railway:position:exact": "1.100",
    "railway:ref": "Wf H1",
    "uic_name": "Wien Spittelau",
    "uic_ref": "8101937"
  }
},
{
  "type": "node",
  "id": 3598290692,
  "lat": 48.2347491,
  "lon": 16.5044618,
  "tags": {
    "name": "Wien Aspern Nord",
    "operator": "ÖBB-Infrastruktur AG",
    "railway": "halt",
    "railway:position": "4.5",
    "railway:position:exact": "4.467",
    "railway:ref": "St H2",
    "start_date": "2018-10-01",
    "uic_name": "Wien Aspern",
    "uic_ref": "8100975",
    "wheelchair": "yes"
  }
},
{
  "type": "node",
  "id": 3637342042,
  "lat": 48.2076745,
  "lon": 16.1901121,
  "tags": {
    "alt_name": "Unterpurkersdorf",
    "name": "Unter Purkersdorf",
    "operator": "ÖBB-Infrastruktur AG",
    "public_transport": "station",
    "railway": "station",
    "railway:position": "11.8",
    "railway:position:exact": "11.839",
    "railway:ref": "Up",
    "uic_name": "Unterpurkersdorf",
    "uic_ref": "8101709",
    "wheelchair": "limited"
  }
},
{
  "type": "node",
  "id": 3889010534,
  "lat": 48.2063747,
  "lon": 16.2013240,
  "tags": {
    "name": "Purkersdorf Sanatorium",
    "operator": "ÖBB-Infrastruktur AG",
    "railway": "halt",
    "railway:position": "11.0",
    "railway:position:exact": "10.952",
    "railway:ref": "Hf H4",
    "uic_ref": "8101342",
    "wheelchair": "yes"
  }
},
{
  "type": "node",
  "id": 3889014657,
  "lat": 48.2104622,
  "lon": 16.2121641,
  "tags": {
    "name": "Wien Weidlingau",
    "operator": "ÖBB-Infrastruktur AG",
    "railway": "halt",
    "railway:position": "9.9",
    "railway:position:exact": "9.940",
    "railway:ref": "Hf H3",
    "uic_ref": "8101760"
  }
},
{
  "type": "node",
  "id": 3889021221,
  "lat": 48.2103760,
  "lon": 16.2229387,
  "tags": {
    "name": "Wien Hadersdorf",
    "network": "VOR",
    "operator": "ÖBB-Infrastruktur AG",
    "railway": "halt",
    "railway:position": "9.2",
    "railway:position:exact": "9.238",
    "railway:ref": "Hf H2",
    "uic_ref": "8100922"
  }
},
{
  "type": "node",
  "id": 3889026587,
  "lat": 48.2047813,
  "lon": 16.2363136,
  "tags": {
    "name": "Wien Wolf in der Au",
    "operator": "ÖBB-Infrastruktur AG",
    "railway": "halt",
    "railway:position": "7.9",
    "railway:position:exact": "7.885",
    "railway:ref": "Hf H1",
    "uic_ref": "8102057"
  }
},
{
  "type": "node",
  "id": 3889242054,
  "lat": 48.1813595,
  "lon": 16.0778374,
  "tags": {
    "name": "Pressbaum",
    "operator": "ÖBB-Infrastruktur AG",
    "railway": "halt",
    "railway:position": "21.3",
    "railway:position:exact": "21.283",
    "railway:ref": "Pm H1",
    "uic_name": "Pressbaum",
    "uic_ref": "8101381"
  }
},
{
  "type": "node",
  "id": 3889242056,
  "lat": 48.1916581,
  "lon": 16.1280832,
  "tags": {
    "name": "Unter Tullnerbach",
    "operator": "ÖBB-Infrastruktur AG",
    "railway": "halt",
    "railway:position": "16.9",
    "railway:position:exact": "16.865",
    "railway:ref": "Up H2",
    "uic_ref": "8101713",
    "wheelchair": "no"
  }
},
{
  "type": "node",
  "id": 3923766258,
  "lat": 48.3784336,
  "lon": 16.5126818,
  "tags": {
    "ele": "179",
    "image": "https://commons.wikimedia.org/wiki/File:Bahnhof_Wolkersdorf_7.JPG",
    "name": "Wolkersdorf",
    "operator": "ÖBB-Infrastruktur AG",
    "railway": "station",
    "railway:position": "28.6",
    "railway:position:exact": "28.598",
    "railway:ref": "Wol",
    "uic_ref": "8101793",
    "wheelchair": "yes"
  }
},
{
  "type": "node",
  "id": 3956709160,
  "lat": 48.3661100,
  "lon": 16.3675353,
  "tags": {
    "name": "Stetten Fossilienwelt",
    "operator": "ErlebnisZug GmbH",
    "railway": "halt",
    "railway:ref": "Ste"
  }
},
{
  "type": "node",
  "id": 3975404621,
  "lat": 48.0353750,
  "lon": 16.4907909,
  "tags": {
    "name": "Gramatneusiedl",
    "operator": "ÖBB-Infrastruktur AG",
    "railway": "station",
    "railway:position": "19.4",
    "railway:position:exact": "19.410",
    "railway:ref": "Gn",
    "uic_name": "Gramatneusiedl",
    "uic_ref": "8100369"
  }
},
{
  "type": "node",
  "id": 3975407778,
  "lat": 48.0819918,
  "lon": 16.4451319,
  "tags": {
    "name": "Himberg",
    "operator": "ÖBB-Infrastruktur AG",
    "railway": "station",
    "railway:position": "13.2",
    "railway:position:exact": "13.188",
    "railway:ref": "Him",
    "uic_name": "Himberg bei Wien",
    "uic_ref": "8100950"
  }
},
{
  "type": "node",
  "id": 3975438609,
  "lat": 48.0521680,
  "lon": 16.2977444,
  "tags": {
    "name": "Guntramsdorf Thallern",
    "operator": "ÖBB-Infrastruktur AG",
    "railway": "halt",
    "railway:ref": "Md H1",
    "uic_name": "Guntramsdorf-Thallern",
    "uic_ref": "8100846"
  }
},
{
  "type": "node",
  "id": 3975440034,
  "lat": 48.1052344,
  "lon": 16.2880915,
  "tags": {
    "name": "Brunn-Maria Enzersdorf",
    "operator": "ÖBB-Infrastruktur AG",
    "railway": "station",
    "railway:position": "12.9",
    "railway:position:exact": "12.946",
    "railway:ref": "Bu",
    "toilets:wheelchair": "yes",
    "uic_name": "Brunn-Maria Enzersdorf",
    "uic_ref": "8100698",
    "wheelchair": "yes"
  }
},
{
  "type": "node",
  "id": 3998633996,
  "lat": 48.1592805,
  "lon": 16.3357686,
  "tags": {
    "name": "Wien Gutheil-Schoder-Gasse",
    "operator": "WLB",
    "railway": "halt",
    "railway:position": "4.3",
    "railway:position:exact": "4.260",
    "railway:ref": "GG",
    "wheelchair": "yes"
  }
},
{
  "type": "node",
  "id": 3998638545,
  "lat": 48.1639796,
  "lon": 16.3308064,
  "tags": {
    "name": "Wien Schöpfwerk",
    "operator": "WLB",
    "railway": "halt",
    "railway:position": "3.6",
    "railway:position:exact": "3.601",
    "railway:ref": "SK",
    "wheelchair": "yes"
  }
},
{
  "type": "node",
  "id": 4140102487,
  "lat": 48.2937227,
  "lon": 16.4839373,
  "tags": {
    "name": "Gerasdorf",
    "network": "VOR",
    "network:wikidata": "Q2516485",
    "operator": "ÖBB-Infrastruktur AG",
    "public_transport": "station",
    "railway": "station",
    "railway:position": "18.7",
    "railway:position:exact": "18.732",
    "railway:ref": "Gef",
    "train": "yes",
    "uic_name": "Gerasdorf",
    "uic_ref": "8100869",
    "wheelchair": "yes",
    "wikidata": "Q111171992",
    "wikimedia_commons": "Category:Bahnhof Gerasdorf"
  }
},
{
  "type": "node",
  "id": 4140102488,
  "lat": 48.3169408,
  "lon": 16.4951366,
  "tags": {
    "name": "Kapellerfeld",
    "operator": "ÖBB-Infrastruktur AG",
    "railway": "halt",
    "railway:position": "21.3",
    "railway:position:exact": "21.325",
    "railway:ref": "Gef H1",
    "uic_name": "Kapellerfeld",
    "uic_ref": "8101020",
    "wheelchair": "no",
    "wikidata": "Q111171999",
    "wikimedia_commons": "Category:Bahnhof Kapellerfeld"
  }
},
{
  "type": "node",
  "id": 4140103589,
  "lat": 48.3623567,
  "lon": 16.5167008,
  "tags": {
    "name": "Obersdorf",
    "operator": "ÖBB-Infrastruktur AG",
    "railway": "halt",
    "railway:position": "26.7",
    "railway:position:exact": "26.722",
    "railway:ref": "Gef H3",
    "uic_name": "Obersdorf (A) Hst",
    "uic_ref": "8101317",
    "wheelchair": "yes"
  }
},
{
  "type": "node",
  "id": 4140103590,
  "lat": 48.3305900,
  "lon": 16.5017666,
  "tags": {
    "name": "Seyring",
    "operator": "ÖBB-Infrastruktur AG",
    "railway": "halt",
    "railway:position": "23.0",
    "railway:position:exact": "23.000",
    "railway:ref": "Gef H2",
    "wikidata": "Q111267185",
    "wikimedia_commons": "Category:Bahnhof Seyring"
  }
},
{
  "type": "node",
  "id": 4217317196,
  "lat": 48.0257099,
  "lon": 16.5863078,
  "tags": {
    "name": "Götzendorf an der Leitha",
    "operator": "ÖBB-Infrastruktur AG",
    "railway": "station",
    "railway:position": "26.8",
    "railway:position:exact": "26.750",
    "railway:ref": "Goe",
    "uic_name": "Götzendorf/Leitha",
    "uic_ref": "8100254",
    "wheelchair": "no",
    "wikimedia_commons": "Category:Bahnhof Götzendorf"
  }
},
{
  "type": "node",
  "id": 4260094028,
  "lat": 48.1115030,
  "lon": 16.3155397,
  "tags": {
    "light_rail": "yes",
    "name": "Vösendorf Shopping City Süd",
    "operator": "WLB",
    "public_transport": "station",
    "railway": "halt",
    "railway:ref": "VO",
    "short_name": "Vösendorf SCS",
    "station": "light_rail",
    "uic_name": "Vösendorf Shopping City Süd",
    "uic_ref": "8101722",
    "wheelchair": "no"
  }
},
{
  "type": "node",
  "id": 4314093360,
  "lat": 48.1469910,
  "lon": 16.2885357,
  "tags": {
    "name": "Wien Atzgersdorf",
    "operator": "ÖBB-Infrastruktur AG",
    "railway": "halt",
    "railway:position": "8.2",
    "railway:position:exact": "8.240",
    "railway:ref": "Az H1",
    "uic_name": "Wien Atzgersdorf",
    "uic_ref": "8100634"
  }
},
{
  "type": "node",
  "id": 4345375447,
  "lat": 48.1230292,
  "lon": 16.2855129,
  "tags": {
    "name": "Perchtoldsdorf",
    "operator": "ÖBB-Infrastruktur AG",
    "railway": "halt",
    "railway:position": "11.0",
    "railway:position:exact": "10.998",
    "railway:ref": "Lg H1",
    "uic_ref": "8101346"
  }
},
{
  "type": "node",
  "id": 4347320126,
  "lat": 48.1356243,
  "lon": 16.3249475,
  "tags": {
    "name": "Vösendorf Schönbrunner Allee",
    "operator": "WLB",
    "railway": "halt",
    "railway:ref": "LL",
    "start_date": "1974",
    "uic_name": "Vösendorf Schönbrunner Allee",
    "uic_ref": "8101121"
  }
},
{
  "type": "node",
  "id": 4347320127,
  "lat": 48.1257783,
  "lon": 16.3193518,
  "tags": {
    "light_rail": "yes",
    "name": "Vösendorf-Siebenhirten",
    "network": "VOR",
    "operator": "WLB",
    "public_transport": "station",
    "railway": "halt",
    "railway:ref": "VD",
    "start_date": "1886-09-29",
    "station": "light_rail",
    "uic_name": "Vösendorf-Siebenhirten",
    "uic_ref": "8101729"
  }
},
{
  "type": "node",
  "id": 4347320128,
  "lat": 48.1496767,
  "lon": 16.3341226,
  "tags": {
    "light_rail": "yes",
    "name": "Wien Inzersdorf Lokalbahn",
    "network": "VOR",
    "network:wikidata": "Q2516485",
    "operator": "WLB",
    "public_transport": "station",
    "railway": "station",
    "train": "yes",
    "wheelchair": "yes"
  }
},
{
  "type": "node",
  "id": 4347320129,
  "lat": 48.1406231,
  "lon": 16.3280224,
  "tags": {
    "name": "Wien Neu Erlaa",
    "operator": "WLB",
    "railway": "halt",
    "railway:ref": "NE",
    "toilets:wheelchair": "no",
    "uic_name": "Wien Neuerlaa",
    "uic_ref": "8101259",
    "wheelchair": "no"
  }
},
{
  "type": "node",
  "id": 4367442874,
  "lat": 48.1134833,
  "lon": 16.4474400,
  "tags": {
    "name": "Lanzendorf-Rannersdorf",
    "operator": "ÖBB-Infrastruktur AG",
    "railway": "halt",
    "railway:position": "9.7",
    "railway:position:exact": "9.700",
    "railway:ref": "Zs",
    "uic_name": "Lanzendorf-Rannersdorf",
    "uic_ref": "8101173"
  }
},
{
  "type": "node",
  "id": 4805320588,
  "lat": 48.0872985,
  "lon": 16.3140296,
  "tags": {
    "light_rail": "yes",
    "name": "Wiener Neudorf",
    "network": "VOR",
    "operator": "WLB",
    "public_transport": "station",
    "railway": "halt",
    "railway:ref": "Aa Z9",
    "station": "light_rail",
    "uic_name": "Wiener Neudorf",
    "uic_ref": "8101790"
  }
},
{
  "type": "node",
  "id": 4807735159,
  "lat": 48.0411417,
  "lon": 16.2851377,
  "tags": {
    "name": "Gumpoldskirchen",
    "operator": "ÖBB-Infrastruktur AG",
    "railway": "halt",
    "railway:ref": "Md H2",
    "uic_ref": "8100867"
  }
},
{
  "type": "node",
  "id": 5058271680,
  "lat": 48.0775293,
  "lon": 16.3125834,
  "tags": {
    "light_rail": "yes",
    "name": "Griesfeld",
    "network": "VOR",
    "operator": "WLB",
    "public_transport": "station",
    "railway": "halt",
    "railway:position": "13.8",
    "railway:position:exact": "13.820",
    "railway:ref": "GF",
    "station": "light_rail"
  }
},
{
  "type": "node",
  "id": 5058271681,
  "lat": 48.0963046,
  "lon": 16.3147176,
  "tags": {
    "light_rail": "yes",
    "name": "Maria Enzersdorf-Südstadt",
    "operator": "WLB",
    "public_transport": "station",
    "railway": "halt",
    "railway:position": "11.7",
    "railway:position:exact": "11.718",
    "railway:ref": "ME",
    "station": "light_rail",
    "wheelchair": "yes"
  }
},
{
  "type": "node",
  "id": 5058271682,
  "lat": 48.0153498,
  "lon": 16.2907373,
  "tags": {
    "light_rail": "yes",
    "name": "Traiskirchen Lokalbahn",
    "operator": "ÖBB-Infrastruktur AG",
    "public_transport": "station",
    "railway": "station",
    "station": "light_rail",
    "uic_name": "Traiskirchen Lokalbahn",
    "uic_ref": "8101673"
  }
},
{
  "type": "node",
  "id": 5085385668,
  "lat": 48.0322450,
  "lon": 16.3861977,
  "tags": {
    "name": "Münchendorf",
    "operator": "ÖBB-Infrastruktur AG",
    "railway": "station",
    "railway:position": "19.0",
    "railway:position:exact": "19.030",
    "railway:ref": "Mue",
    "uic_ref": "8100423",
    "wheelchair": "yes",
    "wikidata": "Q111171671"
  }
},
{
  "type": "node",
  "id": 5085385669,
  "lat": 48.1127558,
  "lon": 16.3583488,
  "tags": {
    "name": "Hennersdorf",
    "operator": "ÖBB-Infrastruktur AG",
    "railway": "station",
    "railway:position": "9.4",
    "railway:position:exact": "9.429",
    "railway:ref": "Hnd",
    "uic_name": "Hennersdorf (A)",
    "uic_ref": "8100925"
  }
},
{
  "type": "node",
  "id": 5085385670,
  "lat": 48.0807606,
  "lon": 16.3781024,
  "tags": {
    "name": "Achau",
    "operator": "ÖBB-Infrastruktur AG",
    "railway": "station",
    "railway:position": "13.2",
    "railway:position:exact": "13.157",
    "railway:ref": "Ach",
    "uic_name": "Achau",
    "uic_ref": "8100205",
    "wheelchair": "yes"
  }
},
{
  "type": "node",
  "id": 5116560934,
  "lat": 48.0639175,
  "lon": 16.3137179,
  "tags": {
    "light_rail": "yes",
    "name": "Neu Guntramsdorf",
    "network": "VOR",
    "operator": "WLB",
    "public_transport": "station",
    "railway": "halt",
    "railway:position": "15.3",
    "railway:position:exact": "15.335",
    "railway:ref": "NR",
    "station": "light_rail",
    "uic_ref": "8101266"
  }
},
{
  "type": "node",
  "id": 5320380177,
  "lat": 48.0077960,
  "lon": 16.2701941,
  "tags": {
    "light_rail": "yes",
    "name": "Tribuswinkel-Josefsthal",
    "operator": "WLB",
    "public_transport": "station",
    "railway": "halt",
    "station": "light_rail",
    "uic_name": "Tribuswinkel-Josefsthal",
    "uic_ref": "8101672",
    "wheelchair": "limited"
  }
},
{
  "type": "node",
  "id": 5320382564,
  "lat": 48.0083092,
  "lon": 16.2613307,
  "tags": {
    "light_rail": "yes",
    "name": "Pfaffstätten Rennplatz",
    "operator": "WLB",
    "public_transport": "station",
    "railway": "halt",
    "station": "light_rail"
  }
},
{
  "type": "node",
  "id": 5320382959,
  "lat": 48.0397762,
  "lon": 16.3042206,
  "tags": {
    "light_rail": "yes",
    "name": "Eigenheimsiedlung",
    "operator": "WLB",
    "public_transport": "station",
    "railway": "halt",
    "station": "light_rail",
    "uic_name": "Möllersdorf Eigenheimsiedlung",
    "uic_ref": "8100751"
  }
},
{
  "type": "node",
  "id": 5320384010,
  "lat": 48.0486656,
  "lon": 16.3123161,
  "tags": {
    "light_rail": "yes",
    "name": "Guntramsdorf Lokalbahn",
    "operator": "WLB",
    "public_transport": "station",
    "railway": "halt",
    "station": "light_rail",
    "wheelchair": "yes"
  }
},
{
  "type": "node",
  "id": 5709119713,
  "lat": 48.2326874,
  "lon": 16.4687752,
  "tags": {
    "name": "Wien Hirschstetten",
    "operator": "ÖBB-Infrastruktur AG",
    "railway": "halt",
    "railway:position": "1.9",
    "railway:position:exact": "1.872",
    "railway:ref": "Stc",
    "uic_name": "Wien Hirschstetten",
    "uic_ref": "8100918",
    "wheelchair": "yes",
    "wikidata": "Q17123493",
    "wikimedia_commons": "Category:Bahnhof Wien Hirschstetten",
    "wikipedia": "de:Haltestelle Wien Hirschstetten"
  }
},
{
  "type": "node",
  "id": 6844644622,
  "lat": 48.1024674,
  "lon": 16.4195165,
  "tags": {
    "name": "Maria Lanzendorf",
    "operator": "ÖBB-Infrastruktur AG",
    "railway": "station",
    "railway:ref": "Mar",
    "ref": "2",
    "uic_name": "Maria Lanzendorf",
    "uic_ref": "8101224"
  }
},
{
  "type": "node",
  "id": 6844644623,
  "lat": 48.0776872,
  "lon": 16.3570090,
  "tags": {
    "name": "Laxenburg-Biedermannsdorf",
    "operator": "ÖBB-Infrastruktur AG",
    "public_transport": "station",
    "railway": "station",
    "railway:ref": "Lx",
    "uic_name": "Laxenburg-Biedermannsdorf",
    "uic_ref": "8101122",
    "wheelchair": "no"
  }
},
{
  "type": "node",
  "id": 6844644624,
  "lat": 48.0179443,
  "lon": 16.3034192,
  "tags": {
    "name": "Traiskirchen Aspangbahn",
    "operator": "ÖBB-Infrastruktur AG",
    "public_transport": "station",
    "railway": "station",
    "railway:ref": "Ti",
    "train": "yes",
    "uic_ref": "8101640"
  }
},
{
  "type": "node",
  "id": 7083290201,
  "lat": 48.0278279,
  "lon": 16.3001632,
  "tags": {
    "light_rail": "yes",
    "name": "Möllersdorf",
    "operator": "WLB",
    "public_transport": "station",
    "railway": "station",
    "station": "light_rail"
  }
}

  ]
}
