{
  "version": 0.6,
  "generator": "Overpass API 0.7.60 f4c14d41",
  "osm3s": {
    "timestamp_osm_base": "2023-08-06T13:07:42Z",
    "copyright": "The data included in this document is from www.openstreetmap.org. The data is made available under ODbL."
  },
  "elements": [

{
  "type": "node",
  "id": 1982602553,
  "lat": 48.0044414,
  "lon": 16.2429347,
  "tags": {
    "amenity": "bicycle_repair_station",
    "check_date": "2022-08-22",
    "fee": "no",
    "opening_hours": "24/7",
    "service:bicycle:chain_tool": "no",
    "service:bicycle:diy": "yes",
    "service:bicycle:pump": "yes",
    "service:bicycle:tools": "yes"
  }
},
{
  "type": "node",
  "id": 3189236242,
  "lat": 48.1885109,
  "lon": 16.3442244,
  "tags": {
    "amenity": "bicycle_repair_station",
    "fee": "no",
    "opening_hours": "24/7",
    "operator": "ÖAMTC",
    "service:bicycle:pump": "yes",
    "service:bicycle:screwdriver": "yes",
    "service:bicycle:stand": "yes",
    "service:bicycle:tools": "yes"
  }
},
{
  "type": "node",
  "id": 3702830842,
  "lat": 48.2115226,
  "lon": 16.3611738,
  "tags": {
    "addr:city": "Wien",
    "addr:country": "AT",
    "addr:street": "Universitätsring",
    "amenity": "bicycle_repair_station",
    "fee": "no",
    "name": "Wiener Pumpe",
    "operator": "Stadt Wien/Mobilitätsagentur",
    "service:bicycle:pump": "yes"
  }
},
{
  "type": "node",
  "id": 3702839639,
  "lat": 48.1994756,
  "lon": 16.3683947,
  "tags": {
    "addr:city": "Wien",
    "addr:country": "AT",
    "addr:street": "Karlsplatz",
    "amenity": "bicycle_repair_station",
    "check_date:service:bicycle:pump": "2022-05-30",
    "fee": "no",
    "operator": "Stadt Wien/Mobilitätsagentur",
    "service:bicycle:pump": "yes"
  }
},
{
  "type": "node",
  "id": 3909718748,
  "lat": 48.1873985,
  "lon": 16.3467411,
  "tags": {
    "amenity": "bicycle_repair_station",
    "check_date:service:bicycle:pump": "2022-06-06",
    "operator": "Heavy Pedals",
    "service:bicycle:chain_tool": "no",
    "service:bicycle:pump": "yes"
  }
},
{
  "type": "node",
  "id": 5771108421,
  "lat": 48.2146361,
  "lon": 16.3882296,
  "tags": {
    "amenity": "bicycle_repair_station",
    "check_date": "2022-08-15",
    "compressed_air": "yes",
    "fee": "no",
    "name": "Radlobby Radservice Station",
    "opening_hours": "\"Frühling bis Herbst: 24/7\"",
    "operator": "Radlobby",
    "service:bicycle:pump": "yes",
    "service:bicycle:tools": "yes",
    "wikimedia_commons": "File:2018 Parklet Lichtenauergasse 4, Wien.jpg"
  }
},
{
  "type": "node",
  "id": 5779228253,
  "lat": 48.2251233,
  "lon": 16.3560690,
  "tags": {
    "amenity": "bicycle_repair_station",
    "fee": "no",
    "opening_hours": "24/7",
    "operator": "Gewista Werbegesellschaft mbH",
    "service:bicycle:pump": "yes",
    "service:bicycle:screwdriver": "yes",
    "service:bicycle:tools": "yes"
  }
},
{
  "type": "node",
  "id": 5779228254,
  "lat": 48.2286700,
  "lon": 16.3686734,
  "tags": {
    "amenity": "bicycle_repair_station",
    "fee": "no",
    "opening_hours": "24/7",
    "operator": "Gewista Werbegesellschaft mbH",
    "service:bicycle:pump": "yes",
    "service:bicycle:screwdriver": "yes",
    "service:bicycle:tools": "yes"
  }
},
{
  "type": "node",
  "id": 5779228255,
  "lat": 48.2146362,
  "lon": 16.3847803,
  "tags": {
    "amenity": "bicycle_repair_station",
    "fee": "no",
    "opening_hours": "24/7",
    "operator": "Gewista Werbegesellschaft mbH",
    "service:bicycle:pump": "yes",
    "service:bicycle:screwdriver": "yes",
    "service:bicycle:tools": "yes"
  }
},
{
  "type": "node",
  "id": 6388598846,
  "lat": 48.0324256,
  "lon": 16.3858160,
  "tags": {
    "amenity": "bicycle_repair_station",
    "fee": "no",
    "opening_hours": "24/7",
    "service:bicycle:pump": "yes",
    "service:bicycle:stand": "yes",
    "service:bicycle:tools": "yes"
  }
},
{
  "type": "node",
  "id": 6508634019,
  "lat": 48.3100156,
  "lon": 16.3284376,
  "tags": {
    "amenity": "bicycle_repair_station",
    "fee": "no",
    "indoor": "no",
    "service:bicycle:pump": "no"
  }
},
{
  "type": "node",
  "id": 6510933645,
  "lat": 48.2960562,
  "lon": 16.3415579,
  "tags": {
    "amenity": "bicycle_repair_station",
    "fee": "no",
    "image": "https://www.pic-upload.de/view-37140609/IMG_20220802_112647.jpg.html",
    "name": "Fahrrad-Station Klosterneuburg",
    "opening_hours": "24/7",
    "operator": "ÖAMTC",
    "service:bicycle:pump": "yes",
    "service:bicycle:stand": "yes",
    "service:bicycle:tools": "yes"
  }
},
{
  "type": "node",
  "id": 6778932772,
  "lat": 48.1926526,
  "lon": 16.3163521,
  "tags": {
    "amenity": "bicycle_repair_station",
    "operator": "Velobis"
  }
},
{
  "type": "node",
  "id": 6796597075,
  "lat": 48.2129960,
  "lon": 16.3251549,
  "tags": {
    "access": "permissive",
    "amenity": "bicycle_repair_station",
    "operator": "Ottakringer Brauerei AG",
    "service:bicycle:pump": "yes"
  }
},
{
  "type": "node",
  "id": 6807966443,
  "lat": 48.2168731,
  "lon": 16.3530072,
  "tags": {
    "amenity": "bicycle_repair_station",
    "fee": "no",
    "opening_hours": "24/7",
    "operator": "ÖH Uni Wien",
    "service:bicycle:pump": "yes",
    "service:bicycle:tools": "yes"
  }
},
{
  "type": "node",
  "id": 7017826840,
  "lat": 48.1048878,
  "lon": 16.2883817,
  "tags": {
    "amenity": "bicycle_repair_station",
    "fee": "no",
    "opening_hours": "24/7",
    "service:bicycle:pump": "yes",
    "service:bicycle:stand": "yes",
    "service:bicycle:tools": "yes"
  }
},
{
  "type": "node",
  "id": 7022335081,
  "lat": 48.2067763,
  "lon": 16.1773832,
  "tags": {
    "amenity": "bicycle_repair_station",
    "fee": "no",
    "opening_hours": "24/7",
    "service:bicycle:pump": "yes",
    "service:bicycle:repair": "yes",
    "service:bicycle:tools": "yes"
  }
},
{
  "type": "node",
  "id": 7149757387,
  "lat": 48.1403149,
  "lon": 16.4759962,
  "tags": {
    "amenity": "bicycle_repair_station",
    "opening_hours": "24/7",
    "operator": "Zoneextreme",
    "service:bicycle:chain_tool": "yes",
    "service:bicycle:pump": "yes",
    "service:bicycle:screwdriver": "yes",
    "service:bicycle:tools": "yes"
  }
},
{
  "type": "node",
  "id": 7474542777,
  "lat": 48.2949498,
  "lon": 16.1203306,
  "tags": {
    "amenity": "bicycle_repair_station",
    "fee": "no",
    "opening_hours": "24/7",
    "operator": "Radland NÖ",
    "service:bicycle:pump": "yes",
    "service:bicycle:repair": "yes",
    "service:bicycle:tools": "yes"
  }
},
{
  "type": "node",
  "id": 7503772600,
  "lat": 48.3048754,
  "lon": 16.4615046,
  "tags": {
    "amenity": "bicycle_repair_station"
  }
},
{
  "type": "node",
  "id": 7566600819,
  "lat": 48.3095880,
  "lon": 16.3567051,
  "tags": {
    "amenity": "bicycle_repair_station",
    "fee": "no",
    "service:bicycle:pump": "yes",
    "service:bicycle:stand": "yes",
    "service:bicycle:tools": "yes"
  }
},
{
  "type": "node",
  "id": 7996877205,
  "lat": 48.1814762,
  "lon": 16.3845012,
  "tags": {
    "amenity": "bicycle_repair_station",
    "opening_hours": "Mo-Su 00:00-24:00",
    "operator": "https://lenkerbande.at/",
    "service:bicycle:pump": "yes"
  }
},
{
  "type": "node",
  "id": 8173849183,
  "lat": 48.1973102,
  "lon": 16.3382149,
  "tags": {
    "amenity": "bicycle_repair_station",
    "fee": "no",
    "opening_hours": "24/7",
    "operator": "WienMobil/Wiener Linien",
    "service:bicycle:pump": "yes"
  }
},
{
  "type": "node",
  "id": 8476105559,
  "lat": 48.1888816,
  "lon": 16.4120148,
  "tags": {
    "amenity": "bicycle_repair_station",
    "fee": "no",
    "opening_hours": "24/7",
    "operator": "ÖAMTC",
    "service:bicycle:pump": "yes",
    "service:bicycle:screwdriver": "yes",
    "service:bicycle:stand": "yes",
    "service:bicycle:tools": "yes"
  }
},
{
  "type": "node",
  "id": 8483716881,
  "lat": 48.1970131,
  "lon": 16.3513559,
  "tags": {
    "amenity": "bicycle_repair_station",
    "fee": "no",
    "note": "part of the Wien Mobil station",
    "opening_hours": "24/7",
    "operator": "Wiener Linien",
    "service:bicycle:pump": "yes",
    "service:bicycle:tools": "yes",
    "wikimedia_commons": "File:Wien 3 März 2021 21 56 10 963000.jpeg"
  }
},
{
  "type": "node",
  "id": 8503669385,
  "lat": 48.2165205,
  "lon": 16.3782359,
  "tags": {
    "addr:housenumber": "4",
    "addr:postcode": "1020",
    "addr:street": "Große Sperlgasse",
    "amenity": "bicycle_repair_station",
    "fee": "no",
    "name": "Radservicestation",
    "opening_hours": "24/7",
    "operator": "Mobilitätsagentur Wien",
    "seasonal": "spring/summer/autumn",
    "service:bicycle:pump": "yes",
    "service:bicycle:tools": "yes"
  }
},
{
  "type": "node",
  "id": 8503686566,
  "lat": 48.2134178,
  "lon": 16.4078803,
  "tags": {
    "amenity": "bicycle_repair_station",
    "operator": "WU Wien",
    "service:bicycle:pump": "yes",
    "service:bicycle:tools": "yes"
  }
},
{
  "type": "node",
  "id": 8503803648,
  "lat": 48.2077547,
  "lon": 16.3421328,
  "tags": {
    "addr:street": "Ceija-Stojka-Platz/Mentergasse",
    "amenity": "bicycle_repair_station",
    "fee": "no",
    "opening_hours": "24/7",
    "operator": "WienMobil/Wiener Linien",
    "service:bicycle:pump": "yes",
    "service:bicycle:repair_stand": "yes",
    "service:bicycle:screwdriver": "yes",
    "service:bicycle:tools": "yes"
  }
},
{
  "type": "node",
  "id": 8503890881,
  "lat": 48.1925840,
  "lon": 16.2782676,
  "tags": {
    "amenity": "bicycle_repair_station",
    "fee": "no",
    "opening_hours": "24/7",
    "operator": "ÖAMTC",
    "service:bicycle:pump": "yes",
    "service:bicycle:stand": "yes",
    "service:bicycle:tools": "yes"
  }
},
{
  "type": "node",
  "id": 8503894152,
  "lat": 48.2080098,
  "lon": 16.2163022,
  "tags": {
    "amenity": "bicycle_repair_station",
    "fee": "no",
    "opening_hours": "24/7",
    "operator": "Auhof Center",
    "service:bicycle:pump": "yes",
    "service:bicycle:stand": "yes",
    "service:bicycle:tools": "yes"
  }
},
{
  "type": "node",
  "id": 8503985900,
  "lat": 48.1257041,
  "lon": 16.3195604,
  "tags": {
    "amenity": "bicycle_repair_station",
    "fee": "no",
    "opening_hours": "24/7",
    "operator": "ÖAMTC",
    "service:bicycle:pump": "yes",
    "service:bicycle:stand": "yes",
    "service:bicycle:tools": "yes"
  }
},
{
  "type": "node",
  "id": 8595651941,
  "lat": 48.2338833,
  "lon": 16.3589041,
  "tags": {
    "amenity": "bicycle_repair_station",
    "fee": "no",
    "service:bicycle:pump": "yes",
    "service:bicycle:tools": "yes"
  }
},
{
  "type": "node",
  "id": 8738843201,
  "lat": 48.1585387,
  "lon": 16.2944460,
  "tags": {
    "amenity": "bicycle_repair_station",
    "fee": "no",
    "opening_hours": "24/7",
    "service:bicycle:pump": "yes",
    "service:bicycle:tools": "yes"
  }
},
{
  "type": "node",
  "id": 8788392591,
  "lat": 48.2087246,
  "lon": 16.2165990,
  "tags": {
    "amenity": "bicycle_repair_station",
    "fee": "no",
    "opening_hours": "24/7",
    "operator": "Auhof Center",
    "service:bicycle:pump": "yes",
    "service:bicycle:tools": "yes"
  }
},
{
  "type": "node",
  "id": 8814905442,
  "lat": 48.1932820,
  "lon": 16.2776468,
  "tags": {
    "amenity": "bicycle_repair_station",
    "opening_hours": "Mo-Sa 07:30-18:00",
    "operator": "ARBÖ",
    "service:bicycle:pump": "yes",
    "service:bicycle:tools": "yes"
  }
},
{
  "type": "node",
  "id": 8999830637,
  "lat": 48.1942833,
  "lon": 16.4683597,
  "tags": {
    "amenity": "bicycle_repair_station",
    "fee": "no",
    "opening_hours": "24/7",
    "operator": "Stadt Wien - Klima, Forst- und Landwirtschaftsbetrieb",
    "operator:type": "public",
    "service:bicycle:pump": "yes",
    "service:bicycle:stand": "yes",
    "service:bicycle:tools": "yes"
  }
},
{
  "type": "node",
  "id": 9079359638,
  "lat": 48.2191501,
  "lon": 16.3662108,
  "tags": {
    "amenity": "bicycle_repair_station",
    "fee": "no",
    "opening_hours": "24/7",
    "operator": "WienMobil/Wiener Linien",
    "service:bicycle:pump": "yes",
    "service:bicycle:tools": "yes"
  }
},
{
  "type": "node",
  "id": 9079406368,
  "lat": 48.2217990,
  "lon": 16.3998205,
  "tags": {
    "amenity": "bicycle_repair_station",
    "opening_hours": "24/7",
    "operator": "Lenkerbande",
    "seasonal": "spring-summer",
    "service:bicycle:pump": "yes",
    "service:bicycle:tools": "yes"
  }
},
{
  "type": "node",
  "id": 9246057169,
  "lat": 48.2366497,
  "lon": 16.3487523,
  "tags": {
    "amenity": "bicycle_repair_station",
    "opening_hours": "24/7",
    "operator": "WienMobil/Wiener Linien",
    "service:bicycle:pump": "yes",
    "service:bicycle:tools": "yes"
  }
},
{
  "type": "node",
  "id": 9246066512,
  "lat": 48.2195035,
  "lon": 16.3825799,
  "tags": {
    "amenity": "bicycle_repair_station",
    "fee": "no",
    "opening_hours": "24/7",
    "operator": "WienMobil/Wiener Linien",
    "service:bicycle:pump": "yes",
    "service:bicycle:stand": "yes",
    "service:bicycle:tools": "yes"
  }
},
{
  "type": "node",
  "id": 9368223336,
  "lat": 48.0064894,
  "lon": 16.2327717,
  "tags": {
    "amenity": "bicycle_repair_station",
    "fee": "no",
    "opening_hours": "24/7",
    "operator": "ÖAMTC",
    "service:bicycle:pump": "yes",
    "service:bicycle:stand": "yes",
    "service:bicycle:tools": "yes"
  }
},
{
  "type": "node",
  "id": 9436716141,
  "lat": 48.2254791,
  "lon": 16.3497554,
  "tags": {
    "amenity": "bicycle_repair_station",
    "fee": "no",
    "opening_hours": "24/7",
    "operator": "WienMobil/Wiener Linien",
    "service:bicycle:pump": "yes",
    "service:bicycle:tools": "yes"
  }
},
{
  "type": "node",
  "id": 9494955440,
  "lat": 48.3440580,
  "lon": 16.3287638,
  "tags": {
    "amenity": "bicycle_repair_station",
    "fee": "no",
    "opening_hours": "24/7",
    "service:bicycle:pump": "yes",
    "service:bicycle:tools": "yes"
  }
},
{
  "type": "node",
  "id": 9505160903,
  "lat": 48.1802342,
  "lon": 16.3307359,
  "tags": {
    "amenity": "bicycle_repair_station",
    "fee": "no",
    "opening_hours": "24/7",
    "operator": "ÖAMTC",
    "service:bicycle:pump": "yes",
    "service:bicycle:screwdriver": "yes",
    "service:bicycle:stand": "yes",
    "service:bicycle:tools": "yes"
  }
},
{
  "type": "node",
  "id": 9690312029,
  "lat": 48.2415284,
  "lon": 16.3835659,
  "tags": {
    "amenity": "bicycle_repair_station",
    "check_date": "2022-08-15",
    "service:bicycle:pump": "yes"
  }
},
{
  "type": "node",
  "id": 9755736606,
  "lat": 48.2298521,
  "lon": 16.3714453,
  "tags": {
    "amenity": "bicycle_repair_station",
    "fee": "no",
    "opening_hours": "24/7",
    "service:bicycle:pump": "yes",
    "service:bicycle:screwdriver": "yes",
    "service:bicycle:tools": "yes"
  }
},
{
  "type": "node",
  "id": 9829140356,
  "lat": 48.3006728,
  "lon": 16.3501156,
  "tags": {
    "amenity": "bicycle_repair_station",
    "fee": "no",
    "opening_hours": "24/7",
    "service:bicycle:pump": "yes",
    "service:bicycle:stand": "yes",
    "service:bicycle:tools": "yes"
  }
},
{
  "type": "node",
  "id": 9841136575,
  "lat": 48.2055845,
  "lon": 16.4315928,
  "tags": {
    "amenity": "bicycle_repair_station",
    "fee": "no",
    "opening_hours": "24/7",
    "operator": "ARBÖ Wien",
    "service:bicycle:pump": "yes",
    "service:bicycle:screwdriver": "yes",
    "service:bicycle:tools": "yes"
  }
},
{
  "type": "node",
  "id": 9874337042,
  "lat": 48.1034147,
  "lon": 16.3183998,
  "tags": {
    "amenity": "bicycle_repair_station",
    "fee": "no",
    "opening_hours": "24/7",
    "operator": "SCS",
    "service:bicycle:pump": "yes",
    "service:bicycle:tools": "yes"
  }
},
{
  "type": "node",
  "id": 9889416044,
  "lat": 48.1851783,
  "lon": 16.3532096,
  "tags": {
    "amenity": "bicycle_repair_station",
    "operator": "Stadt Wien - Straßenverwaltung und Straßenbau (MA 28)",
    "service:bicycle:pump": "yes"
  }
},
{
  "type": "node",
  "id": 9969588282,
  "lat": 48.2090597,
  "lon": 16.2126188,
  "tags": {
    "amenity": "bicycle_repair_station",
    "fee": "no",
    "opening_hours": "24/7",
    "operator": "RLS Sport",
    "service:bicycle:pump": "yes",
    "service:bicycle:tools": "yes"
  }
},
{
  "type": "node",
  "id": 9971573061,
  "lat": 48.0242573,
  "lon": 16.2804051,
  "tags": {
    "amenity": "bicycle_repair_station",
    "fee": "no",
    "opening_hours": "24/7",
    "operator": "ÖAMTC",
    "service:bicycle:pump": "yes",
    "service:bicycle:stand": "yes",
    "service:bicycle:tools": "yes"
  }
},
{
  "type": "node",
  "id": 9971573444,
  "lat": 48.2031231,
  "lon": 16.3766743,
  "tags": {
    "amenity": "bicycle_repair_station",
    "fee": "no",
    "opening_hours": "24/7",
    "operator": "ÖAMTC",
    "service:bicycle:pump": "yes",
    "service:bicycle:stand": "yes",
    "service:bicycle:tools": "yes"
  }
},
{
  "type": "node",
  "id": 10175220281,
  "lat": 48.2132196,
  "lon": 16.4088537,
  "tags": {
    "amenity": "bicycle_repair_station",
    "covered": "yes",
    "fee": "no",
    "opening_hours": "24/7",
    "operator": "WU Wien",
    "service:bicycle:pump": "yes",
    "service:bicycle:tools": "yes"
  }
},
{
  "type": "node",
  "id": 10225736299,
  "lat": 48.2340784,
  "lon": 16.3847714,
  "tags": {
    "amenity": "bicycle_repair_station",
    "fee": "no",
    "service:bicycle:pump": "yes",
    "service:bicycle:tools": "yes"
  }
},
{
  "type": "node",
  "id": 10295675311,
  "lat": 48.2019396,
  "lon": 16.3431619,
  "tags": {
    "amenity": "bicycle_repair_station",
    "service:bicycle:pump": "yes",
    "service:bicycle:tools": "yes"
  }
},
{
  "type": "node",
  "id": 10295675335,
  "lat": 48.1996791,
  "lon": 16.3613201,
  "tags": {
    "access": "yes",
    "amenity": "bicycle_repair_station",
    "fee": "no",
    "manometer": "yes",
    "manual": "yes",
    "opening_hours": "24/7",
    "operator": "WienMobil",
    "service:bicycle:chain_tool": "no",
    "service:bicycle:pump": "yes",
    "service:bicycle:pump:operational_status": "operational",
    "service:bicycle:repair": "yes",
    "service:bicycle:stand": "yes",
    "service:bicycle:tools": "yes",
    "valves": "schrader;sclaverand"
  }
},
{
  "type": "node",
  "id": 10302474270,
  "lat": 48.1344178,
  "lon": 16.2832203,
  "tags": {
    "amenity": "bicycle_repair_station",
    "fee": "no",
    "opening_hours": "24/7",
    "operator": "Wien Mobil",
    "service:bicycle:pump": "yes",
    "service:bicycle:tools": "yes"
  }
},
{
  "type": "node",
  "id": 10314407909,
  "lat": 48.0861164,
  "lon": 16.3136557,
  "tags": {
    "amenity": "bicycle_repair_station",
    "image": "https://commons.wikimedia.org/wiki/File:Bicycle_Repair_Stand_Wiener_Neudorf_Wienerstra%C3%9Fe_1.jpg",
    "opening_hours": "24/7",
    "operator": "Radland.at",
    "service:bicycle:pump": "yes",
    "service:bicycle:stand": "yes",
    "service:bicycle:tools": "yes",
    "website": "https://www.sarisinfrastructure.com/help"
  }
},
{
  "type": "node",
  "id": 10554594923,
  "lat": 48.1941168,
  "lon": 16.2714764,
  "tags": {
    "amenity": "bicycle_repair_station",
    "service:bicycle:pump": "yes"
  }
},
{
  "type": "node",
  "id": 10567656286,
  "lat": 48.2245022,
  "lon": 16.5029731,
  "tags": {
    "amenity": "bicycle_repair_station",
    "check_date": "2023-03-08",
    "opening_hours": "24/7",
    "operator": "Aspern LAB",
    "service:bicycle:pump": "yes",
    "service:bicycle:tools": "no"
  }
},
{
  "type": "node",
  "id": 10584519964,
  "lat": 48.1335844,
  "lon": 16.2628150,
  "tags": {
    "amenity": "bicycle_repair_station",
    "service:bicycle:pump": "yes",
    "service:bicycle:repair": "yes"
  }
},
{
  "type": "node",
  "id": 10680321739,
  "lat": 48.1951514,
  "lon": 16.3632989,
  "tags": {
    "amenity": "bicycle_repair_station",
    "service:bicycle:pump": "yes",
    "service:bicycle:tools": "yes"
  }
},
{
  "type": "node",
  "id": 10737697760,
  "lat": 48.2185450,
  "lon": 16.3903543,
  "tags": {
    "amenity": "bicycle_repair_station",
    "covered": "no",
    "fee": "no",
    "indoor": "no",
    "level": "0",
    "service:bicycle:pump": "yes",
    "service:bicycle:tools": "yes"
  }
},
{
  "type": "node",
  "id": 10739271423,
  "lat": 48.2157144,
  "lon": 16.3805910,
  "tags": {
    "amenity": "bicycle_repair_station",
    "service:bicycle:pump": "yes"
  }
},
{
  "type": "node",
  "id": 10756246714,
  "lat": 48.2154231,
  "lon": 16.3468764,
  "tags": {
    "amenity": "bicycle_repair_station",
    "brand": "Saris",
    "fee": "no",
    "operator": "WienMobil",
    "service:bicycle:pump": "yes",
    "service:bicycle:stand": "yes",
    "service:bicycle:tools": "yes"
  }
},
{
  "type": "node",
  "id": 10816728608,
  "lat": 48.2030222,
  "lon": 16.3179293,
  "tags": {
    "amenity": "bicycle_repair_station"
  }
},
{
  "type": "node",
  "id": 10824616476,
  "lat": 48.1906429,
  "lon": 16.4150605,
  "tags": {
    "amenity": "bicycle_repair_station",
    "fee": "no",
    "operator": "WienMobil",
    "service:bicycle:pump": "yes",
    "service:bicycle:repair": "yes"
  }
},
{
  "type": "node",
  "id": 10828998033,
  "lat": 48.2110966,
  "lon": 16.3861615,
  "tags": {
    "amenity": "bicycle_repair_station",
    "fee": "no",
    "opening_hours": "24/7",
    "service:bicycle:pump": "yes",
    "service:bicycle:tools": "yes"
  }
},
{
  "type": "node",
  "id": 10884232846,
  "lat": 48.2082343,
  "lon": 16.1756488,
  "tags": {
    "amenity": "bicycle_repair_station",
    "fee": "no",
    "operator": "Stadtgemeinde Purkersdorf",
    "service:bicycle:repair": "yes",
    "service:bicycle:screwdriver": "yes",
    "service:bicycle:stand": "yes",
    "service:bicycle:tools": "yes"
  }
},
{
  "type": "node",
  "id": 10936925377,
  "lat": 48.1655349,
  "lon": 16.3033205,
  "tags": {
    "amenity": "bicycle_repair_station",
    "fee": "no",
    "operator": "WienMobil / ÖAMTC",
    "service:bicycle:pump": "yes",
    "service:bicycle:repair": "yes"
  }
},
{
  "type": "node",
  "id": 10969213894,
  "lat": 48.2132533,
  "lon": 16.3511552,
  "tags": {
    "amenity": "bicycle_repair_station",
    "fee": "no",
    "operator": "WienMobil"
  }
},
{
  "type": "node",
  "id": 10980109095,
  "lat": 48.2291479,
  "lon": 16.4533435,
  "tags": {
    "amenity": "bicycle_repair_station",
    "brand": "ÖAMTC",
    "name": "Bicycle Repair tools"
  }
},
{
  "type": "node",
  "id": 10982916174,
  "lat": 48.2232926,
  "lon": 16.3999889,
  "tags": {
    "amenity": "bicycle_repair_station",
    "fee": "no",
    "service:bicycle:pump": "yes",
    "service:bicycle:repair": "yes"
  }
},
{
  "type": "node",
  "id": 11006047275,
  "lat": 48.1680137,
  "lon": 16.2824202,
  "tags": {
    "amenity": "bicycle_repair_station",
    "service:bicycle:pump": "yes"
  }
},
{
  "type": "node",
  "id": 11049568388,
  "lat": 48.1897759,
  "lon": 16.3616001,
  "tags": {
    "access": "yes",
    "amenity": "bicycle_repair_station",
    "service:bicycle:pump": "yes",
    "service:bicycle:tools": "yes"
  }
},
{
  "type": "node",
  "id": 11049581135,
  "lat": 48.1614317,
  "lon": 16.3242453,
  "tags": {
    "amenity": "bicycle_repair_station",
    "fee": "no",
    "fixme": "location",
    "service:bicycle:pump": "yes",
    "service:bicycle:repair": "yes"
  }
},
{
  "type": "node",
  "id": 11056316623,
  "lat": 48.2671671,
  "lon": 16.4023910,
  "tags": {
    "amenity": "bicycle_repair_station",
    "fee": "no",
    "operator": "Wiener Rotes Kreuz",
    "service:bicycle:pump": "yes",
    "service:bicycle:tools": "yes"
  }
},
{
  "type": "node",
  "id": 11056342010,
  "lat": 48.1905376,
  "lon": 16.4110860,
  "tags": {
    "amenity": "bicycle_repair_station",
    "fee": "no",
    "operator": "Wiener Rotes Kreuz",
    "service:bicycle:pump": "yes",
    "service:bicycle:tools": "yes"
  }
},
{
  "type": "node",
  "id": 11071825652,
  "lat": 48.2260043,
  "lon": 16.4237273,
  "tags": {
    "amenity": "bicycle_repair_station",
    "fee": "no",
    "opening_hours": "24/7",
    "operator": "Wien Mobil",
    "service:bicycle:pump": "yes",
    "service:bicycle:stand": "yes",
    "service:bicycle:tools": "yes"
  }
}

  ]
}
