{
  "version": 0.6,
  "generator": "Overpass API 0.7.60.6 e2dc3e5b",
  "osm3s": {
    "timestamp_osm_base": "2023-08-06T13:07:42Z",
    "copyright": "The data included in this document is from www.openstreetmap.org. The data is made available under ODbL."
  },
  "elements": [

{
  "type": "node",
  "id": 828132497,
  "lat": 48.2636504,
  "lon": 16.3669066,
  "tags": {
    "addr:city": "Wien",
    "addr:country": "AT",
    "addr:postcode": "1190",
    "addr:street": "Donaupromenade am Radweg",
    "contact:email": "radsport.nussdorf@gmail.com",
    "contact:phone": "+43 1 3704598",
    "contact:website": "https://www.donau-fritzi.at/",
    "description": "Gebrauchträder,Neuware: Stadträder, Vorjahresmode, Einzelstücke, transportbeschädigte Räder",
    "name": "Donau Fritzi",
    "opening_hours": "Mar-Nov Tu,Fr 08:00-18:00; Mar-Nov We 10:00-20:00; Dec-Feb Tu,We,Fr off",
    "operator": "Alexander Boris Göttling",
    "service:bicycle:rental": "yes",
    "service:bicycle:repair": "yes",
    "service:bicycle:retail": "yes",
    "shop": "bicycle",
    "vending": "bicycle_tube",
    "vending_machine": "yes"
  }
},
{
  "type": "node",
  "id": 1163927233,
  "lat": 48.2090634,
  "lon": 16.2126187,
  "tags": {
    "amenity": "vending_machine",
    "brand": "Continental",
    "brand:wikidata": "Q64739247",
    "check_date": "2022-02-05",
    "currency:EUR": "yes",
    "name": "Continental",
    "operator": "RLS Sport",
    "payment:cards": "yes",
    "payment:coins": "yes",
    "vending": "bicycle_tube"
  }
},
{
  "type": "node",
  "id": 1204182791,
  "lat": 48.2375892,
  "lon": 16.3839801,
  "tags": {
    "amenity": "vending_machine",
    "brand": "Continental",
    "brand:wikidata": "Q64739247",
    "check_date": "2023-05-01",
    "currency:EUR": "yes",
    "name": "Continental",
    "operator": "Christian Trappl",
    "payment:coins": "yes",
    "payment:notes": "no",
    "vending": "bicycle_tube"
  }
},
{
  "type": "node",
  "id": 1401229892,
  "lat": 48.3473150,
  "lon": 16.2107076,
  "tags": {
    "amenity": "vending_machine",
    "brand": "Continental",
    "brand:wikidata": "Q64739247",
    "currency:EUR": "yes",
    "name": "Continental",
    "payment:coins": "yes",
    "payment:notes": "no",
    "vending": "bicycle_tube"
  }
},
{
  "type": "node",
  "id": 1401366873,
  "lat": 48.2656717,
  "lon": 16.4544312,
  "tags": {
    "brand": "Continental",
    "brand:wikidata": "Q64739247",
    "currency:EUR": "yes",
    "disused:amenity": "vending_machine",
    "fixme": "Abgebaut?",
    "name": "Continental",
    "operator": "Sports Direct",
    "payment:coins": "yes",
    "vending": "bicycle_tube"
  }
},
{
  "type": "node",
  "id": 1757787382,
  "lat": 48.2031422,
  "lon": 16.4041386,
  "tags": {
    "amenity": "vending_machine",
    "brand": "Continental",
    "brand:wikidata": "Q64739247",
    "check_date": "2021-05-18",
    "currency:EUR": "yes",
    "name": "Continental",
    "operator": "Sator Bike Shop",
    "payment:coins": "yes",
    "payment:notes": "no",
    "vending": "bicycle_tube"
  }
},
{
  "type": "node",
  "id": 1757791524,
  "lat": 48.2347994,
  "lon": 16.3610079,
  "tags": {
    "amenity": "vending_machine",
    "brand": "Schwalbe",
    "brand:wikidata": "Q1312213",
    "check_date": "2022-07-26",
    "currency:EUR": "yes",
    "name": "Schwalbe",
    "operator": "Bikers",
    "payment:coins": "yes",
    "payment:notes": "no",
    "vending": "bicycle_tube"
  }
},
{
  "type": "node",
  "id": 1758087418,
  "lat": 48.1348806,
  "lon": 16.3251742,
  "tags": {
    "amenity": "vending_machine",
    "brand": "Schwalbe",
    "brand:wikidata": "Q1312213",
    "name": "Schwalbe",
    "opening_hours": "24/7",
    "source": "survey",
    "vending": "bicycle_tube"
  }
},
{
  "type": "node",
  "id": 2568779605,
  "lat": 48.2249587,
  "lon": 16.4541908,
  "tags": {
    "amenity": "vending_machine",
    "brand": "Continental",
    "brand:wikidata": "Q64739247",
    "currency:EUR": "yes",
    "name": "Continental",
    "operator": "2rad-shop Gerhardt",
    "operator:type": "private",
    "payment:coins": "yes",
    "vending": "bicycle_tube"
  }
},
{
  "type": "node",
  "id": 2909509305,
  "lat": 48.1909392,
  "lon": 16.3469445,
  "tags": {
    "amenity": "vending_machine",
    "brand": "Schwalbe",
    "brand:wikidata": "Q1312213",
    "check_date": "2023-05-29",
    "currency:EUR": "yes",
    "name": "Schwalbe",
    "operator": "Cooperative Fahrrad",
    "payment:coins": "yes",
    "vending": "bicycle_tube"
  }
},
{
  "type": "node",
  "id": 3651103150,
  "lat": 48.0044158,
  "lon": 16.2428955,
  "tags": {
    "amenity": "vending_machine",
    "brand": "Schwalbe",
    "brand:wikidata": "Q1312213",
    "check_date": "2021-09-01",
    "currency:EUR": "yes",
    "name": "Schwalbe",
    "operator": "Bike 2 Train",
    "payment:coins": "yes",
    "vending": "bicycle_tube"
  }
},
{
  "type": "node",
  "id": 3904586598,
  "lat": 48.2070754,
  "lon": 16.1796194,
  "tags": {
    "amenity": "vending_machine",
    "brand": "Continental",
    "brand:wikidata": "Q64739247",
    "currency:EUR": "yes",
    "name": "Continental",
    "operator": "morethanbike",
    "payment:coins": "yes",
    "vending": "bicycle_tube"
  }
},
{
  "type": "node",
  "id": 4042856628,
  "lat": 48.1874188,
  "lon": 16.3468139,
  "tags": {
    "amenity": "vending_machine",
    "brand": "Schwalbe",
    "brand:wikidata": "Q1312213",
    "check_date": "2021-06-30",
    "currency:EUR": "yes",
    "name": "Schwalbe",
    "operator": "Heavy Pedals",
    "payment:coins": "yes",
    "payment:notes": "no",
    "vending": "bicycle_tube"
  }
},
{
  "type": "node",
  "id": 4052385256,
  "lat": 48.2251659,
  "lon": 16.5079012,
  "tags": {
    "amenity": "vending_machine",
    "brand": "Schwalbe",
    "brand:wikidata": "Q1312213",
    "check_date": "2023-03-08",
    "currency:EUR": "yes",
    "name": "Schwalbe",
    "opening_hours": "24/7",
    "payment:coins": "yes",
    "payment:notes": "no",
    "vending": "bicycle_tube"
  }
},
{
  "type": "node",
  "id": 4210290525,
  "lat": 48.0415550,
  "lon": 16.2854527,
  "tags": {
    "amenity": "vending_machine",
    "brand": "Schwalbe",
    "brand:wikidata": "Q1312213",
    "check_date": "2022-01-06",
    "name": "Schwalbe",
    "payment:coins": "yes",
    "vending": "bicycle_tube"
  }
},
{
  "type": "node",
  "id": 4397954918,
  "lat": 48.2120670,
  "lon": 16.3862103,
  "tags": {
    "amenity": "vending_machine",
    "brand": "Continental",
    "brand:wikidata": "Q64739247",
    "check_date": "2021-08-30",
    "name": "Continental",
    "operator": "Radlobby",
    "payment:coins": "yes",
    "vending": "bicycle_tube"
  }
},
{
  "type": "node",
  "id": 8457544338,
  "lat": 48.0718105,
  "lon": 16.3453865,
  "tags": {
    "amenity": "vending_machine",
    "brand": "Schwalbe",
    "brand:wikidata": "Q1312213",
    "currency:EUR": "yes",
    "name": "Schwalbe",
    "operator": "schwalbe",
    "payment:coins": "yes",
    "vending": "bicycle_tube"
  }
},
{
  "type": "node",
  "id": 8503728059,
  "lat": 48.2194324,
  "lon": 16.4046554,
  "tags": {
    "amenity": "vending_machine",
    "brand": "Schwalbe",
    "brand:wikidata": "Q1312213",
    "currency:EUR": "yes",
    "name": "Schwalbe",
    "operator": "Heavy Pedals",
    "payment:coins": "yes",
    "vending": "bicycle_tube"
  }
},
{
  "type": "node",
  "id": 8723066302,
  "lat": 48.2380712,
  "lon": 16.4327558,
  "tags": {
    "amenity": "vending_machine",
    "brand": "Continental",
    "brand:wikidata": "Q64739247",
    "name": "Continental",
    "opening_hours": "24/7",
    "operator": "Bikestore Servicecenter",
    "payment:coins": "yes",
    "vending": "bicycle_tube"
  }
},
{
  "type": "node",
  "id": 8814903523,
  "lat": 48.1932999,
  "lon": 16.2776736,
  "tags": {
    "amenity": "vending_machine",
    "opening_hours": "Mo-Sa 07:30-18:00",
    "operator": "ARBÖ",
    "payment:coins": "yes",
    "vending": "bicycle_tube"
  }
},
{
  "type": "node",
  "id": 9764074420,
  "lat": 48.2636108,
  "lon": 16.3670106,
  "tags": {
    "amenity": "vending_machine",
    "brand": "Schwalbe",
    "brand:wikidata": "Q1312213",
    "currency:EUR": "yes",
    "name": "Schwalbe",
    "operator": "Donau Fritzi",
    "payment:coins": "yes",
    "vending": "bicycle_tube"
  }
},
{
  "type": "node",
  "id": 9937732669,
  "lat": 48.2960363,
  "lon": 16.3414950,
  "tags": {
    "amenity": "vending_machine",
    "currency:EUR": "yes",
    "image": "https://www.pic-upload.de/view-37140610/IMG_20220802_112641.jpg.html",
    "operator": "ÖAMTC",
    "payment:coins": "yes",
    "vending": "bicycle_tube"
  }
},
{
  "type": "node",
  "id": 9969476225,
  "lat": 48.1403507,
  "lon": 16.4759135,
  "tags": {
    "amenity": "vending_machine",
    "brand": "Schwalbe",
    "brand:wikidata": "Q1312213",
    "name": "Schwalbe",
    "vending": "bicycle_tube"
  }
},
{
  "type": "node",
  "id": 9970701641,
  "lat": 48.0577588,
  "lon": 16.3266426,
  "tags": {
    "amenity": "vending_machine",
    "brand": "Schwalbe",
    "brand:wikidata": "Q1312213",
    "currency:EUR": "yes",
    "name": "Schwalbe",
    "payment:coins": "yes",
    "vending": "bicycle_tube"
  }
},
{
  "type": "node",
  "id": 9977166537,
  "lat": 48.2082743,
  "lon": 16.3394171,
  "tags": {
    "amenity": "vending_machine",
    "currency:EUR": "yes",
    "operator": "Radplatz 1070",
    "payment:coins": "yes",
    "vending": "bicycle_tube",
    "website": "https://radplatz.at/"
  }
},
{
  "type": "node",
  "id": 9987689053,
  "lat": 48.0825644,
  "lon": 16.2872972,
  "tags": {
    "amenity": "vending_machine",
    "brand": "Continental",
    "brand:wikidata": "Q64739247",
    "currency:EUR": "yes",
    "name": "Continental",
    "operator": "Bonanza Rad",
    "payment:coins": "yes",
    "payment:notes": "no",
    "vending": "bicycle_tube"
  }
},
{
  "type": "node",
  "id": 9987838537,
  "lat": 48.2179776,
  "lon": 16.3559841,
  "tags": {
    "amenity": "vending_machine",
    "brand": "Schwalbe",
    "brand:wikidata": "Q1312213",
    "currency:EUR": "yes",
    "name": "Schwalbe",
    "payment:coins": "yes",
    "vending": "bicycle_tube"
  }
}

  ]
}
